<?xml version="1.0" encoding="UTF-8"?>
<kml xmlns="http://www.opengis.net/kml/2.2">
  <Document>
    <name>Indicaciones de G47X+RR, 91194 Valle Real, Ver., México a Vicente Guerrero 7, Centro, 91300 Banderilla, Ver., México</name>
    <Style id="icon-1899-DB4436-nodesc-normal">
      <IconStyle>
        <color>ff3644db</color>
        <scale>1</scale>
        <Icon>
          <href>https://www.gstatic.com/mapspro/images/stock/503-wht-blank_maps.png</href>
        </Icon>
        <hotSpot x="32" xunits="pixels" y="64" yunits="insetPixels"/>
      </IconStyle>
      <LabelStyle>
        <scale>0</scale>
      </LabelStyle>
      <BalloonStyle>
        <text><![CDATA[<h3>$[name]</h3>]]></text>
      </BalloonStyle>
    </Style>
    <Style id="icon-1899-DB4436-nodesc-highlight">
      <IconStyle>
        <color>ff3644db</color>
        <scale>1</scale>
        <Icon>
          <href>https://www.gstatic.com/mapspro/images/stock/503-wht-blank_maps.png</href>
        </Icon>
        <hotSpot x="32" xunits="pixels" y="64" yunits="insetPixels"/>
      </IconStyle>
      <LabelStyle>
        <scale>1</scale>
      </LabelStyle>
      <BalloonStyle>
        <text><![CDATA[<h3>$[name]</h3>]]></text>
      </BalloonStyle>
    </Style>
    <StyleMap id="icon-1899-DB4436-nodesc">
      <Pair>
        <key>normal</key>
        <styleUrl>#icon-1899-DB4436-nodesc-normal</styleUrl>
      </Pair>
      <Pair>
        <key>highlight</key>
        <styleUrl>#icon-1899-DB4436-nodesc-highlight</styleUrl>
      </Pair>
    </StyleMap>
    <Style id="line-1267FF-5000-nodesc-normal">
      <LineStyle>
        <color>ffff6712</color>
        <width>5</width>
      </LineStyle>
      <BalloonStyle>
        <text><![CDATA[<h3>$[name]</h3>]]></text>
      </BalloonStyle>
    </Style>
    <Style id="line-1267FF-5000-nodesc-highlight">
      <LineStyle>
        <color>ffff6712</color>
        <width>7.5</width>
      </LineStyle>
      <BalloonStyle>
        <text><![CDATA[<h3>$[name]</h3>]]></text>
      </BalloonStyle>
    </Style>
    <StyleMap id="line-1267FF-5000-nodesc">
      <Pair>
        <key>normal</key>
        <styleUrl>#line-1267FF-5000-nodesc-normal</styleUrl>
      </Pair>
      <Pair>
        <key>highlight</key>
        <styleUrl>#line-1267FF-5000-nodesc-highlight</styleUrl>
      </Pair>
    </StyleMap>
    <Placemark>
      <name>Indicaciones de G47X+RR, 91194 Valle Real, Ver., México a Vicente Guerrero 7, Centro, 91300 Banderilla, Ver., México</name>
      <styleUrl>#line-1267FF-5000-nodesc</styleUrl>
      <LineString>
        <tessellate>1</tessellate>
        <coordinates>
          -96.85047,19.51489,0
          -96.85028,19.51464,0
          -96.8502,19.51456,0
          -96.85016,19.51453,0
          -96.85003,19.51443,0
          -96.84973,19.51424,0
          -96.84973,19.51423,0
          -96.84972,19.51423,0
          -96.84972,19.51422,0
          -96.84972,19.51421,0
          -96.84971,19.51421,0
          -96.84971,19.5142,0
          -96.8497,19.5142,0
          -96.8497,19.51419,0
          -96.84969,19.51419,0
          -96.84968,19.51418,0
          -96.84967,19.51418,0
          -96.84966,19.51417,0
          -96.84965,19.51417,0
          -96.84964,19.51417,0
          -96.84963,19.51417,0
          -96.84953,19.51402,0
          -96.84944,19.51388,0
          -96.84937,19.51376,0
          -96.84932,19.51364,0
          -96.8493,19.51359,0
          -96.84929,19.51355,0
          -96.84927,19.51347,0
          -96.84924,19.51333,0
          -96.84924,19.51327,0
          -96.84923,19.51322,0
          -96.84924,19.51319,0
          -96.84924,19.51316,0
          -96.84926,19.5131,0
          -96.84927,19.51307,0
          -96.84931,19.51301,0
          -96.84935,19.51293,0
          -96.84935,19.51292,0
          -96.84939,19.51282,0
          -96.84942,19.51277,0
          -96.84945,19.51272,0
          -96.84949,19.51266,0
          -96.84953,19.51262,0
          -96.84963,19.51256,0
          -96.84965,19.51255,0
          -96.84967,19.51254,0
          -96.84971,19.51253,0
          -96.84978,19.51252,0
          -96.84983,19.51252,0
          -96.84984,19.51252,0
          -96.84989,19.51251,0
          -96.84994,19.51252,0
          -96.85,19.51253,0
          -96.85003,19.51254,0
          -96.85005,19.51254,0
          -96.85014,19.51258,0
          -96.8502,19.51262,0
          -96.85023,19.51264,0
          -96.8503,19.51268,0
          -96.8504,19.51272,0
          -96.85048,19.51274,0
          -96.8506,19.51277,0
          -96.85068,19.51278,0
          -96.85069,19.51278,0
          -96.85079,19.51276,0
          -96.85149,19.51279,0
          -96.8521,19.51281,0
          -96.85225,19.51282,0
          -96.85228,19.51282,0
          -96.8524,19.51285,0
          -96.85262,19.5129,0
          -96.85331,19.5131,0
          -96.85433,19.51339,0
          -96.85448,19.51343,0
          -96.85458,19.51346,0
          -96.85531,19.51367,0
          -96.85608,19.5139,0
          -96.85658,19.51401,0
          -96.85666,19.514,0
          -96.85674,19.51396,0
          -96.85693,19.51382,0
          -96.85702,19.51376,0
          -96.85714,19.51386,0
          -96.85723,19.51396,0
          -96.85753,19.51373,0
          -96.85768,19.51362,0
          -96.85769,19.51361,0
          -96.85827,19.51325,0
          -96.85831,19.51328,0
          -96.85835,19.51331,0
          -96.85839,19.51333,0
          -96.85845,19.51335,0
          -96.85851,19.51335,0
          -96.85855,19.51334,0
          -96.85865,19.51332,0
          -96.8587,19.51329,0
          -96.85873,19.51326,0
          -96.85875,19.51325,0
          -96.85878,19.51321,0
          -96.85882,19.51317,0
          -96.85884,19.51311,0
          -96.85885,19.51308,0
          -96.85886,19.51303,0
          -96.85886,19.51297,0
          -96.85886,19.51294,0
          -96.85885,19.51291,0
          -96.85883,19.51285,0
          -96.85879,19.51278,0
          -96.85868,19.51262,0
          -96.85842,19.51221,0
          -96.85765,19.51095,0
          -96.85765,19.51092,0
          -96.85764,19.51085,0
          -96.85767,19.51069,0
          -96.85775,19.51054,0
          -96.85782,19.51048,0
          -96.85789,19.51043,0
          -96.85799,19.51039,0
          -96.8582,19.51025,0
          -96.85826,19.51019,0
          -96.85831,19.5101,0
          -96.85833,19.51005,0
          -96.85852,19.50942,0
          -96.85854,19.50935,0
          -96.85857,19.50926,0
          -96.85871,19.50881,0
          -96.85882,19.50842,0
          -96.85888,19.50831,0
          -96.85892,19.50826,0
          -96.85897,19.5082,0
          -96.85898,19.50819,0
          -96.85929,19.50805,0
          -96.85996,19.5079,0
          -96.8605,19.50778,0
          -96.8613,19.5076,0
          -96.86223,19.50744,0
          -96.86298,19.50729,0
          -96.8633,19.50727,0
          -96.86346,19.50727,0
          -96.86364,19.50728,0
          -96.86383,19.50731,0
          -96.86394,19.50733,0
          -96.86411,19.50736,0
          -96.86438,19.50743,0
          -96.86462,19.50749,0
          -96.86489,19.50755,0
          -96.86543,19.50769,0
          -96.86597,19.50783,0
          -96.86615,19.50786,0
          -96.86658,19.50797,0
          -96.86666,19.50799,0
          -96.86683,19.50804,0
          -96.86685,19.50804,0
          -96.86721,19.50814,0
          -96.8674,19.50819,0
          -96.8676,19.50825,0
          -96.86776,19.5083,0
          -96.86795,19.50835,0
          -96.86826,19.50844,0
          -96.86831,19.50845,0
          -96.86849,19.50851,0
          -96.86882,19.5086,0
          -96.86886,19.50861,0
          -96.86904,19.50868,0
          -96.86907,19.50868,0
          -96.86948,19.50885,0
          -96.86969,19.50895,0
          -96.86975,19.50898,0
          -96.86986,19.50905,0
          -96.87016,19.50922,0
          -96.87033,19.50934,0
          -96.87053,19.50945,0
          -96.87107,19.50976,0
          -96.87152,19.51,0
          -96.87165,19.51009,0
          -96.87179,19.51016,0
          -96.87224,19.51041,0
          -96.87242,19.51055,0
          -96.87259,19.5107,0
          -96.87265,19.51076,0
          -96.87275,19.51084,0
          -96.87282,19.51092,0
          -96.87296,19.51103,0
          -96.87304,19.5111,0
          -96.87336,19.51139,0
          -96.87361,19.51158,0
          -96.8737,19.51164,0
          -96.87416,19.51198,0
          -96.87424,19.51205,0
          -96.87434,19.51213,0
          -96.87444,19.51223,0
          -96.87458,19.51238,0
          -96.87468,19.51249,0
          -96.87532,19.51318,0
          -96.87534,19.5132,0
          -96.87536,19.51322,0
          -96.87597,19.51386,0
          -96.87611,19.51403,0
          -96.87628,19.51422,0
          -96.87681,19.51455,0
          -96.87695,19.51461,0
          -96.87713,19.51469,0
          -96.87727,19.51473,0
          -96.87818,19.51504,0
          -96.87854,19.51516,0
          -96.87887,19.51528,0
          -96.87931,19.51543,0
          -96.87935,19.51544,0
          -96.87947,19.5155,0
          -96.87959,19.51556,0
          -96.87969,19.51562,0
          -96.87978,19.51569,0
          -96.87987,19.51577,0
          -96.87996,19.51587,0
          -96.88002,19.51596,0
          -96.88015,19.51618,0
          -96.88026,19.51636,0
          -96.88055,19.51679,0
          -96.88086,19.51726,0
          -96.88094,19.51735,0
          -96.88104,19.51743,0
          -96.88115,19.51753,0
          -96.88126,19.51761,0
          -96.88149,19.51777,0
          -96.88203,19.51809,0
          -96.88215,19.51817,0
          -96.88238,19.51832,0
          -96.8825,19.5184,0
          -96.88253,19.51842,0
          -96.88264,19.5185,0
          -96.88276,19.51861,0
          -96.88284,19.51871,0
          -96.88292,19.5188,0
          -96.88299,19.51888,0
          -96.88302,19.51892,0
          -96.88312,19.51907,0
          -96.88347,19.51957,0
          -96.88362,19.51976,0
          -96.88374,19.51989,0
          -96.88383,19.51997,0
          -96.8839,19.52003,0
          -96.88402,19.52011,0
          -96.88417,19.52019,0
          -96.88436,19.52027,0
          -96.88451,19.52032,0
          -96.88462,19.52035,0
          -96.88474,19.52038,0
          -96.88491,19.52042,0
          -96.88499,19.52044,0
          -96.88521,19.52049,0
          -96.88556,19.52058,0
          -96.88666,19.52088,0
          -96.88678,19.52092,0
          -96.88754,19.52109,0
          -96.88777,19.52115,0
          -96.88863,19.52137,0
          -96.8889,19.52143,0
          -96.88899,19.52145,0
          -96.88937,19.52155,0
          -96.88945,19.52156,0
          -96.8896,19.52159,0
          -96.88988,19.52164,0
          -96.89021,19.52168,0
          -96.8907,19.52178,0
          -96.89096,19.52183,0
          -96.89127,19.5219,0
          -96.89208,19.52202,0
          -96.89237,19.52208,0
          -96.89288,19.52216,0
          -96.89294,19.52216,0
          -96.89336,19.52223,0
          -96.89365,19.52229,0
          -96.89381,19.52232,0
          -96.89399,19.52237,0
          -96.89405,19.52239,0
          -96.89416,19.52244,0
          -96.89432,19.52251,0
          -96.8945,19.52263,0
          -96.89475,19.52281,0
          -96.89504,19.52304,0
          -96.89541,19.5233,0
          -96.89607,19.5238,0
          -96.89622,19.52393,0
          -96.89626,19.52397,0
          -96.89644,19.52414,0
          -96.89651,19.52422,0
          -96.89668,19.52448,0
          -96.89677,19.52462,0
          -96.89688,19.52482,0
          -96.897,19.52503,0
          -96.89712,19.52523,0
          -96.89726,19.52545,0
          -96.89728,19.52551,0
          -96.89747,19.52583,0
          -96.8976,19.52609,0
          -96.89764,19.52619,0
          -96.89767,19.52626,0
          -96.8977,19.52635,0
          -96.89776,19.52653,0
          -96.89778,19.52658,0
          -96.89785,19.52673,0
          -96.89807,19.52721,0
          -96.89825,19.52756,0
          -96.89846,19.52796,0
          -96.89859,19.52815,0
          -96.89872,19.52832,0
          -96.8988,19.52844,0
          -96.89894,19.5286,0
          -96.89906,19.52873,0
          -96.89913,19.52881,0
          -96.89921,19.52888,0
          -96.89934,19.52901,0
          -96.89954,19.52915,0
          -96.8997,19.52926,0
          -96.89989,19.52936,0
          -96.90014,19.52951,0
          -96.90033,19.52961,0
          -96.90099,19.52997,0
          -96.90116,19.53006,0
          -96.90148,19.53022,0
          -96.90269,19.53087,0
          -96.90281,19.53093,0
          -96.90298,19.53101,0
          -96.90474,19.53194,0
          -96.90494,19.53204,0
          -96.90502,19.53208,0
          -96.90506,19.5321,0
          -96.90535,19.53224,0
          -96.9057,19.53242,0
          -96.90656,19.53289,0
          -96.90668,19.53297,0
          -96.90686,19.53309,0
          -96.90695,19.53316,0
          -96.90702,19.53322,0
          -96.90713,19.53332,0
          -96.90719,19.53338,0
          -96.90725,19.53343,0
          -96.90733,19.53354,0
          -96.90742,19.53364,0
          -96.90751,19.53377,0
          -96.9076,19.53392,0
          -96.90765,19.53403,0
          -96.90771,19.53414,0
          -96.90777,19.53429,0
          -96.90781,19.53441,0
          -96.90785,19.53454,0
          -96.90788,19.53466,0
          -96.9079,19.53477,0
          -96.90792,19.5349,0
          -96.90792,19.53504,0
          -96.90793,19.53514,0
          -96.90793,19.53525,0
          -96.90793,19.53538,0
          -96.90793,19.53549,0
          -96.90791,19.53573,0
          -96.9079,19.53617,0
          -96.9079,19.53627,0
          -96.9079,19.53636,0
          -96.90788,19.53666,0
          -96.90788,19.53675,0
          -96.90788,19.53684,0
          -96.90787,19.53699,0
          -96.90787,19.53717,0
          -96.90786,19.53735,0
          -96.90782,19.53843,0
          -96.90779,19.53885,0
          -96.90779,19.53888,0
          -96.90776,19.5392,0
          -96.90775,19.53961,0
          -96.90775,19.53986,0
          -96.90776,19.54017,0
          -96.90779,19.5404,0
          -96.90782,19.54059,0
          -96.90784,19.54071,0
          -96.90788,19.54089,0
          -96.90792,19.541,0
          -96.90797,19.54116,0
          -96.90803,19.54131,0
          -96.90821,19.5417,0
          -96.90846,19.54222,0
          -96.90849,19.54229,0
          -96.90852,19.54235,0
          -96.90872,19.54278,0
          -96.90911,19.54363,0
          -96.90965,19.54477,0
          -96.90975,19.54497,0
          -96.90981,19.5451,0
          -96.90987,19.54523,0
          -96.91011,19.54568,0
          -96.91041,19.54629,0
          -96.91044,19.54638,0
          -96.91054,19.54658,0
          -96.91061,19.54673,0
          -96.91123,19.54796,0
          -96.91147,19.54844,0
          -96.91185,19.54925,0
          -96.91221,19.55001,0
          -96.91265,19.55091,0
          -96.91273,19.55107,0
          -96.91281,19.55124,0
          -96.91321,19.55205,0
          -96.91403,19.55371,0
          -96.91437,19.55449,0
          -96.91443,19.55462,0
          -96.91457,19.55497,0
          -96.91472,19.55534,0
          -96.91486,19.55563,0
          -96.91494,19.55581,0
          -96.91505,19.55602,0
          -96.91512,19.55613,0
          -96.91518,19.55623,0
          -96.91531,19.5564,0
          -96.91537,19.55648,0
          -96.91543,19.55655,0
          -96.91549,19.55663,0
          -96.91585,19.55708,0
          -96.91592,19.55717,0
          -96.916,19.55726,0
          -96.91607,19.55733,0
          -96.91619,19.55744,0
          -96.91627,19.5575,0
          -96.91654,19.55771,0
          -96.91664,19.55778,0
          -96.91676,19.55786,0
          -96.91688,19.55793,0
          -96.91708,19.55805,0
          -96.91715,19.55809,0
          -96.91726,19.55814,0
          -96.91735,19.55814,0
          -96.91742,19.55814,0
          -96.91754,19.55818,0
          -96.91757,19.5582,0
          -96.91759,19.55821,0
          -96.91775,19.55827,0
          -96.91777,19.55827,0
          -96.91812,19.55841,0
          -96.91828,19.55847,0
          -96.91845,19.55854,0
          -96.91847,19.55855,0
          -96.91849,19.55855,0
          -96.91863,19.55861,0
          -96.91865,19.55861,0
          -96.91881,19.55867,0
          -96.91883,19.55868,0
          -96.91898,19.55874,0
          -96.919,19.55875,0
          -96.91916,19.55881,0
          -96.91918,19.55882,0
          -96.91934,19.55888,0
          -96.91936,19.55889,0
          -96.91951,19.55895,0
          -96.91953,19.55895,0
          -96.91959,19.55898,0
          -96.91969,19.55902,0
          -96.91987,19.55909,0
          -96.91989,19.5591,0
          -96.92004,19.55916,0
          -96.92006,19.55917,0
          -96.92024,19.55924,0
          -96.92039,19.55931,0
          -96.92041,19.55932,0
          -96.92047,19.55934,0
          -96.92058,19.55939,0
          -96.92077,19.55946,0
          -96.92092,19.55956,0
          -96.92139,19.55972,0
          -96.92162,19.55981,0
          -96.92176,19.55986,0
          -96.92249,19.56014,0
          -96.92259,19.56018,0
          -96.92341,19.56051,0
          -96.92353,19.56055,0
          -96.92434,19.56086,0
          -96.92443,19.56089,0
          -96.92527,19.5612,0
          -96.92621,19.56154,0
          -96.92636,19.56161,0
          -96.92648,19.56166,0
          -96.92657,19.56171,0
          -96.92668,19.56177,0
          -96.92689,19.56191,0
          -96.92715,19.5621,0
          -96.92739,19.56231,0
          -96.92746,19.56238,0
          -96.92753,19.56245,0
          -96.9276,19.56253,0
          -96.92775,19.5627,0
          -96.92786,19.56287,0
          -96.92803,19.56318,0
          -96.92808,19.56329,0
          -96.92811,19.56338,0
          -96.92818,19.56355,0
          -96.92824,19.56371,0
          -96.92839,19.56411,0
          -96.92865,19.56485,0
          -96.92867,19.56491,0
          -96.92874,19.56514,0
          -96.92892,19.56569,0
          -96.92905,19.56605,0
          -96.92912,19.56626,0
          -96.92915,19.56637,0
          -96.92917,19.56646,0
          -96.92918,19.56654,0
          -96.92919,19.56663,0
          -96.92919,19.56676,0
          -96.92919,19.56685,0
          -96.92919,19.56693,0
          -96.92913,19.56761,0
          -96.92912,19.56771,0
          -96.92912,19.56773,0
          -96.92911,19.56777,0
          -96.92911,19.56782,0
          -96.9291,19.56785,0
          -96.9291,19.56792,0
          -96.92902,19.56864,0
          -96.9289,19.56989,0
          -96.92885,19.57045,0
          -96.92876,19.57112,0
          -96.92868,19.57175,0
          -96.92867,19.57187,0
          -96.92862,19.57223,0
          -96.92861,19.57237,0
          -96.92859,19.5725,0
          -96.92852,19.57315,0
          -96.92852,19.57322,0
          -96.92851,19.5733,0
          -96.9285,19.57337,0
          -96.92844,19.57398,0
          -96.92843,19.57439,0
          -96.92846,19.57504,0
          -96.92853,19.57599,0
          -96.92856,19.57616,0
          -96.9286,19.57651,0
          -96.92867,19.57737,0
          -96.92871,19.57779,0
          -96.92873,19.57789,0
          -96.92878,19.57816,0
          -96.92886,19.5787,0
          -96.92896,19.57935,0
          -96.92901,19.57971,0
          -96.92904,19.57991,0
          -96.92905,19.57995,0
          -96.92906,19.58003,0
          -96.92908,19.58012,0
          -96.92911,19.58021,0
          -96.92916,19.58032,0
          -96.92921,19.58042,0
          -96.92926,19.5805,0
          -96.92932,19.5806,0
          -96.9294,19.5807,0
          -96.92954,19.58086,0
          -96.92995,19.58136,0
          -96.93013,19.58156,0
          -96.93033,19.5818,0
          -96.93044,19.58191,0
          -96.93063,19.58212,0
          -96.93069,19.58213,0
          -96.93071,19.58214,0
          -96.93072,19.58215,0
          -96.93075,19.58218,0
          -96.93076,19.58218,0
          -96.93077,19.5822,0
          -96.9308,19.58223,0
          -96.93083,19.58226,0
          -96.93085,19.58227,0
          -96.93088,19.58229,0
          -96.93107,19.5824,0
          -96.93143,19.58259,0
          -96.93164,19.58267,0
          -96.93185,19.58282,0
          -96.93194,19.58287,0
          -96.93234,19.58302,0
          -96.93236,19.58302,0
          -96.93243,19.58302,0
          -96.93251,19.583,0
          -96.93261,19.58295,0
          -96.93263,19.58294,0
          -96.93289,19.58277,0
          -96.93295,19.58274,0
          -96.93301,19.58269,0
          -96.93321,19.5826,0
          -96.93338,19.58254,0
          -96.93355,19.5825,0
          -96.93367,19.5825,0
          -96.93377,19.58249,0
          -96.93393,19.58252,0
          -96.93404,19.58255,0
          -96.93416,19.58259,0
          -96.93423,19.58262,0
          -96.93434,19.58269,0
          -96.93451,19.58281,0
          -96.93459,19.58293,0
          -96.93466,19.58302,0
          -96.93471,19.58313,0
          -96.93476,19.58323,0
          -96.93487,19.58352,0
          -96.93489,19.58359,0
          -96.93492,19.58368,0
          -96.93496,19.5838,0
          -96.93498,19.58386,0
          -96.93525,19.58461,0
          -96.93547,19.58514,0
          -96.93566,19.58557,0
          -96.93566,19.58558,0
          -96.93577,19.58584,0
          -96.9359,19.58626,0
          -96.93622,19.58729,0
          -96.93631,19.58752,0
          -96.93642,19.58773,0
          -96.93643,19.58774,0
          -96.93644,19.58775,0
          -96.9365,19.5878,0
          -96.93658,19.58785,0
          -96.93664,19.58788,0
          -96.93671,19.5879,0
          -96.93674,19.58791,0
          -96.93688,19.58794,0
          -96.93707,19.58805,0
          -96.93712,19.58808,0
          -96.93728,19.58816,0
          -96.93753,19.58826,0
          -96.93782,19.58833,0
          -96.93865,19.5885,0
          -96.93875,19.58852,0
          -96.93876,19.58852,0
          -96.93894,19.58852,0
          -96.9395,19.58852,0
          -96.93985,19.58852,0
          -96.9399,19.58852,0
          -96.94002,19.58852,0
          -96.94039,19.58856,0
          -96.94074,19.58862,0
          -96.94104,19.58873,0
          -96.94122,19.58881,0
          -96.94146,19.58892,0
          -96.94155,19.58896,0
          -96.94167,19.58901,0
          -96.94184,19.58908,0
          -96.94202,19.58915,0
          -96.94206,19.58918,0
          -96.94211,19.58921,0
          -96.94241,19.58935,0
          -96.94368,19.58971,0
          -96.94386,19.58977,0
          -96.94441,19.58993,0
          -96.94572,19.59045,0
          -96.94589,19.59053,0
          -96.94612,19.59063,0
          -96.94648,19.59078,0
          -96.94662,19.59086,0
          -96.94685,19.59096,0
          -96.94728,19.59123,0
          -96.94754,19.59134,0
          -96.94783,19.59139,0
          -96.94842,19.5914,0
          -96.94858,19.59141,0
          -96.94904,19.59141,0
          -96.94915,19.59138,0
          -96.94929,19.59134,0
          -96.9498,19.59127,0
          -96.9507,19.59102,0
          -96.95091,19.59098,0
          -96.95167,19.59083,0
          -96.95194,19.59079,0
          -96.95211,19.5909,0
        </coordinates>
      </LineString>
    </Placemark>
    <Placemark>
      <name>G47X+RR, 91194 Valle Real, Ver., México</name>
      <styleUrl>#icon-1899-DB4436-nodesc</styleUrl>
      <Point>
        <coordinates>
          -96.850467,19.5148937,0
        </coordinates>
      </Point>
    </Placemark>
    <Placemark>
      <name>Vicente Guerrero 7, Centro, 91300 Banderilla, Ver., México</name>
      <styleUrl>#icon-1899-DB4436-nodesc</styleUrl>
      <Point>
        <coordinates>
          -96.9521053,19.5908953,0
        </coordinates>
      </Point>
    </Placemark>
  </Document>
</kml>
