<?xml version="1.0" encoding="UTF-8"?>
<kml xmlns="http://www.opengis.net/kml/2.2">
  <Document>
    <name>Indicaciones de Vicente Guerrero 50, Centro, 91300 Banderilla, Ver., México a G47X+RR, 91194 Valle Real, Ver., México</name>
    <Style id="icon-1899-DB4436-nodesc-normal">
      <IconStyle>
        <color>ff3644db</color>
        <scale>1</scale>
        <Icon>
          <href>https://www.gstatic.com/mapspro/images/stock/503-wht-blank_maps.png</href>
        </Icon>
        <hotSpot x="32" xunits="pixels" y="64" yunits="insetPixels"/>
      </IconStyle>
      <LabelStyle>
        <scale>0</scale>
      </LabelStyle>
      <BalloonStyle>
        <text><![CDATA[<h3>$[name]</h3>]]></text>
      </BalloonStyle>
    </Style>
    <Style id="icon-1899-DB4436-nodesc-highlight">
      <IconStyle>
        <color>ff3644db</color>
        <scale>1</scale>
        <Icon>
          <href>https://www.gstatic.com/mapspro/images/stock/503-wht-blank_maps.png</href>
        </Icon>
        <hotSpot x="32" xunits="pixels" y="64" yunits="insetPixels"/>
      </IconStyle>
      <LabelStyle>
        <scale>1</scale>
      </LabelStyle>
      <BalloonStyle>
        <text><![CDATA[<h3>$[name]</h3>]]></text>
      </BalloonStyle>
    </Style>
    <StyleMap id="icon-1899-DB4436-nodesc">
      <Pair>
        <key>normal</key>
        <styleUrl>#icon-1899-DB4436-nodesc-normal</styleUrl>
      </Pair>
      <Pair>
        <key>highlight</key>
        <styleUrl>#icon-1899-DB4436-nodesc-highlight</styleUrl>
      </Pair>
    </StyleMap>
    <Style id="line-1267FF-5000-nodesc-normal">
      <LineStyle>
        <color>ffff6712</color>
        <width>5</width>
      </LineStyle>
      <BalloonStyle>
        <text><![CDATA[<h3>$[name]</h3>]]></text>
      </BalloonStyle>
    </Style>
    <Style id="line-1267FF-5000-nodesc-highlight">
      <LineStyle>
        <color>ffff6712</color>
        <width>7.5</width>
      </LineStyle>
      <BalloonStyle>
        <text><![CDATA[<h3>$[name]</h3>]]></text>
      </BalloonStyle>
    </Style>
    <StyleMap id="line-1267FF-5000-nodesc">
      <Pair>
        <key>normal</key>
        <styleUrl>#line-1267FF-5000-nodesc-normal</styleUrl>
      </Pair>
      <Pair>
        <key>highlight</key>
        <styleUrl>#line-1267FF-5000-nodesc-highlight</styleUrl>
      </Pair>
    </StyleMap>
    <Placemark>
      <name>Indicaciones de Vicente Guerrero 50, Centro, 91300 Banderilla, Ver., México a G47X+RR, 91194 Valle Real, Ver., México</name>
      <styleUrl>#line-1267FF-5000-nodesc</styleUrl>
      <LineString>
        <tessellate>1</tessellate>
        <coordinates>
          -96.95219,19.59117,0
          -96.95218,19.59126,0
          -96.95215,19.59141,0
          -96.95215,19.59143,0
          -96.95215,19.59145,0
          -96.95215,19.59147,0
          -96.95215,19.59149,0
          -96.95215,19.59151,0
          -96.95226,19.59157,0
          -96.9523,19.59159,0
          -96.95235,19.59161,0
          -96.95237,19.59161,0
          -96.9524,19.59161,0
          -96.95243,19.5916,0
          -96.95245,19.5916,0
          -96.95248,19.59158,0
          -96.9525,19.59156,0
          -96.95252,19.59154,0
          -96.95255,19.5915,0
          -96.95252,19.59142,0
          -96.9525,19.59137,0
          -96.95249,19.59133,0
          -96.95249,19.59129,0
          -96.95248,19.59125,0
          -96.95249,19.59123,0
          -96.95249,19.59121,0
          -96.95251,19.59105,0
          -96.95259,19.59096,0
          -96.95273,19.59085,0
          -96.95287,19.59076,0
          -96.95298,19.5907,0
          -96.95314,19.59063,0
          -96.95329,19.59059,0
          -96.95345,19.59056,0
          -96.95353,19.59055,0
          -96.95357,19.59055,0
          -96.95364,19.59055,0
          -96.95373,19.59056,0
          -96.95382,19.59057,0
          -96.95399,19.59062,0
          -96.95402,19.59051,0
          -96.95396,19.59045,0
          -96.95395,19.59044,0
          -96.95391,19.59042,0
          -96.95388,19.5904,0
          -96.95385,19.59039,0
          -96.95382,19.59038,0
          -96.95374,19.59036,0
          -96.95358,19.59033,0
          -96.95339,19.59035,0
          -96.95328,19.59038,0
          -96.9531,19.59043,0
          -96.95302,19.59047,0
          -96.95292,19.5905,0
          -96.95274,19.59059,0
          -96.95265,19.59064,0
          -96.95259,19.59067,0
          -96.95249,19.5907,0
          -96.95237,19.59072,0
          -96.95227,19.59074,0
          -96.95211,19.59076,0
          -96.95194,19.59079,0
          -96.95167,19.59083,0
          -96.95091,19.59098,0
          -96.9507,19.59102,0
          -96.9498,19.59127,0
          -96.94929,19.59134,0
          -96.94915,19.59138,0
          -96.94904,19.59141,0
          -96.94858,19.59141,0
          -96.94842,19.5914,0
          -96.94783,19.59139,0
          -96.94754,19.59134,0
          -96.94728,19.59123,0
          -96.94685,19.59096,0
          -96.94662,19.59086,0
          -96.94648,19.59078,0
          -96.94612,19.59063,0
          -96.94589,19.59053,0
          -96.94572,19.59045,0
          -96.94441,19.58993,0
          -96.94386,19.58977,0
          -96.94368,19.58971,0
          -96.94241,19.58935,0
          -96.94211,19.58921,0
          -96.94206,19.58918,0
          -96.94202,19.58915,0
          -96.94184,19.58908,0
          -96.94167,19.58901,0
          -96.94155,19.58896,0
          -96.94146,19.58892,0
          -96.94122,19.58881,0
          -96.94104,19.58873,0
          -96.94074,19.58862,0
          -96.94039,19.58856,0
          -96.94002,19.58852,0
          -96.9399,19.58852,0
          -96.93985,19.58852,0
          -96.9395,19.58852,0
          -96.93894,19.58852,0
          -96.93876,19.58852,0
          -96.93875,19.58852,0
          -96.93865,19.5885,0
          -96.93782,19.58833,0
          -96.93753,19.58826,0
          -96.93728,19.58816,0
          -96.93712,19.58808,0
          -96.93707,19.58805,0
          -96.93688,19.58794,0
          -96.93674,19.58791,0
          -96.93671,19.5879,0
          -96.93664,19.58788,0
          -96.93658,19.58785,0
          -96.9365,19.5878,0
          -96.93644,19.58775,0
          -96.93643,19.58774,0
          -96.93642,19.58773,0
          -96.93631,19.58752,0
          -96.93622,19.58729,0
          -96.9359,19.58626,0
          -96.93577,19.58584,0
          -96.93566,19.58558,0
          -96.93566,19.58557,0
          -96.93547,19.58514,0
          -96.93525,19.58461,0
          -96.93498,19.58386,0
          -96.93496,19.5838,0
          -96.93492,19.58368,0
          -96.93489,19.58359,0
          -96.93487,19.58352,0
          -96.93476,19.58323,0
          -96.93471,19.58313,0
          -96.93466,19.58302,0
          -96.93459,19.58293,0
          -96.93451,19.58281,0
          -96.93434,19.58269,0
          -96.93423,19.58262,0
          -96.93416,19.58259,0
          -96.93404,19.58255,0
          -96.93393,19.58252,0
          -96.93377,19.58249,0
          -96.93367,19.5825,0
          -96.93355,19.5825,0
          -96.93338,19.58254,0
          -96.93321,19.5826,0
          -96.93301,19.58269,0
          -96.93295,19.58274,0
          -96.93289,19.58277,0
          -96.93263,19.58294,0
          -96.93261,19.58295,0
          -96.93251,19.583,0
          -96.93243,19.58302,0
          -96.93236,19.58302,0
          -96.93234,19.58302,0
          -96.93194,19.58287,0
          -96.93185,19.58282,0
          -96.93164,19.58267,0
          -96.93107,19.58225,0
          -96.93102,19.58221,0
          -96.93084,19.58207,0
          -96.93054,19.58185,0
          -96.93043,19.58173,0
          -96.93015,19.58142,0
          -96.93,19.58125,0
          -96.92965,19.58083,0
          -96.92944,19.58056,0
          -96.92935,19.58043,0
          -96.92932,19.58036,0
          -96.92926,19.58024,0
          -96.92925,19.58021,0
          -96.92923,19.58016,0
          -96.92921,19.58009,0
          -96.92918,19.57999,0
          -96.92917,19.57991,0
          -96.92914,19.57966,0
          -96.92912,19.57953,0
          -96.92911,19.57939,0
          -96.92899,19.57859,0
          -96.92896,19.57834,0
          -96.92891,19.57795,0
          -96.92889,19.57786,0
          -96.92887,19.57778,0
          -96.92872,19.57634,0
          -96.92869,19.57615,0
          -96.92867,19.57595,0
          -96.92859,19.575,0
          -96.92859,19.57482,0
          -96.92859,19.57439,0
          -96.92859,19.57434,0
          -96.9286,19.57398,0
          -96.92861,19.57377,0
          -96.92865,19.57339,0
          -96.92866,19.5733,0
          -96.92866,19.57321,0
          -96.92867,19.57316,0
          -96.92872,19.57268,0
          -96.92874,19.57234,0
          -96.92878,19.57193,0
          -96.92879,19.57186,0
          -96.92879,19.57184,0
          -96.92881,19.57174,0
          -96.92895,19.5704,0
          -96.92896,19.57028,0
          -96.92899,19.5699,0
          -96.92908,19.56891,0
          -96.92918,19.56792,0
          -96.92919,19.56782,0
          -96.92919,19.56779,0
          -96.92919,19.56776,0
          -96.9292,19.5677,0
          -96.9292,19.56769,0
          -96.92921,19.56761,0
          -96.92922,19.56757,0
          -96.92922,19.56754,0
          -96.92928,19.56701,0
          -96.92928,19.56686,0
          -96.92928,19.56671,0
          -96.92927,19.56658,0
          -96.92926,19.56646,0
          -96.92923,19.56631,0
          -96.92919,19.56619,0
          -96.92915,19.56605,0
          -96.9289,19.5653,0
          -96.92887,19.56523,0
          -96.92884,19.56513,0
          -96.92883,19.56507,0
          -96.92875,19.56485,0
          -96.92859,19.56433,0
          -96.92846,19.5639,0
          -96.92834,19.56362,0
          -96.9282,19.56329,0
          -96.92812,19.56312,0
          -96.92793,19.5628,0
          -96.92762,19.56237,0
          -96.9275,19.56224,0
          -96.92729,19.56204,0
          -96.92713,19.56192,0
          -96.92677,19.56167,0
          -96.92662,19.56159,0
          -96.92625,19.56141,0
          -96.92533,19.56107,0
          -96.925,19.56093,0
          -96.92441,19.56071,0
          -96.92431,19.56066,0
          -96.9241,19.56059,0
          -96.92404,19.56056,0
          -96.9238,19.56048,0
          -96.92354,19.56039,0
          -96.9235,19.56037,0
          -96.92261,19.56002,0
          -96.92252,19.55999,0
          -96.9218,19.55972,0
          -96.92166,19.55963,0
          -96.92122,19.55944,0
          -96.92104,19.5594,0
          -96.92095,19.55938,0
          -96.92089,19.55936,0
          -96.92077,19.55932,0
          -96.92048,19.55922,0
          -96.92041,19.5592,0
          -96.92027,19.55916,0
          -96.92023,19.55914,0
          -96.92006,19.55908,0
          -96.91988,19.55901,0
          -96.91972,19.55894,0
          -96.9197,19.55894,0
          -96.91952,19.55888,0
          -96.91935,19.55881,0
          -96.91917,19.55875,0
          -96.91899,19.55868,0
          -96.91894,19.55867,0
          -96.91881,19.55861,0
          -96.91864,19.55854,0
          -96.91846,19.55847,0
          -96.91829,19.55839,0
          -96.91794,19.55825,0
          -96.91776,19.55818,0
          -96.91762,19.55812,0
          -96.91759,19.5581,0
          -96.91753,19.55807,0
          -96.91745,19.55799,0
          -96.91714,19.55785,0
          -96.91685,19.55767,0
          -96.91663,19.55753,0
          -96.91627,19.55728,0
          -96.91619,19.55721,0
          -96.91613,19.55716,0
          -96.916,19.55702,0
          -96.91597,19.55698,0
          -96.9159,19.55691,0
          -96.9158,19.55679,0
          -96.91566,19.55661,0
          -96.91552,19.5564,0
          -96.91532,19.55605,0
          -96.91516,19.55577,0
          -96.91499,19.55544,0
          -96.9149,19.55528,0
          -96.91473,19.55494,0
          -96.91451,19.55458,0
          -96.91445,19.55445,0
          -96.91407,19.55365,0
          -96.91373,19.55295,0
          -96.91329,19.55203,0
          -96.91321,19.55186,0
          -96.9129,19.55121,0
          -96.91282,19.55104,0
          -96.91274,19.55088,0
          -96.91196,19.54922,0
          -96.91158,19.5484,0
          -96.91153,19.5483,0
          -96.91146,19.54818,0
          -96.91143,19.54808,0
          -96.91138,19.54797,0
          -96.91131,19.54781,0
          -96.91079,19.54667,0
          -96.91074,19.54656,0
          -96.9106,19.54626,0
          -96.91056,19.54617,0
          -96.91002,19.54507,0
          -96.90995,19.54492,0
          -96.90987,19.54477,0
          -96.90946,19.54386,0
          -96.9094,19.54373,0
          -96.90906,19.54302,0
          -96.90894,19.54276,0
          -96.90882,19.54254,0
          -96.90862,19.54213,0
          -96.90859,19.54206,0
          -96.90838,19.54162,0
          -96.90819,19.54121,0
          -96.90811,19.54101,0
          -96.90805,19.54083,0
          -96.90801,19.54071,0
          -96.90799,19.54063,0
          -96.90796,19.54045,0
          -96.90794,19.5403,0
          -96.90792,19.54012,0
          -96.9079,19.53994,0
          -96.90789,19.53976,0
          -96.90789,19.53961,0
          -96.9079,19.53932,0
          -96.9079,19.53911,0
          -96.90789,19.53896,0
          -96.90789,19.53893,0
          -96.90789,19.53884,0
          -96.90791,19.53871,0
          -96.90791,19.53839,0
          -96.90794,19.53732,0
          -96.90794,19.53731,0
          -96.90795,19.53714,0
          -96.90796,19.53678,0
          -96.90796,19.53671,0
          -96.90797,19.53665,0
          -96.90798,19.53635,0
          -96.90798,19.53627,0
          -96.90798,19.53622,0
          -96.90798,19.53615,0
          -96.90799,19.53601,0
          -96.90799,19.53588,0
          -96.90799,19.53576,0
          -96.908,19.53528,0
          -96.90801,19.53513,0
          -96.90799,19.5348,0
          -96.90797,19.53469,0
          -96.90795,19.5346,0
          -96.90793,19.53451,0
          -96.90791,19.53443,0
          -96.90785,19.53426,0
          -96.90779,19.53412,0
          -96.90774,19.53401,0
          -96.90769,19.53391,0
          -96.90762,19.53379,0
          -96.90756,19.53369,0
          -96.90749,19.5336,0
          -96.90729,19.53334,0
          -96.90723,19.5333,0
          -96.90718,19.53326,0
          -96.90708,19.53316,0
          -96.907,19.53309,0
          -96.90686,19.53298,0
          -96.9067,19.53287,0
          -96.9066,19.53282,0
          -96.90648,19.53275,0
          -96.90633,19.53267,0
          -96.90597,19.53247,0
          -96.90567,19.53231,0
          -96.90545,19.5322,0
          -96.90539,19.53217,0
          -96.90511,19.53202,0
          -96.90502,19.53198,0
          -96.90496,19.53194,0
          -96.9048,19.53187,0
          -96.90435,19.53162,0
          -96.90402,19.53144,0
          -96.90385,19.53135,0
          -96.90368,19.53126,0
          -96.90352,19.53117,0
          -96.90335,19.53108,0
          -96.90319,19.53099,0
          -96.90286,19.53082,0
          -96.90269,19.53073,0
          -96.90252,19.53063,0
          -96.90239,19.53055,0
          -96.90125,19.52996,0
          -96.90066,19.52963,0
          -96.9002,19.52936,0
          -96.89997,19.52923,0
          -96.89987,19.52918,0
          -96.89975,19.5291,0
          -96.89953,19.52894,0
          -96.89942,19.52888,0
          -96.89922,19.52874,0
          -96.89916,19.5287,0
          -96.89908,19.52862,0
          -96.89898,19.52853,0
          -96.89895,19.52848,0
          -96.89887,19.52839,0
          -96.89883,19.52834,0
          -96.89869,19.5282,0
          -96.89862,19.52809,0
          -96.89849,19.52789,0
          -96.89841,19.52773,0
          -96.89822,19.52739,0
          -96.89804,19.52703,0
          -96.89793,19.52681,0
          -96.89786,19.52664,0
          -96.89784,19.52659,0
          -96.89782,19.52654,0
          -96.89776,19.52638,0
          -96.89771,19.52623,0
          -96.89768,19.52616,0
          -96.89766,19.5261,0
          -96.89761,19.52601,0
          -96.89752,19.52585,0
          -96.89743,19.52569,0
          -96.89735,19.52553,0
          -96.89728,19.52541,0
          -96.89722,19.5253,0
          -96.89666,19.52425,0
          -96.89661,19.52419,0
          -96.89651,19.52406,0
          -96.8965,19.52405,0
          -96.89639,19.52393,0
          -96.89627,19.52384,0
          -96.89613,19.52372,0
          -96.89594,19.52356,0
          -96.89592,19.52355,0
          -96.89579,19.52345,0
          -96.89551,19.52323,0
          -96.89514,19.52294,0
          -96.89499,19.52282,0
          -96.89489,19.52273,0
          -96.89485,19.5227,0
          -96.89457,19.5225,0
          -96.89445,19.52242,0
          -96.89433,19.52235,0
          -96.89417,19.52228,0
          -96.89403,19.52223,0
          -96.89375,19.52215,0
          -96.89285,19.52198,0
          -96.89252,19.52191,0
          -96.89213,19.52185,0
          -96.89164,19.52176,0
          -96.88998,19.52148,0
          -96.88964,19.52143,0
          -96.88944,19.52139,0
          -96.88926,19.52135,0
          -96.88881,19.52125,0
          -96.88751,19.52092,0
          -96.88641,19.52064,0
          -96.88593,19.52053,0
          -96.88537,19.52039,0
          -96.88474,19.52024,0
          -96.88457,19.5202,0
          -96.8844,19.52014,0
          -96.88431,19.52011,0
          -96.8842,19.52005,0
          -96.88411,19.52,0
          -96.884,19.51993,0
          -96.88387,19.51982,0
          -96.88379,19.51975,0
          -96.88372,19.51968,0
          -96.88363,19.51957,0
          -96.88355,19.51948,0
          -96.88343,19.51933,0
          -96.88303,19.51872,0
          -96.88302,19.51871,0
          -96.88295,19.51863,0
          -96.88287,19.51856,0
          -96.88279,19.51851,0
          -96.88256,19.51831,0
          -96.8824,19.51818,0
          -96.88223,19.51806,0
          -96.88208,19.51797,0
          -96.88207,19.51796,0
          -96.88191,19.51787,0
          -96.8816,19.5177,0
          -96.88142,19.51759,0
          -96.88125,19.51743,0
          -96.88114,19.51733,0
          -96.88104,19.51722,0
          -96.88098,19.51714,0
          -96.88091,19.51706,0
          -96.88082,19.51694,0
          -96.88051,19.51648,0
          -96.88032,19.51616,0
          -96.8802,19.516,0
          -96.88014,19.5159,0
          -96.88005,19.51579,0
          -96.87997,19.51571,0
          -96.87986,19.51563,0
          -96.87981,19.51558,0
          -96.87973,19.51553,0
          -96.87965,19.51548,0
          -96.87956,19.51544,0
          -96.87948,19.5154,0
          -96.87938,19.51536,0
          -96.87928,19.51532,0
          -96.87894,19.5152,0
          -96.87794,19.51489,0
          -96.8778,19.51486,0
          -96.87757,19.51478,0
          -96.87739,19.51471,0
          -96.87724,19.51464,0
          -96.8771,19.51457,0
          -96.87694,19.51448,0
          -96.87677,19.51437,0
          -96.8765,19.51418,0
          -96.87638,19.51408,0
          -96.8762,19.5139,0
          -96.876,19.5137,0
          -96.87565,19.51331,0
          -96.87547,19.5131,0
          -96.87532,19.51293,0
          -96.87515,19.51274,0
          -96.87497,19.51256,0
          -96.8749,19.51246,0
          -96.87476,19.51231,0
          -96.87467,19.51221,0
          -96.87431,19.51178,0
          -96.87418,19.51162,0
          -96.87393,19.51136,0
          -96.87385,19.5113,0
          -96.87361,19.51113,0
          -96.87296,19.51071,0
          -96.87276,19.51059,0
          -96.87224,19.51027,0
          -96.87166,19.50991,0
          -96.87125,19.5097,0
          -96.87102,19.50957,0
          -96.87064,19.50936,0
          -96.87057,19.50932,0
          -96.87037,19.50921,0
          -96.86978,19.50891,0
          -96.86971,19.50887,0
          -96.86946,19.50876,0
          -96.86926,19.50868,0
          -96.86905,19.5086,0
          -96.86883,19.50852,0
          -96.86842,19.50841,0
          -96.86834,19.50838,0
          -96.86816,19.50833,0
          -96.86802,19.5083,0
          -96.86763,19.50818,0
          -96.86698,19.508,0
          -96.86688,19.50797,0
          -96.86669,19.50792,0
          -96.86661,19.50789,0
          -96.86641,19.50784,0
          -96.86577,19.50767,0
          -96.8656,19.50761,0
          -96.8651,19.50746,0
          -96.86445,19.50728,0
          -96.86399,19.50717,0
          -96.86388,19.50715,0
          -96.8638,19.50714,0
          -96.8637,19.50713,0
          -96.86343,19.50712,0
          -96.86336,19.50712,0
          -96.86289,19.50716,0
          -96.86238,19.50725,0
          -96.86223,19.50728,0
          -96.86199,19.50732,0
          -96.86195,19.50733,0
          -96.86162,19.5074,0
          -96.86161,19.5074,0
          -96.86007,19.5077,0
          -96.85989,19.50773,0
          -96.85963,19.50777,0
          -96.85957,19.50778,0
          -96.85894,19.50789,0
          -96.85873,19.50792,0
          -96.85846,19.50786,0
          -96.85825,19.50784,0
          -96.85789,19.50783,0
          -96.85746,19.5078,0
          -96.8574,19.5078,0
          -96.85722,19.50779,0
          -96.85685,19.50776,0
          -96.85657,19.50773,0
          -96.85636,19.5077,0
          -96.85626,19.50764,0
          -96.85619,19.50758,0
          -96.85614,19.50752,0
          -96.8561,19.50746,0
          -96.85606,19.50736,0
          -96.85601,19.5072,0
          -96.8561,19.50674,0
          -96.85616,19.50652,0
          -96.85618,19.50643,0
          -96.85623,19.5063,0
          -96.85629,19.50615,0
          -96.85634,19.50607,0
          -96.85639,19.50598,0
          -96.85652,19.50581,0
          -96.85659,19.50572,0
          -96.85666,19.50566,0
          -96.85683,19.50553,0
          -96.857,19.50541,0
          -96.85715,19.50532,0
          -96.85723,19.50528,0
          -96.85733,19.50524,0
          -96.85749,19.50518,0
          -96.85761,19.50515,0
          -96.85767,19.50514,0
          -96.85772,19.50514,0
          -96.8578,19.50515,0
          -96.85787,19.50516,0
          -96.85791,19.50517,0
          -96.85796,19.50519,0
          -96.85801,19.50521,0
          -96.85807,19.50522,0
          -96.85811,19.50521,0
          -96.85816,19.5052,0
          -96.8582,19.50519,0
          -96.85823,19.50517,0
          -96.85827,19.50515,0
          -96.85836,19.50509,0
          -96.85846,19.50502,0
          -96.85854,19.50499,0
          -96.8588,19.50494,0
          -96.85895,19.50491,0
          -96.85923,19.50485,0
          -96.85938,19.50482,0
          -96.85939,19.50481,0
          -96.85942,19.50481,0
          -96.8595,19.50479,0
          -96.85957,19.50477,0
          -96.85958,19.50476,0
          -96.85968,19.50472,0
          -96.85969,19.50472,0
          -96.85982,19.50466,0
          -96.85994,19.50458,0
          -96.86005,19.50451,0
          -96.8601,19.50447,0
          -96.86019,19.5044,0
          -96.86044,19.50421,0
          -96.86047,19.50417,0
          -96.86076,19.50398,0
          -96.86081,19.50396,0
          -96.86099,19.50384,0
          -96.86116,19.50376,0
          -96.8612,19.50374,0
          -96.86125,19.50373,0
          -96.86126,19.50373,0
          -96.86132,19.50372,0
          -96.86141,19.50372,0
          -96.86147,19.50373,0
          -96.86152,19.50375,0
          -96.86168,19.50382,0
          -96.86184,19.5039,0
          -96.86194,19.50409,0
          -96.86207,19.50432,0
          -96.8621,19.50415,0
          -96.86211,19.50407,0
          -96.86214,19.50398,0
          -96.86214,19.50397,0
          -96.86216,19.5039,0
          -96.86221,19.50383,0
          -96.86222,19.5038,0
          -96.86228,19.50371,0
          -96.86231,19.50366,0
          -96.86232,19.50365,0
          -96.86241,19.50351,0
          -96.86243,19.50348,0
          -96.86258,19.50324,0
          -96.8627,19.50307,0
          -96.86277,19.50294,0
          -96.86279,19.50291,0
          -96.86279,19.50289,0
          -96.8628,19.50287,0
          -96.8628,19.50285,0
          -96.8628,19.50283,0
          -96.8628,19.50282,0
          -96.86279,19.50278,0
          -96.86278,19.50276,0
          -96.86278,19.50274,0
          -96.86277,19.50272,0
          -96.86276,19.50268,0
          -96.86277,19.5026,0
          -96.86262,19.50254,0
          -96.86238,19.50239,0
          -96.8622,19.5023,0
          -96.86213,19.50226,0
          -96.86211,19.50225,0
          -96.8621,19.50223,0
          -96.8621,19.50222,0
          -96.86209,19.50221,0
          -96.86209,19.5022,0
          -96.86209,19.50215,0
          -96.86212,19.5021,0
          -96.86216,19.50204,0
          -96.8622,19.50197,0
          -96.8624,19.50167,0
          -96.86245,19.50159,0
          -96.86271,19.50115,0
          -96.86273,19.50113,0
          -96.86274,19.50113,0
          -96.86275,19.50112,0
          -96.86277,19.50112,0
          -96.86279,19.50112,0
          -96.86282,19.50113,0
          -96.86286,19.50115,0
          -96.8629,19.50118,0
          -96.86307,19.50127,0
          -96.86341,19.50145,0
          -96.86361,19.50155,0
          -96.86366,19.50158,0
          -96.86369,19.50159,0
          -96.8637,19.50161,0
          -96.86371,19.50162,0
          -96.86372,19.50163,0
          -96.86371,19.50165,0
          -96.86371,19.50166,0
          -96.86369,19.50172,0
          -96.86369,19.50173,0
          -96.86367,19.50179,0
          -96.86365,19.50182,0
          -96.8636,19.50189,0
          -96.86351,19.50204,0
          -96.86341,19.5022,0
          -96.86317,19.50264,0
          -96.86316,19.50266,0
          -96.86315,19.50267,0
          -96.86314,19.50268,0
          -96.86313,19.50268,0
          -96.86311,19.50269,0
          -96.8631,19.50269,0
          -96.86308,19.50269,0
          -96.86304,19.50268,0
          -96.86297,19.50266,0
          -96.86292,19.50264,0
          -96.86277,19.5026,0
          -96.86276,19.50268,0
          -96.86277,19.50272,0
          -96.86278,19.50274,0
          -96.86278,19.50276,0
          -96.86279,19.50278,0
          -96.8628,19.50282,0
          -96.8628,19.50283,0
          -96.8628,19.50285,0
          -96.8628,19.50287,0
          -96.86279,19.50289,0
          -96.86279,19.50291,0
          -96.86277,19.50294,0
          -96.8627,19.50307,0
          -96.86258,19.50324,0
          -96.86243,19.50348,0
          -96.86241,19.50351,0
          -96.86232,19.50365,0
          -96.86231,19.50366,0
          -96.86228,19.50371,0
          -96.86222,19.5038,0
          -96.86221,19.50383,0
          -96.86216,19.5039,0
          -96.86214,19.50397,0
          -96.86214,19.50398,0
          -96.86211,19.50407,0
          -96.8621,19.50415,0
          -96.86207,19.50432,0
          -96.86194,19.50409,0
          -96.86206,19.50374,0
          -96.86208,19.50367,0
          -96.8621,19.50359,0
          -96.8621,19.50355,0
          -96.86211,19.50353,0
          -96.86212,19.50346,0
          -96.86212,19.50339,0
          -96.86211,19.50333,0
          -96.86209,19.50329,0
          -96.86204,19.50324,0
          -96.86201,19.50322,0
          -96.86197,19.50319,0
          -96.86194,19.50318,0
          -96.86191,19.50317,0
          -96.86184,19.50318,0
          -96.86178,19.50319,0
          -96.86167,19.50324,0
          -96.86158,19.5033,0
          -96.86132,19.50349,0
          -96.86128,19.50351,0
          -96.86127,19.50352,0
          -96.86108,19.50368,0
          -96.8608,19.50393,0
          -96.86076,19.50398,0
          -96.86047,19.50417,0
          -96.86042,19.50418,0
          -96.86037,19.50421,0
          -96.86018,19.50433,0
          -96.85999,19.50441,0
          -96.85983,19.50452,0
          -96.85965,19.5046,0
          -96.859,19.50477,0
          -96.85895,19.50478,0
          -96.85844,19.50487,0
          -96.85811,19.50492,0
          -96.85774,19.505,0
          -96.85749,19.50506,0
          -96.85726,19.50513,0
          -96.85703,19.50522,0
          -96.85689,19.50529,0
          -96.85679,19.50535,0
          -96.85673,19.5054,0
          -96.85656,19.50559,0
          -96.85644,19.50572,0
          -96.85635,19.50582,0
          -96.85627,19.50594,0
          -96.85621,19.50606,0
          -96.85612,19.50624,0
          -96.85609,19.50633,0
          -96.85606,19.50641,0
          -96.85599,19.50673,0
          -96.85589,19.50712,0
          -96.85586,19.50729,0
          -96.85577,19.50764,0
          -96.85577,19.50767,0
          -96.85573,19.5078,0
          -96.85567,19.50818,0
          -96.85579,19.50817,0
          -96.85595,19.50823,0
          -96.85651,19.50825,0
          -96.85765,19.50828,0
          -96.85782,19.50829,0
          -96.85789,19.50828,0
          -96.85797,19.50826,0
          -96.85802,19.50824,0
          -96.85804,19.50823,0
          -96.85806,19.50822,0
          -96.85818,19.50813,0
          -96.85831,19.50816,0
          -96.85846,19.50822,0
          -96.8585,19.50824,0
          -96.85854,19.50827,0
          -96.85857,19.50829,0
          -96.85859,19.50831,0
          -96.85861,19.50833,0
          -96.85865,19.50837,0
          -96.85865,19.50841,0
          -96.85865,19.50845,0
          -96.85865,19.50848,0
          -96.85864,19.50853,0
          -96.85863,19.50858,0
          -96.8584,19.50939,0
          -96.85819,19.51006,0
          -96.85817,19.51011,0
          -96.85815,19.51014,0
          -96.85812,19.51017,0
          -96.85809,19.5102,0
          -96.85802,19.51023,0
          -96.85795,19.51026,0
          -96.85793,19.51027,0
          -96.85783,19.51033,0
          -96.85775,19.51038,0
          -96.85768,19.51044,0
          -96.85762,19.5105,0
          -96.85757,19.5106,0
          -96.85753,19.51071,0
          -96.85751,19.51078,0
          -96.85752,19.51086,0
          -96.85753,19.51092,0
          -96.85759,19.51104,0
          -96.85779,19.51138,0
          -96.85822,19.51209,0
          -96.85831,19.51225,0
          -96.85835,19.51242,0
          -96.85837,19.51253,0
          -96.85836,19.5127,0
          -96.85834,19.51278,0
          -96.8583,19.51291,0
          -96.85823,19.51303,0
          -96.85804,19.51319,0
          -96.8577,19.51342,0
          -96.85736,19.5135,0
          -96.85719,19.51358,0
          -96.85711,19.5137,0
          -96.85702,19.51376,0
          -96.85693,19.51382,0
          -96.85674,19.51396,0
          -96.85666,19.514,0
          -96.85658,19.51401,0
          -96.85608,19.5139,0
          -96.85531,19.51367,0
          -96.85458,19.51346,0
          -96.85448,19.51343,0
          -96.85433,19.51339,0
          -96.85331,19.5131,0
          -96.85262,19.5129,0
          -96.8524,19.51285,0
          -96.85228,19.51282,0
          -96.85225,19.51282,0
          -96.8521,19.51281,0
          -96.85149,19.51279,0
          -96.85079,19.51276,0
          -96.8507,19.51271,0
          -96.85059,19.51268,0
          -96.85049,19.51265,0
          -96.85047,19.51264,0
          -96.85044,19.51263,0
          -96.8504,19.51262,0
          -96.85031,19.51258,0
          -96.8502,19.51252,0
          -96.85013,19.51249,0
          -96.85008,19.51247,0
          -96.85002,19.51246,0
          -96.84998,19.51245,0
          -96.84992,19.51244,0
          -96.84991,19.51244,0
          -96.84985,19.51245,0
          -96.84977,19.51245,0
          -96.84967,19.51248,0
          -96.84961,19.5125,0
          -96.84954,19.51253,0
          -96.84952,19.51255,0
          -96.84948,19.51258,0
          -96.84943,19.51261,0
          -96.84932,19.5127,0
          -96.84928,19.51276,0
          -96.84922,19.51283,0
          -96.84921,19.51286,0
          -96.84918,19.51292,0
          -96.84915,19.51304,0
          -96.84915,19.51305,0
          -96.84915,19.51317,0
          -96.84915,19.51329,0
          -96.84916,19.5134,0
          -96.84917,19.51348,0
          -96.8492,19.51358,0
          -96.84922,19.51364,0
          -96.84924,19.51372,0
          -96.84925,19.51375,0
          -96.8493,19.51385,0
          -96.84933,19.51391,0
          -96.8494,19.5141,0
          -96.84943,19.51416,0
          -96.84946,19.51419,0
          -96.84949,19.51422,0
          -96.84951,19.51424,0
          -96.84954,19.51425,0
          -96.84954,19.51426,0
          -96.84954,19.51427,0
          -96.84954,19.51428,0
          -96.84954,19.51429,0
          -96.84954,19.5143,0
          -96.84955,19.5143,0
          -96.84955,19.51431,0
          -96.84955,19.51432,0
          -96.84956,19.51432,0
          -96.84956,19.51433,0
          -96.84957,19.51433,0
          -96.84957,19.51434,0
          -96.84958,19.51434,0
          -96.84959,19.51434,0
          -96.84959,19.51435,0
          -96.8496,19.51435,0
          -96.84961,19.51435,0
          -96.84962,19.51436,0
          -96.84963,19.51436,0
          -96.84964,19.51436,0
          -96.84965,19.51436,0
          -96.84965,19.51435,0
          -96.84973,19.51441,0
          -96.84975,19.51443,0
          -96.84977,19.51444,0
          -96.84982,19.51445,0
          -96.84985,19.51446,0
          -96.84992,19.51449,0
          -96.84998,19.51452,0
          -96.85004,19.51455,0
          -96.85008,19.51458,0
          -96.85013,19.51462,0
          -96.85014,19.51463,0
          -96.85018,19.51466,0
          -96.85022,19.51471,0
          -96.85026,19.51476,0
          -96.85029,19.5148,0
          -96.85038,19.51492,0
          -96.85044,19.5149,0
        </coordinates>
      </LineString>
    </Placemark>
    <Placemark>
      <name>Vicente Guerrero 50, Centro, 91300 Banderilla, Ver., México</name>
      <styleUrl>#icon-1899-DB4436-nodesc</styleUrl>
      <Point>
        <coordinates>
          -96.9521871,19.5911713,0
        </coordinates>
      </Point>
    </Placemark>
    <Placemark>
      <name>G47X+RR, 91194 Valle Real, Ver., México</name>
      <styleUrl>#icon-1899-DB4436-nodesc</styleUrl>
      <Point>
        <coordinates>
          -96.8504438,19.5149014,0
        </coordinates>
      </Point>
    </Placemark>
  </Document>
</kml>
