<?xml version="1.0" encoding="UTF-8"?>
<kml xmlns="http://www.opengis.net/kml/2.2">
  <Document>
    <name>Indicaciones de C. Ninguno 1786, Buena Vista II, 91084 Xalapa-Enríquez, Ver., México a C. Lázaro Cárdenas 119, Rafael Lucio, 91017 Xalapa-Enríquez, Ver., México</name>
    <Style id="icon-1899-DB4436-nodesc-normal">
      <IconStyle>
        <color>ff3644db</color>
        <scale>1</scale>
        <Icon>
          <href>https://www.gstatic.com/mapspro/images/stock/503-wht-blank_maps.png</href>
        </Icon>
        <hotSpot x="32" xunits="pixels" y="64" yunits="insetPixels"/>
      </IconStyle>
      <LabelStyle>
        <scale>0</scale>
      </LabelStyle>
      <BalloonStyle>
        <text><![CDATA[<h3>$[name]</h3>]]></text>
      </BalloonStyle>
    </Style>
    <Style id="icon-1899-DB4436-nodesc-highlight">
      <IconStyle>
        <color>ff3644db</color>
        <scale>1</scale>
        <Icon>
          <href>https://www.gstatic.com/mapspro/images/stock/503-wht-blank_maps.png</href>
        </Icon>
        <hotSpot x="32" xunits="pixels" y="64" yunits="insetPixels"/>
      </IconStyle>
      <LabelStyle>
        <scale>1</scale>
      </LabelStyle>
      <BalloonStyle>
        <text><![CDATA[<h3>$[name]</h3>]]></text>
      </BalloonStyle>
    </Style>
    <StyleMap id="icon-1899-DB4436-nodesc">
      <Pair>
        <key>normal</key>
        <styleUrl>#icon-1899-DB4436-nodesc-normal</styleUrl>
      </Pair>
      <Pair>
        <key>highlight</key>
        <styleUrl>#icon-1899-DB4436-nodesc-highlight</styleUrl>
      </Pair>
    </StyleMap>
    <Style id="line-1267FF-5000-nodesc-normal">
      <LineStyle>
        <color>ffff6712</color>
        <width>5</width>
      </LineStyle>
      <BalloonStyle>
        <text><![CDATA[<h3>$[name]</h3>]]></text>
      </BalloonStyle>
    </Style>
    <Style id="line-1267FF-5000-nodesc-highlight">
      <LineStyle>
        <color>ffff6712</color>
        <width>7.5</width>
      </LineStyle>
      <BalloonStyle>
        <text><![CDATA[<h3>$[name]</h3>]]></text>
      </BalloonStyle>
    </Style>
    <StyleMap id="line-1267FF-5000-nodesc">
      <Pair>
        <key>normal</key>
        <styleUrl>#line-1267FF-5000-nodesc-normal</styleUrl>
      </Pair>
      <Pair>
        <key>highlight</key>
        <styleUrl>#line-1267FF-5000-nodesc-highlight</styleUrl>
      </Pair>
    </StyleMap>
    <Placemark>
      <name>Indicaciones de C. Ninguno 1786, Buena Vista II, 91084 Xalapa-Enríquez, Ver., México a C. Lázaro Cárdenas 119, Rafael Lucio, 91017 Xalapa-Enríquez, Ver., México</name>
      <styleUrl>#line-1267FF-5000-nodesc</styleUrl>
      <LineString>
        <tessellate>1</tessellate>
        <coordinates>
          -96.92928,19.50976,0
          -96.92929,19.50979,0
          -96.9293,19.50989,0
          -96.92932,19.51007,0
          -96.92934,19.51029,0
          -96.9294,19.51087,0
          -96.92944,19.51117,0
          -96.92946,19.51136,0
          -96.92948,19.51161,0
          -96.92955,19.51242,0
          -96.92959,19.51268,0
          -96.92961,19.51282,0
          -96.92964,19.51293,0
          -96.92968,19.51302,0
          -96.92972,19.5131,0
          -96.92976,19.51318,0
          -96.9298,19.51325,0
          -96.92987,19.51336,0
          -96.93004,19.51353,0
          -96.93093,19.51438,0
          -96.93099,19.51443,0
          -96.93112,19.51455,0
          -96.93176,19.51513,0
          -96.93186,19.51522,0
          -96.93189,19.51525,0
          -96.93192,19.51527,0
          -96.9323,19.51556,0
          -96.93281,19.51604,0
          -96.93299,19.51622,0
          -96.93307,19.51631,0
          -96.93315,19.51641,0
          -96.93323,19.51655,0
          -96.93324,19.51656,0
          -96.93329,19.5166,0
          -96.93333,19.51667,0
          -96.93334,19.51668,0
          -96.93343,19.51691,0
          -96.9335,19.51715,0
          -96.93362,19.51757,0
          -96.93363,19.51762,0
          -96.93371,19.51784,0
          -96.93372,19.51787,0
          -96.93377,19.51805,0
          -96.93381,19.51814,0
          -96.93386,19.51827,0
          -96.93393,19.51841,0
          -96.93404,19.51858,0
          -96.93407,19.51863,0
          -96.93415,19.51873,0
          -96.93431,19.51891,0
          -96.93447,19.51907,0
          -96.93482,19.51947,0
          -96.93494,19.51961,0
          -96.93499,19.51971,0
          -96.935,19.51976,0
          -96.93502,19.5198,0
          -96.93503,19.51983,0
          -96.93504,19.51987,0
          -96.93505,19.5199,0
          -96.93506,19.51997,0
          -96.93507,19.51999,0
          -96.93507,19.52005,0
          -96.93506,19.52021,0
          -96.93505,19.52026,0
          -96.93504,19.52031,0
          -96.93503,19.52038,0
          -96.93498,19.52049,0
          -96.93491,19.52058,0
          -96.93447,19.52109,0
          -96.93439,19.52119,0
          -96.93432,19.52129,0
          -96.93425,19.52139,0
          -96.93374,19.52215,0
          -96.93334,19.52279,0
          -96.93312,19.52313,0
          -96.93302,19.52328,0
          -96.93266,19.52381,0
          -96.93233,19.52428,0
          -96.932,19.52471,0
          -96.93187,19.52494,0
          -96.93183,19.52503,0
          -96.93187,19.52509,0
          -96.9319,19.52513,0
          -96.93196,19.52519,0
          -96.93207,19.52525,0
          -96.93212,19.52528,0
          -96.93218,19.52531,0
          -96.93223,19.52532,0
          -96.93231,19.52534,0
          -96.9324,19.52535,0
          -96.93248,19.52535,0
          -96.93258,19.52536,0
          -96.93251,19.52566,0
          -96.93238,19.52616,0
          -96.93239,19.5264,0
          -96.93241,19.52653,0
          -96.93239,19.52667,0
          -96.93242,19.52679,0
          -96.93244,19.52697,0
          -96.93247,19.52728,0
          -96.93251,19.52737,0
          -96.93256,19.52748,0
          -96.9327,19.52764,0
          -96.93272,19.52765,0
          -96.93288,19.52779,0
          -96.93305,19.5279,0
          -96.93327,19.528,0
          -96.93365,19.52807,0
          -96.93385,19.52812,0
          -96.93391,19.52813,0
          -96.93417,19.52823,0
          -96.93424,19.52826,0
          -96.93437,19.52833,0
          -96.93443,19.52836,0
          -96.93453,19.52844,0
          -96.93456,19.52847,0
          -96.9346,19.52852,0
          -96.93473,19.5286,0
          -96.93485,19.52881,0
          -96.93495,19.52893,0
          -96.93501,19.52901,0
          -96.93505,19.52909,0
          -96.93507,19.52915,0
          -96.93512,19.52928,0
          -96.93514,19.52937,0
          -96.93517,19.52947,0
          -96.93519,19.52962,0
          -96.93521,19.52999,0
          -96.93518,19.53064,0
          -96.93519,19.53093,0
          -96.93523,19.53118,0
          -96.93537,19.53161,0
          -96.93546,19.5318,0
          -96.93554,19.53196,0
          -96.9356,19.53207,0
          -96.93567,19.53217,0
          -96.93576,19.53228,0
          -96.93579,19.53231,0
          -96.93586,19.53239,0
          -96.936,19.53252,0
          -96.93606,19.53256,0
          -96.93616,19.53264,0
          -96.93627,19.53272,0
          -96.93651,19.53289,0
          -96.937,19.53315,0
          -96.93708,19.53319,0
          -96.93725,19.53328,0
          -96.93736,19.53334,0
          -96.93779,19.5336,0
          -96.93782,19.53362,0
          -96.93811,19.5338,0
          -96.93825,19.53388,0
          -96.93862,19.5341,0
          -96.93906,19.53437,0
          -96.93929,19.53453,0
          -96.93944,19.53468,0
          -96.93948,19.53473,0
          -96.93957,19.53489,0
          -96.93959,19.53492,0
          -96.9396,19.53495,0
          -96.93961,19.53498,0
          -96.93961,19.53503,0
          -96.93961,19.53518,0
          -96.93961,19.53523,0
          -96.93961,19.53531,0
          -96.93959,19.53539,0
          -96.93958,19.53544,0
          -96.93956,19.53548,0
          -96.93954,19.53553,0
          -96.93949,19.53561,0
          -96.93943,19.53569,0
          -96.93932,19.53577,0
          -96.9392,19.53585,0
          -96.93905,19.53591,0
          -96.93894,19.53594,0
          -96.93889,19.53595,0
          -96.93875,19.53596,0
          -96.93874,19.53597,0
          -96.93859,19.53595,0
          -96.93838,19.53592,0
          -96.9381,19.53584,0
          -96.93774,19.53571,0
          -96.93757,19.53565,0
          -96.93718,19.53554,0
          -96.93699,19.53549,0
          -96.93688,19.53548,0
          -96.93683,19.53548,0
          -96.93645,19.53551,0
          -96.93627,19.53554,0
          -96.9354,19.53567,0
          -96.93503,19.53576,0
          -96.93492,19.53577,0
          -96.93445,19.53587,0
          -96.93357,19.53609,0
          -96.93345,19.5361,0
          -96.93313,19.53617,0
          -96.93294,19.53623,0
          -96.93282,19.53626,0
          -96.93271,19.53631,0
          -96.9326,19.53635,0
          -96.93251,19.5364,0
          -96.93242,19.53644,0
          -96.93234,19.5365,0
          -96.93223,19.53658,0
          -96.93215,19.53664,0
          -96.93193,19.53699,0
          -96.93177,19.53729,0
          -96.93171,19.53744,0
          -96.93168,19.53759,0
          -96.93164,19.53787,0
          -96.93166,19.53806,0
          -96.93166,19.53814,0
          -96.93182,19.53958,0
          -96.93191,19.54008,0
          -96.93193,19.54016,0
          -96.93205,19.54061,0
          -96.9321,19.54068,0
          -96.93219,19.54079,0
          -96.93225,19.54084,0
          -96.93237,19.54093,0
          -96.93268,19.54115,0
          -96.93297,19.54133,0
          -96.93337,19.54158,0
          -96.93344,19.54163,0
          -96.93371,19.54185,0
          -96.93381,19.54194,0
          -96.9339,19.54204,0
          -96.93393,19.54207,0
          -96.93395,19.54211,0
          -96.93398,19.54214,0
          -96.93404,19.54226,0
          -96.93409,19.5424,0
          -96.93409,19.54243,0
          -96.93413,19.54264,0
          -96.93413,19.54267,0
          -96.93413,19.5428,0
          -96.93412,19.54291,0
          -96.9341,19.54302,0
          -96.93405,19.54319,0
          -96.93394,19.54355,0
          -96.93377,19.54412,0
          -96.93374,19.5443,0
          -96.93374,19.54446,0
          -96.93376,19.54455,0
          -96.93378,19.54467,0
          -96.93382,19.54481,0
          -96.93401,19.54528,0
          -96.9341,19.54546,0
          -96.93465,19.5463,0
          -96.93497,19.54683,0
          -96.93508,19.547,0
          -96.93515,19.54716,0
          -96.93523,19.54735,0
          -96.93529,19.54752,0
          -96.93535,19.54772,0
          -96.93536,19.54783,0
          -96.93536,19.54785,0
          -96.9354,19.54813,0
          -96.93545,19.5484,0
          -96.93552,19.54885,0
          -96.93554,19.54906,0
          -96.93554,19.54913,0
          -96.93555,19.54922,0
          -96.93561,19.54992,0
          -96.9356,19.55011,0
          -96.93557,19.55038,0
          -96.93553,19.55058,0
          -96.93547,19.55075,0
          -96.9354,19.55092,0
          -96.93532,19.55109,0
          -96.93529,19.55113,0
          -96.93498,19.55175,0
          -96.93483,19.55207,0
          -96.9348,19.55212,0
          -96.93474,19.55225,0
          -96.9338,19.55412,0
          -96.93352,19.55394,0
          -96.93325,19.55378,0
          -96.93278,19.55348,0
          -96.93262,19.55337,0
          -96.93261,19.55336,0
          -96.932,19.55298,0
          -96.93147,19.55263,0
          -96.93131,19.55251,0
          -96.93017,19.55177,0
          -96.93008,19.5517,0
          -96.93002,19.55166,0
          -96.92998,19.55162,0
          -96.92993,19.55156,0
          -96.92989,19.5515,0
          -96.92986,19.55143,0
          -96.9298,19.55127,0
          -96.92986,19.55104,0
          -96.92987,19.55096,0
          -96.92991,19.55073,0
          -96.92991,19.55055,0
          -96.92994,19.55027,0
          -96.92995,19.55021,0
          -96.92995,19.55015,0
          -96.92995,19.55004,0
          -96.92998,19.54964,0
          -96.92999,19.5495,0
          -96.93,19.54941,0
          -96.92994,19.54909,0
          -96.92988,19.54881,0
          -96.92975,19.54841,0
          -96.92961,19.54811,0
          -96.9296,19.5481,0
          -96.92954,19.54802,0
          -96.9293,19.54765,0
          -96.92926,19.54773,0
          -96.92925,19.54774,0
          -96.92921,19.54781,0
          -96.92926,19.54793,0
          -96.92931,19.54808,0
          -96.92931,19.5481,0
          -96.92936,19.54833,0
          -96.92945,19.54869,0
          -96.92956,19.54906,0
          -96.92957,19.54911,0
          -96.92966,19.54945,0
          -96.92974,19.54985,0
          -96.92977,19.55012,0
          -96.92975,19.55024,0
          -96.92974,19.55038,0
          -96.92955,19.55131,0
          -96.92953,19.55141,0
          -96.92928,19.55252,0
          -96.92926,19.55259,0
          -96.92907,19.5535,0
          -96.92907,19.55352,0
          -96.929,19.55401,0
          -96.92898,19.55412,0
          -96.92889,19.55476,0
          -96.92882,19.55527,0
          -96.9288,19.55542,0
          -96.92872,19.55609,0
          -96.9286,19.55701,0
          -96.9286,19.55748,0
          -96.9286,19.55782,0
          -96.92861,19.55824,0
          -96.92861,19.55851,0
          -96.9286,19.55868,0
          -96.92859,19.55882,0
          -96.92859,19.55883,0
          -96.92856,19.55915,0
          -96.92853,19.55941,0
          -96.92849,19.55973,0
          -96.92838,19.56026,0
          -96.92822,19.56102,0
          -96.92821,19.56106,0
          -96.92816,19.56125,0
          -96.92812,19.56143,0
          -96.92807,19.56162,0
          -96.92799,19.56234,0
          -96.92801,19.5626,0
          -96.92802,19.56266,0
          -96.92803,19.56271,0
          -96.92806,19.56278,0
          -96.92808,19.56282,0
          -96.92809,19.56285,0
          -96.92812,19.56287,0
          -96.92815,19.56289,0
          -96.92817,19.56291,0
          -96.92824,19.56293,0
          -96.9283,19.56294,0
          -96.92834,19.56295,0
          -96.9284,19.56296,0
          -96.92853,19.56295,0
          -96.92861,19.56294,0
          -96.92866,19.56293,0
          -96.92877,19.56286,0
        </coordinates>
      </LineString>
    </Placemark>
    <Placemark>
      <name>C. Ninguno 1786, Buena Vista II, 91084 Xalapa-Enríquez, Ver., México</name>
      <styleUrl>#icon-1899-DB4436-nodesc</styleUrl>
      <Point>
        <coordinates>
          -96.9292828,19.5097592,0
        </coordinates>
      </Point>
    </Placemark>
    <Placemark>
      <name>C. Lázaro Cárdenas 119, Rafael Lucio, 91017 Xalapa-Enríquez, Ver., México</name>
      <styleUrl>#icon-1899-DB4436-nodesc</styleUrl>
      <Point>
        <coordinates>
          -96.928772,19.5628619,0
        </coordinates>
      </Point>
    </Placemark>
  </Document>
</kml>
