<?xml version="1.0" encoding="UTF-8"?>
<kml xmlns="http://www.opengis.net/kml/2.2">
  <Document>
    <name>Indicaciones de C. Lázaro Cárdenas 119, Rafael Lucio, 91017 Xalapa-Enríquez, Ver., México a Priv. Ninguno 10062, Buena Vista II, 91084 Xalapa-Enríquez, Ver., México</name>
    <Style id="icon-1899-DB4436-nodesc-normal">
      <IconStyle>
        <color>ff3644db</color>
        <scale>1</scale>
        <Icon>
          <href>https://www.gstatic.com/mapspro/images/stock/503-wht-blank_maps.png</href>
        </Icon>
        <hotSpot x="32" xunits="pixels" y="64" yunits="insetPixels"/>
      </IconStyle>
      <LabelStyle>
        <scale>0</scale>
      </LabelStyle>
      <BalloonStyle>
        <text><![CDATA[<h3>$[name]</h3>]]></text>
      </BalloonStyle>
    </Style>
    <Style id="icon-1899-DB4436-nodesc-highlight">
      <IconStyle>
        <color>ff3644db</color>
        <scale>1</scale>
        <Icon>
          <href>https://www.gstatic.com/mapspro/images/stock/503-wht-blank_maps.png</href>
        </Icon>
        <hotSpot x="32" xunits="pixels" y="64" yunits="insetPixels"/>
      </IconStyle>
      <LabelStyle>
        <scale>1</scale>
      </LabelStyle>
      <BalloonStyle>
        <text><![CDATA[<h3>$[name]</h3>]]></text>
      </BalloonStyle>
    </Style>
    <StyleMap id="icon-1899-DB4436-nodesc">
      <Pair>
        <key>normal</key>
        <styleUrl>#icon-1899-DB4436-nodesc-normal</styleUrl>
      </Pair>
      <Pair>
        <key>highlight</key>
        <styleUrl>#icon-1899-DB4436-nodesc-highlight</styleUrl>
      </Pair>
    </StyleMap>
    <Style id="line-1267FF-5000-nodesc-normal">
      <LineStyle>
        <color>ffff6712</color>
        <width>5</width>
      </LineStyle>
      <BalloonStyle>
        <text><![CDATA[<h3>$[name]</h3>]]></text>
      </BalloonStyle>
    </Style>
    <Style id="line-1267FF-5000-nodesc-highlight">
      <LineStyle>
        <color>ffff6712</color>
        <width>7.5</width>
      </LineStyle>
      <BalloonStyle>
        <text><![CDATA[<h3>$[name]</h3>]]></text>
      </BalloonStyle>
    </Style>
    <StyleMap id="line-1267FF-5000-nodesc">
      <Pair>
        <key>normal</key>
        <styleUrl>#line-1267FF-5000-nodesc-normal</styleUrl>
      </Pair>
      <Pair>
        <key>highlight</key>
        <styleUrl>#line-1267FF-5000-nodesc-highlight</styleUrl>
      </Pair>
    </StyleMap>
    <Placemark>
      <name>Indicaciones de C. Lázaro Cárdenas 119, Rafael Lucio, 91017 Xalapa-Enríquez, Ver., México a Priv. Ninguno 10062, Buena Vista II, 91084 Xalapa-Enríquez, Ver., México</name>
      <styleUrl>#line-1267FF-5000-nodesc</styleUrl>
      <LineString>
        <tessellate>1</tessellate>
        <coordinates>
          -96.92877,19.5629,0
          -96.92877,19.56286,0
          -96.92881,19.56269,0
          -96.92884,19.56251,0
          -96.92893,19.56218,0
          -96.92893,19.56205,0
          -96.92891,19.56181,0
          -96.92887,19.56146,0
          -96.92882,19.56101,0
          -96.92876,19.56025,0
          -96.92875,19.55989,0
          -96.92875,19.55975,0
          -96.92875,19.55964,0
          -96.92877,19.55945,0
          -96.92878,19.55914,0
          -96.9288,19.55876,0
          -96.9288,19.55861,0
          -96.92883,19.55772,0
          -96.92884,19.55704,0
          -96.92888,19.55643,0
          -96.92891,19.55611,0
          -96.92892,19.55598,0
          -96.92894,19.55589,0
          -96.92895,19.55582,0
          -96.92898,19.55569,0
          -96.929,19.55564,0
          -96.92901,19.5556,0
          -96.92901,19.55557,0
          -96.92903,19.55546,0
          -96.92905,19.55531,0
          -96.92913,19.55478,0
          -96.9292,19.55414,0
          -96.92922,19.55405,0
          -96.92931,19.55354,0
          -96.92947,19.55255,0
          -96.92955,19.55211,0
          -96.92968,19.55204,0
          -96.92975,19.55198,0
          -96.92983,19.55194,0
          -96.92992,19.55191,0
          -96.93001,19.55191,0
          -96.93013,19.55193,0
          -96.93021,19.55195,0
          -96.93029,19.55198,0
          -96.93035,19.55201,0
          -96.93042,19.55204,0
          -96.93048,19.55208,0
          -96.93065,19.55219,0
          -96.93076,19.55226,0
          -96.93106,19.55245,0
          -96.93126,19.55259,0
          -96.93151,19.55278,0
          -96.93194,19.55305,0
          -96.93251,19.55344,0
          -96.93267,19.55354,0
          -96.93313,19.55386,0
          -96.9334,19.55402,0
          -96.93375,19.55423,0
          -96.93387,19.55428,0
          -96.93392,19.5542,0
          -96.93496,19.55221,0
          -96.93499,19.55215,0
          -96.93506,19.55203,0
          -96.93511,19.55194,0
          -96.93517,19.55181,0
          -96.93545,19.55119,0
          -96.93547,19.55115,0
          -96.93554,19.55098,0
          -96.9356,19.55084,0
          -96.93565,19.5507,0
          -96.93568,19.55056,0
          -96.93571,19.55043,0
          -96.93572,19.55039,0
          -96.93574,19.55024,0
          -96.93574,19.54998,0
          -96.93574,19.54986,0
          -96.9357,19.54923,0
          -96.93568,19.5491,0
          -96.9356,19.54839,0
          -96.93555,19.54802,0
          -96.9355,19.54775,0
          -96.93546,19.54765,0
          -96.93539,19.54742,0
          -96.93526,19.54712,0
          -96.93509,19.5468,0
          -96.93501,19.54666,0
          -96.93481,19.54635,0
          -96.93459,19.54604,0
          -96.93436,19.5457,0
          -96.93421,19.54546,0
          -96.93413,19.54536,0
          -96.9341,19.54529,0
          -96.93407,19.54522,0
          -96.93405,19.54516,0
          -96.93395,19.54488,0
          -96.93389,19.54466,0
          -96.93388,19.54455,0
          -96.93387,19.54441,0
          -96.93388,19.54417,0
          -96.93392,19.54406,0
          -96.93407,19.54356,0
          -96.93419,19.54312,0
          -96.93423,19.54298,0
          -96.93425,19.54285,0
          -96.93425,19.54276,0
          -96.93425,19.54272,0
          -96.93425,19.54268,0
          -96.93425,19.54264,0
          -96.93424,19.54259,0
          -96.93421,19.54238,0
          -96.93417,19.54225,0
          -96.93415,19.5422,0
          -96.93415,19.54219,0
          -96.93413,19.54217,0
          -96.93407,19.54207,0
          -96.93402,19.542,0
          -96.93388,19.54184,0
          -96.93342,19.5415,0
          -96.93297,19.5412,0
          -96.93263,19.54098,0
          -96.93239,19.54081,0
          -96.93233,19.54077,0
          -96.93227,19.54071,0
          -96.93221,19.54064,0
          -96.93215,19.54056,0
          -96.93201,19.54008,0
          -96.93195,19.5397,0
          -96.93181,19.53847,0
          -96.93177,19.53805,0
          -96.93177,19.53798,0
          -96.93182,19.5378,0
          -96.93186,19.53774,0
          -96.93188,19.53771,0
          -96.93192,19.53767,0
          -96.93207,19.53754,0
          -96.93221,19.53741,0
          -96.93222,19.5374,0
          -96.93235,19.53729,0
          -96.93249,19.53717,0
          -96.93258,19.5371,0
          -96.93357,19.53627,0
          -96.93359,19.53624,0
          -96.93366,19.53619,0
          -96.93373,19.53616,0
          -96.93381,19.53614,0
          -96.93392,19.53611,0
          -96.93501,19.53589,0
          -96.93522,19.53584,0
          -96.93541,19.53579,0
          -96.93622,19.53563,0
          -96.93635,19.53562,0
          -96.93647,19.5356,0
          -96.93661,19.53559,0
          -96.93675,19.53558,0
          -96.93691,19.5356,0
          -96.93707,19.53563,0
          -96.93753,19.53577,0
          -96.93767,19.53582,0
          -96.93835,19.53604,0
          -96.93844,19.53607,0
          -96.93855,19.53609,0
          -96.9386,19.53609,0
          -96.93865,19.5361,0
          -96.9388,19.53609,0
          -96.93885,19.53608,0
          -96.93895,19.53607,0
          -96.939,19.53605,0
          -96.93908,19.53603,0
          -96.93917,19.53599,0
          -96.93931,19.53592,0
          -96.93939,19.53587,0
          -96.93951,19.53578,0
          -96.93959,19.53569,0
          -96.93964,19.5356,0
          -96.93968,19.53552,0
          -96.9397,19.53545,0
          -96.93972,19.53538,0
          -96.93973,19.53531,0
          -96.93974,19.53524,0
          -96.93972,19.53507,0
          -96.93969,19.53501,0
          -96.93969,19.53498,0
          -96.93969,19.53496,0
          -96.93968,19.53492,0
          -96.93968,19.53485,0
          -96.93966,19.53479,0
          -96.93963,19.53472,0
          -96.9396,19.53467,0
          -96.93944,19.53452,0
          -96.93931,19.53442,0
          -96.93921,19.53435,0
          -96.93911,19.53428,0
          -96.93868,19.53401,0
          -96.93832,19.53379,0
          -96.9378,19.53347,0
          -96.93736,19.5332,0
          -96.93722,19.53313,0
          -96.93689,19.53296,0
          -96.93635,19.53263,0
          -96.93624,19.53255,0
          -96.93608,19.53243,0
          -96.93593,19.5323,0
          -96.93577,19.53214,0
          -96.93563,19.53193,0
          -96.93555,19.53176,0
          -96.93548,19.53157,0
          -96.93543,19.53144,0
          -96.93534,19.53119,0
          -96.93528,19.53082,0
          -96.93526,19.53058,0
          -96.93527,19.52962,0
          -96.93526,19.52952,0
          -96.93524,19.52939,0
          -96.93522,19.52929,0
          -96.93518,19.52917,0
          -96.93515,19.52908,0
          -96.93512,19.529,0
          -96.93508,19.52894,0
          -96.93506,19.52891,0
          -96.93497,19.52878,0
          -96.93479,19.52855,0
          -96.93472,19.52848,0
          -96.93472,19.52838,0
          -96.93468,19.52816,0
          -96.93465,19.52793,0
          -96.93442,19.52682,0
          -96.93437,19.52659,0
          -96.93433,19.52641,0
          -96.93431,19.52634,0
          -96.93431,19.52626,0
          -96.93428,19.52614,0
          -96.93427,19.52609,0
          -96.93425,19.52597,0
          -96.93418,19.52569,0
          -96.93419,19.52568,0
          -96.93419,19.52566,0
          -96.9342,19.52565,0
          -96.9342,19.52564,0
          -96.9342,19.52563,0
          -96.9342,19.52562,0
          -96.93421,19.52561,0
          -96.93421,19.5256,0
          -96.9342,19.5256,0
          -96.9342,19.52559,0
          -96.9342,19.52558,0
          -96.9342,19.52557,0
          -96.93419,19.52556,0
          -96.93419,19.52555,0
          -96.93418,19.52554,0
          -96.93417,19.52553,0
          -96.93417,19.52552,0
          -96.93416,19.52552,0
          -96.93416,19.52551,0
          -96.93415,19.52551,0
          -96.93414,19.5255,0
          -96.93413,19.52549,0
          -96.9341,19.52548,0
          -96.93409,19.52548,0
          -96.93408,19.52548,0
          -96.93407,19.52547,0
          -96.93406,19.52547,0
          -96.93405,19.52548,0
          -96.93404,19.52548,0
          -96.93403,19.52548,0
          -96.93402,19.52548,0
          -96.93401,19.52548,0
          -96.934,19.52549,0
          -96.93399,19.5255,0
          -96.93398,19.5255,0
          -96.93397,19.52551,0
          -96.93396,19.52552,0
          -96.93395,19.52553,0
          -96.93352,19.52531,0
          -96.93334,19.52521,0
          -96.93303,19.52503,0
          -96.93291,19.52497,0
          -96.93283,19.52491,0
          -96.93278,19.52486,0
          -96.93273,19.52483,0
          -96.93276,19.52465,0
          -96.93276,19.5246,0
          -96.93276,19.52457,0
          -96.93275,19.52455,0
          -96.93273,19.52451,0
          -96.93272,19.52449,0
          -96.9327,19.52447,0
          -96.93266,19.52444,0
          -96.93233,19.52428,0
          -96.93266,19.52381,0
          -96.93302,19.52328,0
          -96.93312,19.52313,0
          -96.93334,19.52279,0
          -96.93374,19.52215,0
          -96.93425,19.52139,0
          -96.93432,19.52129,0
          -96.93439,19.52119,0
          -96.93447,19.52109,0
          -96.93491,19.52058,0
          -96.93498,19.52049,0
          -96.93503,19.52038,0
          -96.93504,19.52031,0
          -96.93505,19.52026,0
          -96.93506,19.52021,0
          -96.93507,19.52005,0
          -96.93507,19.51999,0
          -96.93506,19.51997,0
          -96.93505,19.5199,0
          -96.93504,19.51987,0
          -96.93503,19.51983,0
          -96.93502,19.5198,0
          -96.935,19.51976,0
          -96.93499,19.51971,0
          -96.93494,19.51961,0
          -96.93482,19.51947,0
          -96.93447,19.51907,0
          -96.93431,19.51891,0
          -96.93415,19.51873,0
          -96.93407,19.51863,0
          -96.93404,19.51858,0
          -96.93393,19.51841,0
          -96.93386,19.51827,0
          -96.93381,19.51814,0
          -96.93377,19.51805,0
          -96.93372,19.51787,0
          -96.93371,19.51784,0
          -96.93363,19.51762,0
          -96.93362,19.51757,0
          -96.9335,19.51715,0
          -96.93343,19.51691,0
          -96.93334,19.51668,0
          -96.93333,19.51667,0
          -96.93329,19.5166,0
          -96.93328,19.51654,0
          -96.93328,19.51652,0
          -96.9332,19.51638,0
          -96.93313,19.51628,0
          -96.93305,19.51619,0
          -96.93289,19.51599,0
          -96.93277,19.51587,0
          -96.93241,19.51555,0
          -96.93202,19.51519,0
          -96.932,19.51517,0
          -96.93197,19.51514,0
          -96.93187,19.51505,0
          -96.93123,19.51446,0
          -96.93111,19.51434,0
          -96.9311,19.51433,0
          -96.93049,19.51379,0
          -96.93012,19.51347,0
          -96.92996,19.51329,0
          -96.92991,19.51321,0
          -96.92985,19.51311,0
          -96.92982,19.51303,0
          -96.92977,19.51293,0
          -96.92973,19.51281,0
          -96.9297,19.5127,0
          -96.92969,19.51263,0
          -96.92967,19.51253,0
          -96.92965,19.51228,0
          -96.92965,19.51226,0
          -96.92963,19.5119,0
          -96.92963,19.51189,0
          -96.92962,19.51176,0
          -96.9296,19.51158,0
          -96.92959,19.51152,0
          -96.92958,19.5114,0
          -96.92956,19.51118,0
          -96.92955,19.51104,0
          -96.92953,19.51086,0
          -96.92952,19.5108,0
          -96.92951,19.51056,0
          -96.92948,19.51028,0
          -96.92948,19.5101,0
          -96.92948,19.51004,0
          -96.92949,19.50995,0
          -96.9295,19.50988,0
          -96.92953,19.50976,0
          -96.92956,19.50967,0
          -96.92961,19.50954,0
          -96.92967,19.50942,0
          -96.92971,19.50932,0
          -96.92981,19.50925,0
          -96.92987,19.50919,0
          -96.92993,19.50914,0
          -96.93005,19.50903,0
          -96.93012,19.5089,0
          -96.93015,19.50885,0
          -96.93017,19.50881,0
          -96.93017,19.50878,0
          -96.93018,19.50875,0
          -96.93018,19.50871,0
          -96.93018,19.50868,0
          -96.93018,19.50864,0
          -96.93017,19.5086,0
          -96.93016,19.50855,0
          -96.93013,19.5085,0
          -96.93011,19.50846,0
          -96.93008,19.50842,0
          -96.93005,19.50839,0
          -96.92999,19.50835,0
          -96.92992,19.50832,0
          -96.92987,19.5083,0
          -96.9298,19.50827,0
          -96.92963,19.50826,0
          -96.92927,19.50827,0
          -96.92911,19.50827,0
          -96.92901,19.50828,0
          -96.92893,19.50829,0
          -96.92884,19.50831,0
          -96.92871,19.50835,0
          -96.92861,19.50846,0
          -96.92859,19.5085,0
          -96.92857,19.50854,0
          -96.92854,19.5086,0
          -96.92853,19.50867,0
          -96.92853,19.50871,0
          -96.92853,19.50876,0
          -96.92855,19.50884,0
          -96.9286,19.50895,0
          -96.92865,19.509,0
          -96.92866,19.509,0
          -96.92871,19.50906,0
          -96.92901,19.50926,0
          -96.92911,19.50936,0
          -96.92919,19.50948,0
          -96.92924,19.50959,0
          -96.92926,19.50964,0
          -96.92927,19.50967,0
        </coordinates>
      </LineString>
    </Placemark>
    <Placemark>
      <name>C. Lázaro Cárdenas 119, Rafael Lucio, 91017 Xalapa-Enríquez, Ver., México</name>
      <styleUrl>#icon-1899-DB4436-nodesc</styleUrl>
      <Point>
        <coordinates>
          -96.9287696,19.5629041,0
        </coordinates>
      </Point>
    </Placemark>
    <Placemark>
      <name>Priv. Ninguno 10062, Buena Vista II, 91084 Xalapa-Enríquez, Ver., México</name>
      <styleUrl>#icon-1899-DB4436-nodesc</styleUrl>
      <Point>
        <coordinates>
          -96.9292669,19.5096695,0
        </coordinates>
      </Point>
    </Placemark>
  </Document>
</kml>
