<?xml version="1.0" encoding="UTF-8"?>
<kml xmlns="http://www.opengis.net/kml/2.2">
  <Document>
    <name>Indicaciones de Calle Principal 32, El Calvario, El Castillo, 91166 El Castillo, Ver., México a C. Ninguno 1786, Buena Vista II, 91084 Xalapa-Enríquez, Ver., México</name>
    <Style id="icon-1899-DB4436-nodesc-normal">
      <IconStyle>
        <color>ff3644db</color>
        <scale>1</scale>
        <Icon>
          <href>https://www.gstatic.com/mapspro/images/stock/503-wht-blank_maps.png</href>
        </Icon>
        <hotSpot x="32" xunits="pixels" y="64" yunits="insetPixels"/>
      </IconStyle>
      <LabelStyle>
        <scale>0</scale>
      </LabelStyle>
      <BalloonStyle>
        <text><![CDATA[<h3>$[name]</h3>]]></text>
      </BalloonStyle>
    </Style>
    <Style id="icon-1899-DB4436-nodesc-highlight">
      <IconStyle>
        <color>ff3644db</color>
        <scale>1</scale>
        <Icon>
          <href>https://www.gstatic.com/mapspro/images/stock/503-wht-blank_maps.png</href>
        </Icon>
        <hotSpot x="32" xunits="pixels" y="64" yunits="insetPixels"/>
      </IconStyle>
      <LabelStyle>
        <scale>1</scale>
      </LabelStyle>
      <BalloonStyle>
        <text><![CDATA[<h3>$[name]</h3>]]></text>
      </BalloonStyle>
    </Style>
    <StyleMap id="icon-1899-DB4436-nodesc">
      <Pair>
        <key>normal</key>
        <styleUrl>#icon-1899-DB4436-nodesc-normal</styleUrl>
      </Pair>
      <Pair>
        <key>highlight</key>
        <styleUrl>#icon-1899-DB4436-nodesc-highlight</styleUrl>
      </Pair>
    </StyleMap>
    <Style id="line-1267FF-5000-nodesc-normal">
      <LineStyle>
        <color>ffff6712</color>
        <width>5</width>
      </LineStyle>
      <BalloonStyle>
        <text><![CDATA[<h3>$[name]</h3>]]></text>
      </BalloonStyle>
    </Style>
    <Style id="line-1267FF-5000-nodesc-highlight">
      <LineStyle>
        <color>ffff6712</color>
        <width>7.5</width>
      </LineStyle>
      <BalloonStyle>
        <text><![CDATA[<h3>$[name]</h3>]]></text>
      </BalloonStyle>
    </Style>
    <StyleMap id="line-1267FF-5000-nodesc">
      <Pair>
        <key>normal</key>
        <styleUrl>#line-1267FF-5000-nodesc-normal</styleUrl>
      </Pair>
      <Pair>
        <key>highlight</key>
        <styleUrl>#line-1267FF-5000-nodesc-highlight</styleUrl>
      </Pair>
    </StyleMap>
    <Placemark>
      <name>Indicaciones de Calle Principal 32, El Calvario, El Castillo, 91166 El Castillo, Ver., México a C. Ninguno 1786, Buena Vista II, 91084 Xalapa-Enríquez, Ver., México</name>
      <styleUrl>#line-1267FF-5000-nodesc</styleUrl>
      <LineString>
        <tessellate>1</tessellate>
        <coordinates>
          -96.86339,19.54841,0
          -96.8634,19.54828,0
          -96.86339,19.5482,0
          -96.8634,19.54793,0
          -96.86341,19.54788,0
          -96.86342,19.54783,0
          -96.86343,19.54781,0
          -96.86345,19.54778,0
          -96.86354,19.54771,0
          -96.8637,19.54758,0
          -96.86384,19.54748,0
          -96.86391,19.54742,0
          -96.86395,19.5474,0
          -96.86398,19.54738,0
          -96.86402,19.54734,0
          -96.86407,19.54729,0
          -96.86411,19.54724,0
          -96.86415,19.54717,0
          -96.86419,19.54707,0
          -96.86423,19.54699,0
          -96.86431,19.54663,0
          -96.86436,19.54645,0
          -96.86438,19.54632,0
          -96.8644,19.54624,0
          -96.86443,19.54617,0
          -96.86449,19.54597,0
          -96.86451,19.5459,0
          -96.86455,19.54582,0
          -96.86457,19.54577,0
          -96.86464,19.54566,0
          -96.86471,19.54557,0
          -96.86476,19.54553,0
          -96.86484,19.54546,0
          -96.86491,19.54542,0
          -96.86496,19.54539,0
          -96.86503,19.54535,0
          -96.86518,19.54529,0
          -96.86527,19.54528,0
          -96.86531,19.54528,0
          -96.86552,19.54534,0
          -96.86566,19.54535,0
          -96.86639,19.54536,0
          -96.86665,19.54534,0
          -96.86666,19.54534,0
          -96.86685,19.54535,0
          -96.8669,19.54535,0
          -96.86708,19.54538,0
          -96.86719,19.5454,0
          -96.86733,19.54546,0
          -96.86842,19.54598,0
          -96.86851,19.54601,0
          -96.86857,19.54603,0
          -96.86863,19.54604,0
          -96.86869,19.54604,0
          -96.86874,19.54604,0
          -96.8688,19.54604,0
          -96.86886,19.54603,0
          -96.86893,19.54602,0
          -96.86916,19.54594,0
          -96.86929,19.54589,0
          -96.86957,19.5458,0
          -96.86966,19.54578,0
          -96.86969,19.54577,0
          -96.86977,19.54576,0
          -96.8699,19.54574,0
          -96.86995,19.54573,0
          -96.8701,19.54571,0
          -96.87045,19.5457,0
          -96.87068,19.5457,0
          -96.87081,19.54571,0
          -96.87086,19.54571,0
          -96.87093,19.5457,0
          -96.87099,19.54569,0
          -96.87105,19.54568,0
          -96.87112,19.54567,0
          -96.87117,19.54565,0
          -96.87124,19.54561,0
          -96.87132,19.54556,0
          -96.87138,19.54552,0
          -96.87145,19.54545,0
          -96.87173,19.54516,0
          -96.87184,19.54505,0
          -96.87192,19.54499,0
          -96.87201,19.54493,0
          -96.87208,19.5449,0
          -96.87214,19.54488,0
          -96.8722,19.54487,0
          -96.87226,19.54486,0
          -96.87236,19.54487,0
          -96.87251,19.54491,0
          -96.87258,19.54493,0
          -96.87269,19.54499,0
          -96.87334,19.54538,0
          -96.8734,19.54543,0
          -96.87414,19.54597,0
          -96.87492,19.54649,0
          -96.87625,19.54729,0
          -96.87735,19.54795,0
          -96.87813,19.54845,0
          -96.87814,19.54846,0
          -96.87856,19.54873,0
          -96.87876,19.54884,0
          -96.87883,19.54888,0
          -96.8789,19.54891,0
          -96.87899,19.54892,0
          -96.87948,19.54898,0
          -96.87967,19.54895,0
          -96.87981,19.54891,0
          -96.87995,19.54885,0
          -96.88004,19.5488,0
          -96.88057,19.54848,0
          -96.88117,19.54807,0
          -96.88135,19.54795,0
          -96.88144,19.54802,0
          -96.88164,19.54818,0
          -96.88173,19.54824,0
          -96.88179,19.54829,0
          -96.88181,19.54831,0
          -96.88204,19.54849,0
          -96.88216,19.54861,0
          -96.88236,19.54879,0
          -96.88278,19.54925,0
          -96.88284,19.54931,0
          -96.8829,19.54937,0
          -96.883,19.54948,0
          -96.88317,19.54966,0
          -96.88324,19.5497,0
          -96.88343,19.5498,0
          -96.88391,19.54937,0
          -96.8841,19.54922,0
          -96.88445,19.54895,0
          -96.88462,19.5488,0
          -96.88493,19.5485,0
          -96.88542,19.54807,0
          -96.88593,19.5476,0
          -96.88603,19.5477,0
          -96.88625,19.54794,0
          -96.88666,19.54834,0
          -96.88691,19.54853,0
          -96.88715,19.54875,0
          -96.88726,19.54887,0
          -96.88729,19.5489,0
          -96.88745,19.54907,0
          -96.88773,19.54941,0
          -96.8878,19.54949,0
          -96.88797,19.54967,0
          -96.88799,19.54971,0
          -96.88801,19.54975,0
          -96.88803,19.54979,0
          -96.88802,19.54982,0
          -96.888,19.54989,0
          -96.88815,19.55,0
          -96.88826,19.55009,0
          -96.88834,19.55014,0
          -96.88842,19.55017,0
          -96.88847,19.55019,0
          -96.88852,19.5502,0
          -96.88861,19.55024,0
          -96.88867,19.55027,0
          -96.88874,19.55031,0
          -96.88881,19.55037,0
          -96.88886,19.55043,0
          -96.88889,19.55052,0
          -96.88893,19.55062,0
          -96.88899,19.55074,0
          -96.88907,19.55089,0
          -96.88916,19.55101,0
          -96.88928,19.55113,0
          -96.88967,19.55129,0
          -96.89028,19.55157,0
          -96.89032,19.55161,0
          -96.89042,19.55168,0
          -96.89051,19.55175,0
          -96.89063,19.55187,0
          -96.89076,19.55195,0
          -96.89083,19.55201,0
          -96.8909,19.55206,0
          -96.89099,19.55217,0
          -96.89111,19.55224,0
          -96.89121,19.55231,0
          -96.89126,19.55236,0
          -96.89134,19.55244,0
          -96.89147,19.55254,0
          -96.89151,19.5525,0
          -96.89156,19.55246,0
          -96.89165,19.55241,0
          -96.89199,19.55212,0
          -96.89228,19.55187,0
          -96.89276,19.55147,0
          -96.89295,19.55168,0
          -96.8931,19.55183,0
          -96.89316,19.55189,0
          -96.89331,19.55204,0
          -96.89344,19.55217,0
          -96.89356,19.55231,0
          -96.89363,19.55239,0
          -96.89366,19.55242,0
          -96.89391,19.55266,0
          -96.89398,19.5526,0
          -96.89428,19.55227,0
          -96.89448,19.55202,0
          -96.89453,19.55196,0
          -96.89456,19.55193,0
          -96.89488,19.55179,0
          -96.89502,19.5517,0
          -96.89508,19.55167,0
          -96.89518,19.5516,0
          -96.89533,19.55149,0
          -96.8954,19.55145,0
          -96.89562,19.55134,0
          -96.89588,19.55121,0
          -96.89591,19.5512,0
          -96.89607,19.5511,0
          -96.89623,19.55099,0
          -96.8965,19.55085,0
          -96.89656,19.55082,0
          -96.89686,19.55115,0
          -96.89696,19.55127,0
          -96.89707,19.55141,0
          -96.89725,19.55161,0
          -96.89733,19.55169,0
          -96.89755,19.55195,0
          -96.89766,19.55204,0
          -96.89773,19.55207,0
          -96.89788,19.55214,0
          -96.89805,19.55219,0
          -96.89833,19.55227,0
          -96.89863,19.55236,0
          -96.89883,19.55241,0
          -96.8989,19.55243,0
          -96.89911,19.55249,0
          -96.89918,19.55251,0
          -96.89972,19.55262,0
          -96.89963,19.55304,0
          -96.89952,19.55339,0
          -96.89929,19.55407,0
          -96.89904,19.554,0
          -96.89891,19.55396,0
          -96.89883,19.55395,0
          -96.8987,19.55392,0
          -96.89868,19.55392,0
          -96.89865,19.55391,0
          -96.8985,19.55393,0
          -96.89843,19.55396,0
          -96.89838,19.55398,0
          -96.89823,19.55408,0
          -96.89781,19.55451,0
          -96.89749,19.55494,0
          -96.89738,19.55523,0
          -96.89728,19.5555,0
          -96.89727,19.55553,0
          -96.89726,19.55553,0
          -96.89725,19.55555,0
          -96.89724,19.55556,0
          -96.89721,19.55558,0
          -96.89714,19.55561,0
          -96.89709,19.55562,0
          -96.89704,19.55568,0
          -96.89703,19.55569,0
          -96.89702,19.55571,0
          -96.89701,19.55573,0
          -96.89701,19.55575,0
          -96.89701,19.55576,0
          -96.89715,19.55595,0
          -96.89732,19.55618,0
          -96.8974,19.5563,0
          -96.89752,19.55646,0
          -96.89761,19.55659,0
          -96.89769,19.55666,0
          -96.89817,19.55727,0
          -96.89823,19.55736,0
          -96.89827,19.55762,0
          -96.89828,19.55797,0
          -96.89866,19.55796,0
          -96.8991,19.55795,0
          -96.89951,19.55793,0
          -96.89979,19.55792,0
          -96.90015,19.55791,0
          -96.90052,19.55791,0
          -96.90081,19.55789,0
          -96.90092,19.55789,0
          -96.90128,19.55789,0
          -96.9014,19.55788,0
          -96.90157,19.55787,0
          -96.90197,19.55786,0
          -96.90205,19.55785,0
          -96.90208,19.55785,0
          -96.90303,19.55781,0
          -96.90349,19.55778,0
          -96.9038,19.55775,0
          -96.90396,19.55778,0
          -96.90434,19.55775,0
          -96.90465,19.55771,0
          -96.9047,19.55771,0
          -96.90502,19.55769,0
          -96.90574,19.55772,0
          -96.9058,19.55771,0
          -96.90577,19.55762,0
          -96.90576,19.5576,0
          -96.90575,19.55758,0
          -96.90569,19.55752,0
          -96.90557,19.5573,0
          -96.90532,19.55686,0
          -96.90528,19.5568,0
          -96.90525,19.55675,0
          -96.9052,19.55664,0
          -96.9052,19.55663,0
          -96.90518,19.55658,0
          -96.90516,19.55651,0
          -96.90513,19.55637,0
          -96.90511,19.55628,0
          -96.90505,19.55607,0
          -96.90474,19.55498,0
          -96.90468,19.55473,0
          -96.90465,19.55453,0
          -96.90463,19.55437,0
          -96.90462,19.55388,0
          -96.90469,19.55318,0
          -96.90471,19.55308,0
          -96.90472,19.55298,0
          -96.90476,19.55279,0
          -96.9048,19.55262,0
          -96.90482,19.55256,0
          -96.90489,19.55239,0
          -96.9049,19.55238,0
          -96.90491,19.55236,0
          -96.90502,19.55219,0
          -96.90506,19.55214,0
          -96.90511,19.55208,0
          -96.90517,19.55201,0
          -96.90521,19.55198,0
          -96.90599,19.55174,0
          -96.90566,19.55104,0
          -96.90545,19.5506,0
          -96.905,19.54955,0
          -96.90493,19.54943,0
          -96.9049,19.54934,0
          -96.90485,19.54903,0
          -96.90484,19.54885,0
          -96.90482,19.54852,0
          -96.90472,19.5485,0
          -96.90452,19.54848,0
          -96.90417,19.54845,0
          -96.90397,19.54844,0
          -96.9039,19.54844,0
          -96.90369,19.54844,0
          -96.90364,19.54844,0
          -96.90292,19.54839,0
          -96.90291,19.54839,0
          -96.90289,19.54839,0
          -96.90288,19.54839,0
          -96.90271,19.54838,0
          -96.9026,19.54837,0
          -96.90188,19.54833,0
          -96.90145,19.54831,0
          -96.90115,19.54831,0
          -96.90111,19.54831,0
          -96.90074,19.54834,0
          -96.90039,19.54838,0
          -96.90014,19.54845,0
          -96.90001,19.54835,0
          -96.89995,19.54833,0
          -96.8999,19.54831,0
          -96.89958,19.54817,0
          -96.89946,19.54812,0
          -96.89923,19.54803,0
          -96.89892,19.54789,0
          -96.89894,19.54787,0
          -96.89919,19.54736,0
          -96.89925,19.54723,0
          -96.89936,19.54701,0
          -96.89944,19.5468,0
          -96.8995,19.54667,0
          -96.89956,19.54654,0
          -96.89966,19.54639,0
          -96.89978,19.54624,0
          -96.89982,19.54617,0
          -96.89984,19.54611,0
          -96.89986,19.54603,0
          -96.89988,19.54586,0
          -96.8999,19.54572,0
          -96.89988,19.54536,0
          -96.89988,19.54518,0
          -96.89987,19.54501,0
          -96.89989,19.54483,0
          -96.89995,19.5446,0
          -96.90001,19.54435,0
          -96.90001,19.54433,0
          -96.90003,19.5443,0
          -96.90003,19.54428,0
          -96.90014,19.54417,0
          -96.90015,19.54416,0
          -96.90027,19.54411,0
          -96.9008,19.54387,0
          -96.90094,19.5438,0
          -96.90097,19.54378,0
          -96.90107,19.5437,0
          -96.90109,19.54365,0
          -96.9011,19.5436,0
          -96.9011,19.54355,0
          -96.90109,19.54345,0
          -96.90092,19.54312,0
          -96.9009,19.54307,0
          -96.9009,19.54304,0
          -96.9009,19.54293,0
          -96.90094,19.54271,0
          -96.90096,19.54255,0
          -96.90096,19.54245,0
          -96.90096,19.54238,0
          -96.90095,19.54225,0
          -96.90092,19.54215,0
          -96.90091,19.54207,0
          -96.90092,19.54197,0
          -96.90095,19.54185,0
          -96.90098,19.54177,0
          -96.90099,19.54169,0
          -96.90099,19.54161,0
          -96.90098,19.54151,0
          -96.90095,19.54138,0
          -96.9009,19.54122,0
          -96.90087,19.54109,0
          -96.90087,19.54108,0
          -96.90083,19.54092,0
          -96.90079,19.54074,0
          -96.90067,19.54028,0
          -96.90109,19.54022,0
          -96.90131,19.54018,0
          -96.90177,19.54005,0
          -96.90198,19.53997,0
          -96.90273,19.53968,0
          -96.90291,19.53964,0
          -96.90337,19.53963,0
          -96.90353,19.53965,0
          -96.90365,19.53966,0
          -96.90374,19.53966,0
          -96.90386,19.53965,0
          -96.90388,19.53964,0
          -96.9039,19.53963,0
          -96.90392,19.53962,0
          -96.90394,19.5396,0
          -96.90437,19.53924,0
          -96.90497,19.53875,0
          -96.90502,19.53866,0
          -96.90522,19.53852,0
          -96.9055,19.53835,0
          -96.90556,19.53831,0
          -96.90556,19.5383,0
          -96.90564,19.53825,0
          -96.90571,19.5382,0
          -96.90572,19.5382,0
          -96.90581,19.53818,0
          -96.90641,19.53762,0
          -96.90671,19.53734,0
          -96.90681,19.53725,0
          -96.90683,19.53723,0
          -96.90697,19.5371,0
          -96.90755,19.53655,0
          -96.9078,19.53636,0
          -96.90804,19.53624,0
          -96.90805,19.53615,0
          -96.90805,19.53612,0
          -96.90806,19.53595,0
          -96.90807,19.53568,0
          -96.90808,19.53542,0
          -96.90811,19.53506,0
          -96.90808,19.53493,0
          -96.90808,19.53485,0
          -96.90807,19.53475,0
          -96.90807,19.53473,0
          -96.90807,19.53469,0
          -96.90808,19.53457,0
          -96.90808,19.53455,0
          -96.90808,19.53437,0
          -96.90809,19.53431,0
          -96.90807,19.53412,0
          -96.90804,19.53402,0
          -96.908,19.53395,0
          -96.90797,19.5339,0
          -96.90789,19.53381,0
          -96.90782,19.53373,0
          -96.90766,19.5336,0
          -96.9074,19.53338,0
          -96.90735,19.53335,0
          -96.90731,19.53334,0
          -96.90729,19.53334,0
          -96.90723,19.5333,0
          -96.90718,19.53326,0
          -96.90708,19.53316,0
          -96.907,19.53309,0
          -96.90686,19.53298,0
          -96.9067,19.53287,0
          -96.9066,19.53282,0
          -96.90648,19.53275,0
          -96.90633,19.53267,0
          -96.90597,19.53247,0
          -96.90567,19.53231,0
          -96.90545,19.5322,0
          -96.90539,19.53217,0
          -96.90511,19.53202,0
          -96.90502,19.53198,0
          -96.90496,19.53194,0
          -96.9048,19.53187,0
          -96.90435,19.53162,0
          -96.90402,19.53144,0
          -96.90385,19.53135,0
          -96.90368,19.53126,0
          -96.90352,19.53117,0
          -96.90335,19.53108,0
          -96.90319,19.53099,0
          -96.90286,19.53082,0
          -96.90269,19.53073,0
          -96.90252,19.53063,0
          -96.90239,19.53055,0
          -96.90125,19.52996,0
          -96.90066,19.52963,0
          -96.9002,19.52936,0
          -96.89997,19.52923,0
          -96.89987,19.52918,0
          -96.89975,19.5291,0
          -96.89953,19.52894,0
          -96.89949,19.52887,0
          -96.89943,19.52881,0
          -96.89939,19.52876,0
          -96.89938,19.52876,0
          -96.89932,19.5287,0
          -96.89925,19.52863,0
          -96.89913,19.52853,0
          -96.89909,19.52848,0
          -96.89901,19.5284,0
          -96.89896,19.52834,0
          -96.89891,19.52827,0
          -96.89867,19.52795,0
          -96.89852,19.52769,0
          -96.89828,19.52722,0
          -96.8982,19.52706,0
          -96.89816,19.52696,0
          -96.89814,19.52688,0
          -96.89813,19.52679,0
          -96.89812,19.52668,0
          -96.89812,19.52658,0
          -96.89814,19.52647,0
          -96.89816,19.52637,0
          -96.89817,19.52635,0
          -96.89818,19.52633,0
          -96.89818,19.52631,0
          -96.89819,19.52629,0
          -96.8982,19.52627,0
          -96.89822,19.52622,0
          -96.89831,19.52613,0
          -96.89838,19.52603,0
          -96.89842,19.52599,0
          -96.8985,19.52592,0
          -96.89856,19.52587,0
          -96.89861,19.52584,0
          -96.89863,19.52583,0
          -96.8987,19.52578,0
          -96.89884,19.52572,0
          -96.89898,19.52566,0
          -96.89899,19.52566,0
          -96.89921,19.52558,0
          -96.89936,19.52555,0
          -96.89961,19.52552,0
          -96.89966,19.52551,0
          -96.89969,19.5255,0
          -96.89978,19.5255,0
          -96.89984,19.52549,0
          -96.90068,19.52539,0
          -96.90152,19.52529,0
          -96.90189,19.52525,0
          -96.90203,19.52524,0
          -96.90206,19.52524,0
          -96.9021,19.52524,0
          -96.90215,19.52524,0
          -96.90222,19.52525,0
          -96.90247,19.52527,0
          -96.90267,19.52528,0
          -96.90286,19.5253,0
          -96.90297,19.52531,0
          -96.90315,19.52532,0
          -96.90334,19.52533,0
          -96.90359,19.52535,0
          -96.90371,19.52536,0
          -96.90382,19.52538,0
          -96.90475,19.52546,0
          -96.90509,19.52549,0
          -96.90551,19.52552,0
          -96.90581,19.52556,0
          -96.90596,19.52558,0
          -96.90606,19.52559,0
          -96.90647,19.52565,0
          -96.90654,19.52565,0
          -96.90659,19.52565,0
          -96.90664,19.52565,0
          -96.9067,19.52566,0
          -96.90673,19.52558,0
          -96.90676,19.52534,0
          -96.90676,19.52533,0
          -96.90678,19.52515,0
          -96.90678,19.52506,0
          -96.90681,19.52495,0
          -96.90683,19.52484,0
          -96.90687,19.52475,0
          -96.90693,19.52464,0
          -96.90694,19.52462,0
          -96.90696,19.52457,0
          -96.90697,19.52454,0
          -96.90697,19.52447,0
          -96.90703,19.52439,0
          -96.90723,19.52413,0
          -96.90732,19.52404,0
          -96.90738,19.52398,0
          -96.90755,19.52383,0
          -96.90759,19.5238,0
          -96.90768,19.52373,0
          -96.90782,19.52364,0
          -96.90797,19.52356,0
          -96.90815,19.52345,0
          -96.90823,19.52341,0
          -96.90844,19.52329,0
          -96.9085,19.52326,0
          -96.90866,19.52317,0
          -96.90883,19.52309,0
          -96.90891,19.52305,0
          -96.90935,19.52287,0
          -96.91,19.52259,0
          -96.91005,19.52257,0
          -96.91007,19.52257,0
          -96.91012,19.52254,0
          -96.91018,19.52252,0
          -96.91021,19.5225,0
          -96.91022,19.5225,0
          -96.91033,19.52245,0
          -96.91057,19.52232,0
          -96.91078,19.52218,0
          -96.9109,19.52211,0
          -96.91099,19.52205,0
          -96.91111,19.52198,0
          -96.91128,19.52189,0
          -96.91144,19.52181,0
          -96.91163,19.52172,0
          -96.91166,19.52171,0
          -96.91186,19.52162,0
          -96.912,19.52156,0
          -96.91247,19.52132,0
          -96.91323,19.52095,0
          -96.91324,19.52094,0
          -96.91334,19.52087,0
          -96.91338,19.52085,0
          -96.91373,19.52066,0
          -96.91391,19.52053,0
          -96.91413,19.52038,0
          -96.91429,19.52025,0
          -96.91445,19.52012,0
          -96.91462,19.51994,0
          -96.91472,19.51983,0
          -96.91474,19.51981,0
          -96.9149,19.5196,0
          -96.91502,19.51941,0
          -96.91508,19.51931,0
          -96.9151,19.51929,0
          -96.91513,19.51924,0
          -96.91562,19.51849,0
          -96.91568,19.51839,0
          -96.9157,19.51836,0
          -96.91581,19.51819,0
          -96.91601,19.51787,0
          -96.91607,19.51777,0
          -96.91623,19.51753,0
          -96.91633,19.51738,0
          -96.91641,19.51727,0
          -96.91658,19.51705,0
          -96.91668,19.51694,0
          -96.91677,19.51686,0
          -96.91684,19.51677,0
          -96.91694,19.51669,0
          -96.917,19.51665,0
          -96.91717,19.51656,0
          -96.91726,19.51652,0
          -96.91731,19.51647,0
          -96.91735,19.51642,0
          -96.91738,19.51638,0
          -96.9174,19.51631,0
          -96.91742,19.51625,0
          -96.91745,19.51611,0
          -96.91744,19.51603,0
          -96.91749,19.51591,0
          -96.91749,19.5159,0
          -96.91752,19.51579,0
          -96.91756,19.51569,0
          -96.91783,19.51517,0
          -96.9181,19.51483,0
          -96.91814,19.51477,0
          -96.91833,19.51443,0
          -96.91843,19.51428,0
          -96.91859,19.51408,0
          -96.91874,19.51391,0
          -96.9189,19.51375,0
          -96.91908,19.51359,0
          -96.91929,19.51343,0
          -96.91939,19.51337,0
          -96.9195,19.5133,0
          -96.91963,19.51324,0
          -96.9198,19.51317,0
          -96.92013,19.51306,0
          -96.92051,19.51293,0
          -96.92135,19.51265,0
          -96.92144,19.51262,0
          -96.92158,19.51257,0
          -96.92174,19.51253,0
          -96.92187,19.51249,0
          -96.92347,19.51199,0
          -96.92467,19.51162,0
          -96.92516,19.51146,0
          -96.92524,19.51143,0
          -96.92536,19.51138,0
          -96.92558,19.51128,0
          -96.92579,19.51114,0
          -96.92596,19.51099,0
          -96.92609,19.51085,0
          -96.92612,19.51082,0
          -96.92654,19.51031,0
          -96.92671,19.51012,0
          -96.92686,19.50999,0
          -96.92696,19.50989,0
          -96.92725,19.50962,0
          -96.92763,19.50928,0
          -96.9278,19.50915,0
          -96.92791,19.5091,0
          -96.92805,19.50905,0
          -96.92809,19.50904,0
          -96.92827,19.50901,0
          -96.92844,19.50901,0
          -96.92871,19.50906,0
          -96.92901,19.50926,0
          -96.92918,19.50934,0
          -96.92921,19.50936,0
          -96.92929,19.50939,0
          -96.92936,19.50941,0
          -96.92942,19.50941,0
          -96.92948,19.50941,0
          -96.9295,19.5094,0
        </coordinates>
      </LineString>
    </Placemark>
    <Placemark>
      <name>Calle Principal 32, El Calvario, El Castillo, 91166 El Castillo, Ver., México</name>
      <styleUrl>#icon-1899-DB4436-nodesc</styleUrl>
      <Point>
        <coordinates>
          -96.8633929,19.5484105,0
        </coordinates>
      </Point>
    </Placemark>
    <Placemark>
      <name>C. Ninguno 1786, Buena Vista II, 91084 Xalapa-Enríquez, Ver., México</name>
      <styleUrl>#icon-1899-DB4436-nodesc</styleUrl>
      <Point>
        <coordinates>
          -96.9295029,19.5094014,0
        </coordinates>
      </Point>
    </Placemark>
  </Document>
</kml>
