<?xml version="1.0" encoding="UTF-8"?>
<kml xmlns="http://www.opengis.net/kml/2.2">
  <Document>
    <name>Indicaciones de C. Ninguno 1786, Buena Vista II, 91084 Xalapa-Enríquez, Ver., México a C. Mendez Espinoza 2, La Palma, El Castillo, 91166 El Castillo, Ver., México</name>
    <Style id="icon-1899-DB4436-nodesc-normal">
      <IconStyle>
        <color>ff3644db</color>
        <scale>1</scale>
        <Icon>
          <href>https://www.gstatic.com/mapspro/images/stock/503-wht-blank_maps.png</href>
        </Icon>
        <hotSpot x="32" xunits="pixels" y="64" yunits="insetPixels"/>
      </IconStyle>
      <LabelStyle>
        <scale>0</scale>
      </LabelStyle>
      <BalloonStyle>
        <text><![CDATA[<h3>$[name]</h3>]]></text>
      </BalloonStyle>
    </Style>
    <Style id="icon-1899-DB4436-nodesc-highlight">
      <IconStyle>
        <color>ff3644db</color>
        <scale>1</scale>
        <Icon>
          <href>https://www.gstatic.com/mapspro/images/stock/503-wht-blank_maps.png</href>
        </Icon>
        <hotSpot x="32" xunits="pixels" y="64" yunits="insetPixels"/>
      </IconStyle>
      <LabelStyle>
        <scale>1</scale>
      </LabelStyle>
      <BalloonStyle>
        <text><![CDATA[<h3>$[name]</h3>]]></text>
      </BalloonStyle>
    </Style>
    <StyleMap id="icon-1899-DB4436-nodesc">
      <Pair>
        <key>normal</key>
        <styleUrl>#icon-1899-DB4436-nodesc-normal</styleUrl>
      </Pair>
      <Pair>
        <key>highlight</key>
        <styleUrl>#icon-1899-DB4436-nodesc-highlight</styleUrl>
      </Pair>
    </StyleMap>
    <Style id="line-1267FF-5000-nodesc-normal">
      <LineStyle>
        <color>ffff6712</color>
        <width>5</width>
      </LineStyle>
      <BalloonStyle>
        <text><![CDATA[<h3>$[name]</h3>]]></text>
      </BalloonStyle>
    </Style>
    <Style id="line-1267FF-5000-nodesc-highlight">
      <LineStyle>
        <color>ffff6712</color>
        <width>7.5</width>
      </LineStyle>
      <BalloonStyle>
        <text><![CDATA[<h3>$[name]</h3>]]></text>
      </BalloonStyle>
    </Style>
    <StyleMap id="line-1267FF-5000-nodesc">
      <Pair>
        <key>normal</key>
        <styleUrl>#line-1267FF-5000-nodesc-normal</styleUrl>
      </Pair>
      <Pair>
        <key>highlight</key>
        <styleUrl>#line-1267FF-5000-nodesc-highlight</styleUrl>
      </Pair>
    </StyleMap>
    <Placemark>
      <name>Indicaciones de C. Ninguno 1786, Buena Vista II, 91084 Xalapa-Enríquez, Ver., México a C. Mendez Espinoza 2, La Palma, El Castillo, 91166 El Castillo, Ver., México</name>
      <styleUrl>#line-1267FF-5000-nodesc</styleUrl>
      <LineString>
        <tessellate>1</tessellate>
        <coordinates>
          -96.92944,19.50941,0
          -96.92948,19.50941,0
          -96.92955,19.50939,0
          -96.92961,19.50936,0
          -96.92971,19.50932,0
          -96.92981,19.50925,0
          -96.92987,19.50919,0
          -96.92993,19.50914,0
          -96.93005,19.50903,0
          -96.93012,19.5089,0
          -96.93015,19.50885,0
          -96.93017,19.50881,0
          -96.93017,19.50878,0
          -96.93018,19.50875,0
          -96.93018,19.50871,0
          -96.93018,19.50868,0
          -96.93018,19.50864,0
          -96.93017,19.5086,0
          -96.93016,19.50855,0
          -96.93013,19.5085,0
          -96.93011,19.50846,0
          -96.93008,19.50842,0
          -96.93005,19.50839,0
          -96.92999,19.50835,0
          -96.92992,19.50832,0
          -96.92987,19.5083,0
          -96.9298,19.50827,0
          -96.92963,19.50826,0
          -96.92927,19.50827,0
          -96.92911,19.50827,0
          -96.92901,19.50828,0
          -96.92893,19.50829,0
          -96.92884,19.50831,0
          -96.92871,19.50835,0
          -96.92856,19.50842,0
          -96.92836,19.50852,0
          -96.92834,19.50854,0
          -96.92821,19.50863,0
          -96.928,19.50881,0
          -96.92742,19.5093,0
          -96.92706,19.50962,0
          -96.92692,19.50974,0
          -96.92688,19.50978,0
          -96.92678,19.50987,0
          -96.92665,19.51,0
          -96.92657,19.51009,0
          -96.92648,19.5102,0
          -96.92617,19.51055,0
          -96.92593,19.51082,0
          -96.92578,19.51097,0
          -96.9256,19.51111,0
          -96.92554,19.51114,0
          -96.92546,19.5112,0
          -96.92528,19.51129,0
          -96.92512,19.51135,0
          -96.92494,19.5114,0
          -96.92439,19.51158,0
          -96.92397,19.51171,0
          -96.92327,19.51193,0
          -96.92229,19.51224,0
          -96.92182,19.51239,0
          -96.92167,19.51244,0
          -96.92088,19.51267,0
          -96.92034,19.51284,0
          -96.92019,19.51289,0
          -96.92016,19.5129,0
          -96.91985,19.51301,0
          -96.91966,19.51309,0
          -96.9195,19.51316,0
          -96.91933,19.51325,0
          -96.91925,19.5133,0
          -96.91923,19.51331,0
          -96.91905,19.51343,0
          -96.91894,19.51351,0
          -96.9188,19.51363,0
          -96.91865,19.51379,0
          -96.91849,19.514,0
          -96.91823,19.51437,0
          -96.91805,19.51472,0
          -96.918,19.51478,0
          -96.91789,19.51492,0
          -96.91762,19.51535,0
          -96.9173,19.51584,0
          -96.91724,19.51596,0
          -96.91701,19.51632,0
          -96.91696,19.51639,0
          -96.9167,19.51673,0
          -96.91664,19.51683,0
          -96.91661,19.51687,0
          -96.91657,19.51691,0
          -96.91649,19.51703,0
          -96.91641,19.51712,0
          -96.91634,19.51723,0
          -96.91621,19.51741,0
          -96.91602,19.51773,0
          -96.91596,19.51783,0
          -96.91581,19.51806,0
          -96.91561,19.51839,0
          -96.91542,19.51869,0
          -96.91535,19.51879,0
          -96.91532,19.51885,0
          -96.91524,19.51897,0
          -96.91509,19.51922,0
          -96.91506,19.51927,0
          -96.91504,19.5193,0
          -96.91493,19.51947,0
          -96.91487,19.51956,0
          -96.91476,19.51971,0
          -96.91469,19.51979,0
          -96.91457,19.51992,0
          -96.91439,19.52008,0
          -96.9138,19.52053,0
          -96.91376,19.52056,0
          -96.9135,19.52073,0
          -96.91329,19.52085,0
          -96.91316,19.52091,0
          -96.91209,19.52141,0
          -96.91193,19.52152,0
          -96.91181,19.52158,0
          -96.91163,19.52166,0
          -96.91159,19.52168,0
          -96.91126,19.52183,0
          -96.9112,19.52186,0
          -96.91114,19.5219,0
          -96.91103,19.52195,0
          -96.91092,19.52203,0
          -96.91087,19.52206,0
          -96.91085,19.52208,0
          -96.91074,19.52215,0
          -96.91055,19.52227,0
          -96.91053,19.52228,0
          -96.9105,19.5223,0
          -96.91043,19.52233,0
          -96.91039,19.52235,0
          -96.91038,19.52236,0
          -96.91018,19.52245,0
          -96.91017,19.52246,0
          -96.91015,19.52247,0
          -96.9101,19.52249,0
          -96.91003,19.52252,0
          -96.90967,19.52266,0
          -96.90933,19.5228,0
          -96.90846,19.52318,0
          -96.90833,19.52324,0
          -96.90814,19.52331,0
          -96.90785,19.52346,0
          -96.90767,19.52357,0
          -96.9075,19.52368,0
          -96.90732,19.52382,0
          -96.90719,19.52397,0
          -96.9071,19.52407,0
          -96.90696,19.52426,0
          -96.90692,19.52429,0
          -96.90688,19.52434,0
          -96.90682,19.5244,0
          -96.90676,19.52449,0
          -96.90673,19.52455,0
          -96.90673,19.52456,0
          -96.90668,19.52466,0
          -96.90664,19.52478,0
          -96.90662,19.52484,0
          -96.9066,19.52491,0
          -96.90657,19.52502,0
          -96.90656,19.52519,0
          -96.90655,19.52519,0
          -96.90655,19.52531,0
          -96.90653,19.52543,0
          -96.9065,19.52554,0
          -96.90612,19.5255,0
          -96.90599,19.52548,0
          -96.90586,19.52547,0
          -96.90513,19.52539,0
          -96.9051,19.52538,0
          -96.90479,19.52537,0
          -96.90441,19.52535,0
          -96.90383,19.52529,0
          -96.9036,19.52527,0
          -96.90285,19.52521,0
          -96.90266,19.5252,0
          -96.90265,19.5252,0
          -96.90233,19.52517,0
          -96.90209,19.52516,0
          -96.9019,19.52517,0
          -96.90185,19.52517,0
          -96.9014,19.52522,0
          -96.90106,19.52526,0
          -96.9007,19.52529,0
          -96.89969,19.52542,0
          -96.89961,19.52544,0
          -96.89944,19.52544,0
          -96.89929,19.52546,0
          -96.89913,19.5255,0
          -96.89907,19.52552,0
          -96.8989,19.52558,0
          -96.89884,19.5256,0
          -96.8986,19.52571,0
          -96.89858,19.52571,0
          -96.89842,19.52577,0
          -96.89825,19.5258,0
          -96.89813,19.52581,0
          -96.89799,19.52581,0
          -96.89797,19.52581,0
          -96.89795,19.5258,0
          -96.89793,19.5258,0
          -96.89791,19.52579,0
          -96.89789,19.52579,0
          -96.89787,19.52578,0
          -96.89785,19.52578,0
          -96.89783,19.52578,0
          -96.89776,19.52579,0
          -96.8977,19.52581,0
          -96.89765,19.52584,0
          -96.89759,19.52588,0
          -96.89756,19.52591,0
          -96.89754,19.52593,0
          -96.89752,19.52598,0
          -96.89751,19.52599,0
          -96.89748,19.52606,0
          -96.89746,19.52613,0
          -96.89746,19.52615,0
          -96.89746,19.52617,0
          -96.89746,19.52619,0
          -96.89747,19.5262,0
          -96.89747,19.52624,0
          -96.89748,19.52626,0
          -96.89748,19.52628,0
          -96.89749,19.5263,0
          -96.8975,19.52632,0
          -96.89751,19.52634,0
          -96.89752,19.52635,0
          -96.89753,19.52638,0
          -96.89753,19.5264,0
          -96.89754,19.52643,0
          -96.89756,19.52645,0
          -96.89757,19.52647,0
          -96.89758,19.52649,0
          -96.89759,19.52651,0
          -96.8976,19.52652,0
          -96.89769,19.5267,0
          -96.89777,19.52687,0
          -96.89795,19.52722,0
          -96.89805,19.52744,0
          -96.89808,19.5275,0
          -96.89823,19.52778,0
          -96.89835,19.52798,0
          -96.89844,19.52814,0
          -96.89847,19.52818,0
          -96.89863,19.52844,0
          -96.89886,19.52866,0
          -96.8991,19.52885,0
          -96.89934,19.52901,0
          -96.89954,19.52915,0
          -96.8997,19.52926,0
          -96.89989,19.52936,0
          -96.90014,19.52951,0
          -96.90033,19.52961,0
          -96.90099,19.52997,0
          -96.90116,19.53006,0
          -96.90148,19.53022,0
          -96.90269,19.53087,0
          -96.90281,19.53093,0
          -96.90298,19.53101,0
          -96.90474,19.53194,0
          -96.90494,19.53204,0
          -96.90502,19.53208,0
          -96.90506,19.5321,0
          -96.90508,19.53216,0
          -96.90509,19.53217,0
          -96.9051,19.53219,0
          -96.90512,19.5322,0
          -96.90516,19.53222,0
          -96.90518,19.53223,0
          -96.90554,19.53243,0
          -96.90638,19.53287,0
          -96.90656,19.53298,0
          -96.90668,19.53305,0
          -96.90676,19.53311,0
          -96.90687,19.5332,0
          -96.90698,19.53329,0
          -96.90706,19.53338,0
          -96.90716,19.53348,0
          -96.90723,19.53355,0
          -96.9073,19.53364,0
          -96.90736,19.53372,0
          -96.90742,19.5338,0
          -96.90756,19.53408,0
          -96.9076,19.53417,0
          -96.90769,19.53438,0
          -96.90773,19.53451,0
          -96.90777,19.53465,0
          -96.9078,19.53477,0
          -96.90782,19.53494,0
          -96.90783,19.5351,0
          -96.90782,19.53569,0
          -96.9078,19.53627,0
          -96.90742,19.53658,0
          -96.90693,19.53701,0
          -96.9068,19.53714,0
          -96.90667,19.53727,0
          -96.90646,19.53748,0
          -96.90578,19.53812,0
          -96.90571,19.5382,0
          -96.90564,19.53825,0
          -96.90556,19.5383,0
          -96.90556,19.53831,0
          -96.9055,19.53835,0
          -96.90522,19.53852,0
          -96.90502,19.53866,0
          -96.90494,19.53871,0
          -96.90434,19.53919,0
          -96.90412,19.53937,0
          -96.90394,19.53954,0
          -96.9039,19.53957,0
          -96.90386,19.5396,0
          -96.9038,19.53961,0
          -96.90373,19.53962,0
          -96.90368,19.53962,0
          -96.90338,19.53958,0
          -96.9032,19.53956,0
          -96.90305,19.53956,0
          -96.90293,19.53957,0
          -96.90283,19.53958,0
          -96.90265,19.53965,0
          -96.90187,19.53993,0
          -96.90175,19.53997,0
          -96.90131,19.54009,0
          -96.90107,19.54015,0
          -96.90066,19.5402,0
          -96.90067,19.54028,0
          -96.90079,19.54074,0
          -96.90083,19.54092,0
          -96.90087,19.54108,0
          -96.90087,19.54109,0
          -96.9009,19.54122,0
          -96.90095,19.54138,0
          -96.90098,19.54151,0
          -96.90099,19.54161,0
          -96.90099,19.54169,0
          -96.90098,19.54177,0
          -96.90095,19.54185,0
          -96.90092,19.54197,0
          -96.90091,19.54207,0
          -96.90092,19.54215,0
          -96.90095,19.54225,0
          -96.90096,19.54238,0
          -96.90096,19.54245,0
          -96.90096,19.54255,0
          -96.90094,19.54271,0
          -96.9009,19.54293,0
          -96.9009,19.54304,0
          -96.9009,19.54307,0
          -96.90092,19.54312,0
          -96.90109,19.54345,0
          -96.9011,19.54355,0
          -96.9011,19.5436,0
          -96.90109,19.54365,0
          -96.90107,19.5437,0
          -96.90097,19.54378,0
          -96.90094,19.5438,0
          -96.9008,19.54387,0
          -96.90027,19.54411,0
          -96.90015,19.54416,0
          -96.90014,19.54417,0
          -96.90003,19.54428,0
          -96.90003,19.5443,0
          -96.90001,19.54433,0
          -96.90001,19.54435,0
          -96.89995,19.5446,0
          -96.89989,19.54483,0
          -96.89987,19.54501,0
          -96.89988,19.54518,0
          -96.89988,19.54536,0
          -96.8999,19.54572,0
          -96.89988,19.54586,0
          -96.89986,19.54603,0
          -96.89984,19.54611,0
          -96.89982,19.54617,0
          -96.89978,19.54624,0
          -96.89966,19.54639,0
          -96.89956,19.54654,0
          -96.8995,19.54667,0
          -96.89944,19.5468,0
          -96.89936,19.54701,0
          -96.89925,19.54723,0
          -96.89919,19.54736,0
          -96.89894,19.54787,0
          -96.89892,19.54789,0
          -96.89889,19.54796,0
          -96.89961,19.54826,0
          -96.89967,19.54829,0
          -96.89972,19.54831,0
          -96.89982,19.54835,0
          -96.89989,19.54839,0
          -96.89991,19.54842,0
          -96.89995,19.54846,0
          -96.89998,19.54852,0
          -96.90001,19.54858,0
          -96.90003,19.54862,0
          -96.90004,19.54859,0
          -96.90006,19.54856,0
          -96.90007,19.54854,0
          -96.90009,19.54851,0
          -96.90014,19.54845,0
          -96.90039,19.54838,0
          -96.90074,19.54834,0
          -96.90111,19.54831,0
          -96.90115,19.54831,0
          -96.90145,19.54831,0
          -96.90188,19.54833,0
          -96.9026,19.54837,0
          -96.90271,19.54838,0
          -96.90288,19.54839,0
          -96.90289,19.54839,0
          -96.90291,19.54839,0
          -96.90292,19.54839,0
          -96.90364,19.54844,0
          -96.90369,19.54844,0
          -96.9039,19.54844,0
          -96.90397,19.54844,0
          -96.90417,19.54845,0
          -96.90452,19.54848,0
          -96.90472,19.5485,0
          -96.90482,19.54852,0
          -96.90484,19.54885,0
          -96.90485,19.54903,0
          -96.9049,19.54934,0
          -96.90493,19.54943,0
          -96.905,19.54955,0
          -96.90545,19.5506,0
          -96.90566,19.55104,0
          -96.90599,19.55174,0
          -96.90521,19.55198,0
          -96.90517,19.55201,0
          -96.90511,19.55208,0
          -96.90506,19.55214,0
          -96.90502,19.55219,0
          -96.90491,19.55236,0
          -96.9049,19.55238,0
          -96.90489,19.55239,0
          -96.90482,19.55256,0
          -96.9048,19.55262,0
          -96.90476,19.55279,0
          -96.90472,19.55298,0
          -96.90471,19.55308,0
          -96.90469,19.55318,0
          -96.90462,19.55388,0
          -96.90463,19.55437,0
          -96.90465,19.55453,0
          -96.90468,19.55473,0
          -96.90474,19.55498,0
          -96.90505,19.55607,0
          -96.90511,19.55628,0
          -96.90513,19.55637,0
          -96.90516,19.55651,0
          -96.90518,19.55658,0
          -96.9052,19.55663,0
          -96.9052,19.55664,0
          -96.90525,19.55675,0
          -96.90528,19.5568,0
          -96.90532,19.55686,0
          -96.90557,19.5573,0
          -96.90569,19.55752,0
          -96.90569,19.5576,0
          -96.9057,19.55762,0
          -96.90571,19.55764,0
          -96.90574,19.55772,0
          -96.90502,19.55769,0
          -96.9047,19.55771,0
          -96.90465,19.55771,0
          -96.90434,19.55775,0
          -96.90396,19.55778,0
          -96.9038,19.55775,0
          -96.90349,19.55778,0
          -96.90303,19.55781,0
          -96.90208,19.55785,0
          -96.90205,19.55785,0
          -96.90197,19.55786,0
          -96.90157,19.55787,0
          -96.9014,19.55788,0
          -96.90128,19.55789,0
          -96.90092,19.55789,0
          -96.90081,19.55789,0
          -96.90052,19.55791,0
          -96.90015,19.55791,0
          -96.89979,19.55792,0
          -96.89951,19.55793,0
          -96.8991,19.55795,0
          -96.89866,19.55796,0
          -96.89828,19.55797,0
          -96.89827,19.55762,0
          -96.89823,19.55736,0
          -96.89817,19.55727,0
          -96.89769,19.55666,0
          -96.89761,19.55659,0
          -96.89752,19.55646,0
          -96.8974,19.5563,0
          -96.89732,19.55618,0
          -96.89715,19.55595,0
          -96.89701,19.55576,0
          -96.89701,19.55575,0
          -96.89701,19.55573,0
          -96.89702,19.55571,0
          -96.89703,19.55569,0
          -96.89704,19.55568,0
          -96.89709,19.55562,0
          -96.89714,19.55561,0
          -96.89721,19.55558,0
          -96.89724,19.55556,0
          -96.89725,19.55555,0
          -96.89726,19.55553,0
          -96.89727,19.55553,0
          -96.89728,19.5555,0
          -96.89738,19.55523,0
          -96.89749,19.55494,0
          -96.89781,19.55451,0
          -96.89823,19.55408,0
          -96.89838,19.55398,0
          -96.89843,19.55396,0
          -96.8985,19.55393,0
          -96.89865,19.55391,0
          -96.89868,19.55392,0
          -96.8987,19.55392,0
          -96.89883,19.55395,0
          -96.89891,19.55396,0
          -96.89904,19.554,0
          -96.89929,19.55407,0
          -96.89952,19.55339,0
          -96.89963,19.55304,0
          -96.89972,19.55262,0
          -96.89918,19.55251,0
          -96.89911,19.55249,0
          -96.8989,19.55243,0
          -96.89883,19.55241,0
          -96.89863,19.55236,0
          -96.89833,19.55227,0
          -96.89805,19.55219,0
          -96.89788,19.55214,0
          -96.89773,19.55207,0
          -96.89766,19.55204,0
          -96.89755,19.55195,0
          -96.89733,19.55169,0
          -96.89725,19.55161,0
          -96.89707,19.55141,0
          -96.89696,19.55127,0
          -96.89686,19.55115,0
          -96.89656,19.55082,0
          -96.8965,19.55085,0
          -96.89623,19.55099,0
          -96.89607,19.5511,0
          -96.89591,19.5512,0
          -96.89588,19.55121,0
          -96.89562,19.55134,0
          -96.8954,19.55145,0
          -96.89533,19.55149,0
          -96.89518,19.5516,0
          -96.89508,19.55167,0
          -96.89502,19.5517,0
          -96.89488,19.55179,0
          -96.89456,19.55193,0
          -96.89453,19.55196,0
          -96.89448,19.55202,0
          -96.89428,19.55227,0
          -96.89398,19.5526,0
          -96.89391,19.55266,0
          -96.89366,19.55242,0
          -96.89363,19.55239,0
          -96.89356,19.55231,0
          -96.89344,19.55217,0
          -96.89331,19.55204,0
          -96.89316,19.55189,0
          -96.8931,19.55183,0
          -96.89295,19.55168,0
          -96.89276,19.55147,0
          -96.8927,19.5514,0
          -96.89222,19.55182,0
          -96.89193,19.55206,0
          -96.8916,19.55236,0
          -96.89159,19.55238,0
          -96.89158,19.55239,0
          -96.89156,19.55246,0
          -96.89151,19.5525,0
          -96.89147,19.55254,0
          -96.89134,19.55244,0
          -96.89126,19.55236,0
          -96.89121,19.55231,0
          -96.89111,19.55224,0
          -96.89099,19.55217,0
          -96.8909,19.55206,0
          -96.89083,19.55201,0
          -96.89076,19.55195,0
          -96.89063,19.55187,0
          -96.89051,19.55175,0
          -96.89042,19.55168,0
          -96.89032,19.55161,0
          -96.89028,19.55157,0
          -96.88967,19.55129,0
          -96.88928,19.55113,0
          -96.88916,19.55101,0
          -96.88907,19.55089,0
          -96.88899,19.55074,0
          -96.88893,19.55062,0
          -96.88889,19.55052,0
          -96.88886,19.55043,0
          -96.88881,19.55037,0
          -96.88874,19.55031,0
          -96.88867,19.55027,0
          -96.88861,19.55024,0
          -96.88852,19.5502,0
          -96.88847,19.55019,0
          -96.88842,19.55017,0
          -96.88834,19.55014,0
          -96.88826,19.55009,0
          -96.88815,19.55,0
          -96.888,19.54989,0
          -96.88802,19.54982,0
          -96.88803,19.54979,0
          -96.88801,19.54975,0
          -96.88799,19.54971,0
          -96.88797,19.54967,0
          -96.8878,19.54949,0
          -96.88773,19.54941,0
          -96.88745,19.54907,0
          -96.88729,19.5489,0
          -96.88726,19.54887,0
          -96.88715,19.54875,0
          -96.88691,19.54853,0
          -96.88666,19.54834,0
          -96.88625,19.54794,0
          -96.88603,19.5477,0
          -96.88593,19.5476,0
          -96.88542,19.54807,0
          -96.88493,19.5485,0
          -96.88462,19.5488,0
          -96.88445,19.54895,0
          -96.8841,19.54922,0
          -96.88391,19.54937,0
          -96.88343,19.5498,0
          -96.88324,19.5497,0
          -96.88317,19.54966,0
          -96.883,19.54948,0
          -96.8829,19.54937,0
          -96.88284,19.54931,0
          -96.88278,19.54925,0
          -96.88236,19.54879,0
          -96.88216,19.54861,0
          -96.88204,19.54849,0
          -96.88181,19.54831,0
          -96.88179,19.54829,0
          -96.88173,19.54824,0
          -96.88164,19.54818,0
          -96.88144,19.54802,0
          -96.88135,19.54795,0
          -96.88117,19.54807,0
          -96.88057,19.54848,0
          -96.88004,19.5488,0
          -96.87995,19.54885,0
          -96.87981,19.54891,0
          -96.87967,19.54895,0
          -96.87948,19.54898,0
          -96.87899,19.54892,0
          -96.8789,19.54891,0
          -96.87883,19.54888,0
          -96.87876,19.54884,0
          -96.87856,19.54873,0
          -96.87814,19.54846,0
          -96.87813,19.54845,0
          -96.87735,19.54795,0
          -96.87625,19.54729,0
          -96.87492,19.54649,0
          -96.87414,19.54597,0
          -96.8734,19.54543,0
          -96.87334,19.54538,0
          -96.87269,19.54499,0
          -96.87258,19.54493,0
          -96.87251,19.54491,0
          -96.87236,19.54487,0
          -96.87226,19.54486,0
          -96.8722,19.54487,0
          -96.87214,19.54488,0
          -96.87208,19.5449,0
          -96.87201,19.54493,0
          -96.87192,19.54499,0
          -96.87184,19.54505,0
          -96.87173,19.54516,0
          -96.87145,19.54545,0
          -96.87138,19.54552,0
          -96.87132,19.54556,0
          -96.87124,19.54561,0
          -96.87117,19.54565,0
          -96.87112,19.54567,0
          -96.87105,19.54568,0
          -96.87099,19.54569,0
          -96.87093,19.5457,0
          -96.87086,19.54571,0
          -96.87081,19.54571,0
          -96.87068,19.5457,0
          -96.87045,19.5457,0
          -96.8701,19.54571,0
          -96.86995,19.54573,0
          -96.8699,19.54574,0
          -96.86977,19.54576,0
          -96.86969,19.54577,0
          -96.86966,19.54578,0
          -96.86957,19.5458,0
          -96.86929,19.54589,0
          -96.86916,19.54594,0
          -96.86893,19.54602,0
          -96.86886,19.54603,0
          -96.8688,19.54604,0
          -96.86874,19.54604,0
          -96.86869,19.54604,0
          -96.86863,19.54604,0
          -96.86857,19.54603,0
          -96.86851,19.54601,0
          -96.86842,19.54598,0
          -96.86733,19.54546,0
          -96.86719,19.5454,0
          -96.86708,19.54538,0
          -96.8669,19.54535,0
          -96.86685,19.54535,0
          -96.86666,19.54534,0
          -96.86665,19.54534,0
          -96.86639,19.54536,0
          -96.86566,19.54535,0
          -96.86552,19.54534,0
          -96.86531,19.54528,0
          -96.86527,19.54528,0
          -96.86518,19.54529,0
          -96.86509,19.54526,0
          -96.86495,19.54523,0
          -96.86473,19.54518,0
          -96.86459,19.54516,0
          -96.86449,19.54514,0
          -96.86433,19.54512,0
          -96.86428,19.54511,0
          -96.86426,19.54511,0
          -96.86417,19.54512,0
          -96.86409,19.54511,0
          -96.86393,19.54533,0
          -96.86381,19.54555,0
          -96.86356,19.546,0
          -96.86345,19.54616,0
          -96.86337,19.54625,0
          -96.86328,19.54632,0
          -96.86319,19.54636,0
          -96.86308,19.54638,0
          -96.86295,19.54639,0
          -96.86284,19.54639,0
          -96.86282,19.54651,0
          -96.8626,19.54652,0
          -96.86247,19.54661,0
          -96.86241,19.5467,0
          -96.86237,19.54676,0
          -96.86234,19.54682,0
          -96.86233,19.54686,0
          -96.86231,19.5469,0
          -96.86229,19.54696,0
          -96.86229,19.54703,0
          -96.86229,19.54708,0
          -96.86229,19.54711,0
          -96.86229,19.54716,0
          -96.8623,19.54722,0
          -96.86232,19.54726,0
          -96.86233,19.54728,0
          -96.86234,19.54732,0
          -96.86242,19.54742,0
          -96.86247,19.54748,0
          -96.86264,19.54765,0
          -96.86274,19.54776,0
          -96.86283,19.54784,0
          -96.8629,19.54791,0
          -96.86295,19.54797,0
          -96.86303,19.54808,0
          -96.86317,19.54828,0
          -96.86322,19.54833,0
          -96.86326,19.54836,0
          -96.8633,19.54838,0
          -96.86339,19.54841,0
        </coordinates>
      </LineString>
    </Placemark>
    <Placemark>
      <name>C. Ninguno 1786, Buena Vista II, 91084 Xalapa-Enríquez, Ver., México</name>
      <styleUrl>#icon-1899-DB4436-nodesc</styleUrl>
      <Point>
        <coordinates>
          -96.929435,19.5094111,0
        </coordinates>
      </Point>
    </Placemark>
    <Placemark>
      <name>C. Mendez Espinoza 2, La Palma, El Castillo, 91166 El Castillo, Ver., México</name>
      <styleUrl>#icon-1899-DB4436-nodesc</styleUrl>
      <Point>
        <coordinates>
          -96.8633929,19.5484105,0
        </coordinates>
      </Point>
    </Placemark>
  </Document>
</kml>
