<?xml version="1.0" encoding="UTF-8"?>
<kml xmlns="http://www.opengis.net/kml/2.2">
  <Document>
    <name>Indicaciones de G47X+RR, 91194 Valle Real, Ver., México a Av. Xalapa 533, U.H. del Bosque, 91017 Xalapa-Enríquez, Ver., México</name>
    <Style id="icon-1899-DB4436-nodesc-normal">
      <IconStyle>
        <color>ff3644db</color>
        <scale>1</scale>
        <Icon>
          <href>https://www.gstatic.com/mapspro/images/stock/503-wht-blank_maps.png</href>
        </Icon>
        <hotSpot x="32" xunits="pixels" y="64" yunits="insetPixels"/>
      </IconStyle>
      <LabelStyle>
        <scale>0</scale>
      </LabelStyle>
      <BalloonStyle>
        <text><![CDATA[<h3>$[name]</h3>]]></text>
      </BalloonStyle>
    </Style>
    <Style id="icon-1899-DB4436-nodesc-highlight">
      <IconStyle>
        <color>ff3644db</color>
        <scale>1</scale>
        <Icon>
          <href>https://www.gstatic.com/mapspro/images/stock/503-wht-blank_maps.png</href>
        </Icon>
        <hotSpot x="32" xunits="pixels" y="64" yunits="insetPixels"/>
      </IconStyle>
      <LabelStyle>
        <scale>1</scale>
      </LabelStyle>
      <BalloonStyle>
        <text><![CDATA[<h3>$[name]</h3>]]></text>
      </BalloonStyle>
    </Style>
    <StyleMap id="icon-1899-DB4436-nodesc">
      <Pair>
        <key>normal</key>
        <styleUrl>#icon-1899-DB4436-nodesc-normal</styleUrl>
      </Pair>
      <Pair>
        <key>highlight</key>
        <styleUrl>#icon-1899-DB4436-nodesc-highlight</styleUrl>
      </Pair>
    </StyleMap>
    <Style id="line-1267FF-5000-nodesc-normal">
      <LineStyle>
        <color>ffff6712</color>
        <width>5</width>
      </LineStyle>
      <BalloonStyle>
        <text><![CDATA[<h3>$[name]</h3>]]></text>
      </BalloonStyle>
    </Style>
    <Style id="line-1267FF-5000-nodesc-highlight">
      <LineStyle>
        <color>ffff6712</color>
        <width>7.5</width>
      </LineStyle>
      <BalloonStyle>
        <text><![CDATA[<h3>$[name]</h3>]]></text>
      </BalloonStyle>
    </Style>
    <StyleMap id="line-1267FF-5000-nodesc">
      <Pair>
        <key>normal</key>
        <styleUrl>#line-1267FF-5000-nodesc-normal</styleUrl>
      </Pair>
      <Pair>
        <key>highlight</key>
        <styleUrl>#line-1267FF-5000-nodesc-highlight</styleUrl>
      </Pair>
    </StyleMap>
    <Placemark>
      <name>Indicaciones de G47X+RR, 91194 Valle Real, Ver., México a Av. Xalapa 533, U.H. del Bosque, 91017 Xalapa-Enríquez, Ver., México</name>
      <styleUrl>#line-1267FF-5000-nodesc</styleUrl>
      <LineString>
        <tessellate>1</tessellate>
        <coordinates>
          -96.85047,19.51489,0
          -96.85028,19.51464,0
          -96.8502,19.51456,0
          -96.85016,19.51453,0
          -96.85003,19.51443,0
          -96.84973,19.51424,0
          -96.84973,19.51423,0
          -96.84972,19.51423,0
          -96.84972,19.51422,0
          -96.84972,19.51421,0
          -96.84971,19.51421,0
          -96.84971,19.5142,0
          -96.8497,19.5142,0
          -96.8497,19.51419,0
          -96.84969,19.51419,0
          -96.84968,19.51418,0
          -96.84967,19.51418,0
          -96.84966,19.51417,0
          -96.84965,19.51417,0
          -96.84964,19.51417,0
          -96.84963,19.51417,0
          -96.84953,19.51402,0
          -96.84944,19.51388,0
          -96.84937,19.51376,0
          -96.84932,19.51364,0
          -96.8493,19.51359,0
          -96.84929,19.51355,0
          -96.84927,19.51347,0
          -96.84924,19.51333,0
          -96.84924,19.51327,0
          -96.84923,19.51322,0
          -96.84924,19.51319,0
          -96.84924,19.51316,0
          -96.84926,19.5131,0
          -96.84927,19.51307,0
          -96.84931,19.51301,0
          -96.84935,19.51293,0
          -96.84935,19.51292,0
          -96.84939,19.51282,0
          -96.84942,19.51277,0
          -96.84945,19.51272,0
          -96.84949,19.51266,0
          -96.84953,19.51262,0
          -96.84963,19.51256,0
          -96.84965,19.51255,0
          -96.84967,19.51254,0
          -96.84971,19.51253,0
          -96.84978,19.51252,0
          -96.84983,19.51252,0
          -96.84984,19.51252,0
          -96.84989,19.51251,0
          -96.84994,19.51252,0
          -96.85,19.51253,0
          -96.85003,19.51254,0
          -96.85005,19.51254,0
          -96.85014,19.51258,0
          -96.8502,19.51262,0
          -96.85023,19.51264,0
          -96.8503,19.51268,0
          -96.8504,19.51272,0
          -96.85048,19.51274,0
          -96.8506,19.51277,0
          -96.85068,19.51278,0
          -96.85069,19.51278,0
          -96.85079,19.51276,0
          -96.85149,19.51279,0
          -96.8521,19.51281,0
          -96.85225,19.51282,0
          -96.85228,19.51282,0
          -96.8524,19.51285,0
          -96.85262,19.5129,0
          -96.85331,19.5131,0
          -96.85433,19.51339,0
          -96.85448,19.51343,0
          -96.85458,19.51346,0
          -96.85531,19.51367,0
          -96.85608,19.5139,0
          -96.85658,19.51401,0
          -96.85666,19.514,0
          -96.85674,19.51396,0
          -96.85693,19.51382,0
          -96.85702,19.51376,0
          -96.85714,19.51386,0
          -96.85723,19.51396,0
          -96.85753,19.51373,0
          -96.85768,19.51362,0
          -96.85769,19.51361,0
          -96.85827,19.51325,0
          -96.85831,19.51328,0
          -96.85835,19.51331,0
          -96.85839,19.51333,0
          -96.85845,19.51335,0
          -96.85851,19.51335,0
          -96.85855,19.51334,0
          -96.85865,19.51332,0
          -96.8587,19.51329,0
          -96.85873,19.51326,0
          -96.85875,19.51325,0
          -96.85878,19.51321,0
          -96.85882,19.51317,0
          -96.85884,19.51311,0
          -96.85885,19.51308,0
          -96.85886,19.51303,0
          -96.85886,19.51297,0
          -96.85886,19.51294,0
          -96.85885,19.51291,0
          -96.85883,19.51285,0
          -96.85879,19.51278,0
          -96.85868,19.51262,0
          -96.85842,19.51221,0
          -96.85765,19.51095,0
          -96.85765,19.51092,0
          -96.85764,19.51085,0
          -96.85767,19.51069,0
          -96.85775,19.51054,0
          -96.85782,19.51048,0
          -96.85789,19.51043,0
          -96.85799,19.51039,0
          -96.8582,19.51025,0
          -96.85826,19.51019,0
          -96.85831,19.5101,0
          -96.85833,19.51005,0
          -96.85852,19.50942,0
          -96.85854,19.50935,0
          -96.85857,19.50926,0
          -96.85871,19.50881,0
          -96.85882,19.50842,0
          -96.85888,19.50831,0
          -96.85892,19.50826,0
          -96.85897,19.5082,0
          -96.85898,19.50819,0
          -96.85929,19.50805,0
          -96.85996,19.5079,0
          -96.8605,19.50778,0
          -96.8613,19.5076,0
          -96.86223,19.50744,0
          -96.86298,19.50729,0
          -96.8633,19.50727,0
          -96.86346,19.50727,0
          -96.86364,19.50728,0
          -96.86383,19.50731,0
          -96.86394,19.50733,0
          -96.86411,19.50736,0
          -96.86438,19.50743,0
          -96.86462,19.50749,0
          -96.86489,19.50755,0
          -96.86543,19.50769,0
          -96.86597,19.50783,0
          -96.86615,19.50786,0
          -96.86658,19.50797,0
          -96.86666,19.50799,0
          -96.86683,19.50804,0
          -96.86685,19.50804,0
          -96.86721,19.50814,0
          -96.8674,19.50819,0
          -96.8676,19.50825,0
          -96.86776,19.5083,0
          -96.86795,19.50835,0
          -96.86826,19.50844,0
          -96.86831,19.50845,0
          -96.86849,19.50851,0
          -96.86882,19.5086,0
          -96.86886,19.50861,0
          -96.86904,19.50868,0
          -96.86907,19.50868,0
          -96.86948,19.50885,0
          -96.86969,19.50895,0
          -96.86975,19.50898,0
          -96.86986,19.50905,0
          -96.87016,19.50922,0
          -96.87033,19.50934,0
          -96.87053,19.50945,0
          -96.87107,19.50976,0
          -96.87152,19.51,0
          -96.87154,19.51005,0
          -96.87155,19.51007,0
          -96.87155,19.51008,0
          -96.87156,19.5101,0
          -96.87159,19.51013,0
          -96.87173,19.51022,0
          -96.87175,19.51024,0
          -96.87178,19.51026,0
          -96.87181,19.51027,0
          -96.87184,19.51031,0
          -96.87187,19.51036,0
          -96.87191,19.51047,0
          -96.87192,19.51058,0
          -96.8719,19.51064,0
          -96.87188,19.51069,0
          -96.87185,19.51072,0
          -96.87182,19.51075,0
          -96.87172,19.51082,0
          -96.87164,19.51085,0
          -96.87158,19.51086,0
          -96.87155,19.51085,0
          -96.87151,19.51084,0
          -96.8714,19.51081,0
          -96.87137,19.51079,0
          -96.87133,19.51077,0
          -96.8713,19.51074,0
          -96.87128,19.51071,0
          -96.87127,19.51067,0
          -96.87126,19.51065,0
          -96.87125,19.51061,0
          -96.87123,19.51051,0
          -96.87124,19.51043,0
          -96.87125,19.51039,0
          -96.87128,19.51035,0
          -96.87135,19.51024,0
          -96.87136,19.51021,0
          -96.87136,19.51019,0
          -96.87136,19.51017,0
          -96.87136,19.51016,0
          -96.87135,19.51014,0
          -96.8714,19.51007,0
          -96.87142,19.51003,0
          -96.87146,19.50996,0
          -96.8715,19.5099,0
          -96.87153,19.50984,0
          -96.87155,19.50982,0
          -96.87172,19.50953,0
          -96.87176,19.50947,0
          -96.8719,19.50931,0
          -96.87196,19.50926,0
          -96.87202,19.50921,0
          -96.8721,19.50916,0
          -96.8722,19.50911,0
          -96.87248,19.509,0
          -96.87249,19.50899,0
          -96.87267,19.50893,0
          -96.87312,19.50881,0
          -96.87329,19.50877,0
          -96.87353,19.50872,0
          -96.87382,19.50865,0
          -96.87408,19.50858,0
          -96.87453,19.50846,0
          -96.87516,19.50831,0
          -96.87523,19.50828,0
          -96.87526,19.50827,0
          -96.8753,19.50826,0
          -96.87535,19.50824,0
          -96.87552,19.50817,0
          -96.87572,19.50803,0
          -96.87584,19.50792,0
          -96.87588,19.50788,0
          -96.87611,19.50762,0
          -96.87615,19.50758,0
          -96.87625,19.50748,0
          -96.87644,19.50727,0
          -96.87683,19.50686,0
          -96.87697,19.50672,0
          -96.87703,19.50667,0
          -96.87716,19.5066,0
          -96.87737,19.50648,0
          -96.87756,19.5064,0
          -96.87762,19.50638,0
          -96.87774,19.50635,0
          -96.87777,19.50634,0
          -96.87799,19.50629,0
          -96.87811,19.50626,0
          -96.87821,19.50626,0
          -96.87828,19.50626,0
          -96.87834,19.50627,0
          -96.87841,19.50628,0
          -96.8785,19.50632,0
          -96.87858,19.50637,0
          -96.87867,19.50641,0
          -96.87878,19.5065,0
          -96.87916,19.50685,0
          -96.87947,19.50712,0
          -96.87948,19.50714,0
          -96.87975,19.50736,0
          -96.87985,19.50742,0
          -96.87998,19.50751,0
          -96.87999,19.50751,0
          -96.88013,19.50758,0
          -96.88021,19.50761,0
          -96.88032,19.50763,0
          -96.88052,19.50765,0
          -96.88056,19.50765,0
          -96.88067,19.50766,0
          -96.88073,19.50765,0
          -96.88088,19.50763,0
          -96.88097,19.50761,0
          -96.8811,19.50759,0
          -96.8813,19.50756,0
          -96.88161,19.50751,0
          -96.88167,19.5075,0
          -96.88172,19.50749,0
          -96.88189,19.50746,0
          -96.88208,19.50743,0
          -96.88232,19.50739,0
          -96.88235,19.50738,0
          -96.88269,19.50732,0
          -96.88283,19.5073,0
          -96.88288,19.50729,0
          -96.88302,19.50727,0
          -96.88307,19.50726,0
          -96.88395,19.50709,0
          -96.884,19.50709,0
          -96.884,19.50708,0
          -96.88569,19.50677,0
          -96.88651,19.50662,0
          -96.88676,19.50658,0
          -96.88696,19.50655,0
          -96.88707,19.50654,0
          -96.88715,19.50651,0
          -96.88734,19.50648,0
          -96.88856,19.50624,0
          -96.88938,19.50609,0
          -96.88944,19.50608,0
          -96.8896,19.50606,0
          -96.89039,19.50592,0
          -96.89064,19.50588,0
          -96.89077,19.50586,0
          -96.89098,19.50583,0
          -96.89124,19.50579,0
          -96.89157,19.5057,0
          -96.89262,19.50549,0
          -96.89294,19.50542,0
          -96.89329,19.50536,0
          -96.89339,19.50535,0
          -96.8938,19.50531,0
          -96.89404,19.5053,0
          -96.89405,19.5053,0
          -96.89421,19.5053,0
          -96.89423,19.5053,0
          -96.89442,19.50531,0
          -96.89468,19.50532,0
          -96.89481,19.50534,0
          -96.89496,19.50536,0
          -96.895,19.50536,0
          -96.89517,19.50539,0
          -96.89518,19.5054,0
          -96.8956,19.5055,0
          -96.89663,19.50586,0
          -96.89715,19.50607,0
          -96.89767,19.50626,0
          -96.89826,19.50646,0
          -96.89857,19.50658,0
          -96.89868,19.50663,0
          -96.89886,19.50674,0
          -96.89901,19.50685,0
          -96.89909,19.50692,0
          -96.89917,19.50699,0
          -96.89949,19.50741,0
          -96.89985,19.50791,0
          -96.90012,19.50808,0
          -96.90064,19.50825,0
          -96.90145,19.50865,0
          -96.90156,19.5087,0
          -96.9017,19.50877,0
          -96.90182,19.50882,0
          -96.9019,19.50885,0
          -96.90199,19.50887,0
          -96.90224,19.50892,0
          -96.90234,19.50895,0
          -96.90243,19.50899,0
          -96.90253,19.50905,0
          -96.90266,19.50917,0
          -96.90268,19.50919,0
          -96.90282,19.50931,0
          -96.9031,19.50956,0
          -96.90359,19.51006,0
          -96.90411,19.51058,0
          -96.90446,19.51093,0
          -96.9046,19.51106,0
          -96.90495,19.51142,0
          -96.90497,19.51144,0
          -96.90509,19.51157,0
          -96.90549,19.51192,0
          -96.90585,19.51219,0
          -96.90612,19.51238,0
          -96.90631,19.5125,0
          -96.90631,19.51251,0
          -96.90707,19.51295,0
          -96.90719,19.51303,0
          -96.90789,19.51343,0
          -96.90854,19.51381,0
          -96.90956,19.51448,0
          -96.90969,19.51456,0
          -96.90992,19.51472,0
          -96.91002,19.5148,0
          -96.91013,19.51486,0
          -96.91016,19.51488,0
          -96.91032,19.51495,0
          -96.91068,19.51522,0
          -96.91086,19.51537,0
          -96.91118,19.51561,0
          -96.91135,19.51575,0
          -96.91142,19.51581,0
          -96.91157,19.51596,0
          -96.91202,19.51646,0
          -96.91224,19.51665,0
          -96.91231,19.51672,0
          -96.91263,19.51704,0
          -96.91316,19.51756,0
          -96.91329,19.51769,0
          -96.91363,19.51802,0
          -96.91419,19.51851,0
          -96.91447,19.51877,0
          -96.91473,19.51902,0
          -96.91474,19.51903,0
          -96.91476,19.51905,0
          -96.91477,19.51906,0
          -96.91477,19.51908,0
          -96.91478,19.5191,0
          -96.91478,19.51911,0
          -96.91478,19.51912,0
          -96.91478,19.51914,0
          -96.91477,19.51918,0
          -96.91477,19.51919,0
          -96.91476,19.5192,0
          -96.91475,19.51923,0
          -96.91464,19.51942,0
          -96.91463,19.51944,0
          -96.91466,19.51957,0
          -96.91468,19.51968,0
          -96.91475,19.51988,0
          -96.91499,19.51954,0
          -96.91513,19.51936,0
          -96.91541,19.51892,0
          -96.91544,19.51887,0
          -96.91555,19.51871,0
          -96.91575,19.51838,0
          -96.91597,19.51802,0
          -96.91613,19.51776,0
          -96.91657,19.51762,0
          -96.9167,19.51777,0
          -96.91678,19.51787,0
          -96.91691,19.51802,0
          -96.91734,19.51852,0
          -96.91755,19.51876,0
          -96.91783,19.51909,0
          -96.91789,19.51916,0
          -96.91796,19.51923,0
          -96.91809,19.51937,0
          -96.91813,19.51937,0
          -96.91816,19.51936,0
          -96.91819,19.51936,0
          -96.9182,19.51935,0
          -96.91823,19.51933,0
          -96.91826,19.51932,0
          -96.91832,19.51926,0
          -96.91832,19.51925,0
          -96.9184,19.51917,0
          -96.91854,19.51907,0
          -96.91864,19.51902,0
          -96.9187,19.519,0
          -96.91886,19.51885,0
          -96.91889,19.51877,0
          -96.91889,19.51876,0
          -96.9189,19.51875,0
          -96.9189,19.51874,0
          -96.91889,19.51873,0
          -96.91888,19.51873,0
          -96.91887,19.51872,0
          -96.91886,19.51872,0
          -96.91878,19.51872,0
          -96.91869,19.51876,0
          -96.91865,19.51878,0
          -96.91859,19.51881,0
          -96.91825,19.51905,0
          -96.91796,19.51923,0
          -96.91809,19.51937,0
          -96.91817,19.51954,0
          -96.91823,19.51967,0
          -96.91827,19.5198,0
          -96.9183,19.51987,0
          -96.91833,19.51994,0
          -96.91836,19.51998,0
          -96.91842,19.52005,0
          -96.9185,19.52015,0
          -96.91855,19.52032,0
          -96.91855,19.52042,0
          -96.91855,19.52044,0
          -96.91854,19.5205,0
          -96.91847,19.52063,0
          -96.91839,19.52075,0
          -96.91821,19.52106,0
          -96.91808,19.52121,0
          -96.91778,19.52161,0
          -96.91773,19.52165,0
          -96.91714,19.52228,0
          -96.91688,19.52252,0
          -96.91671,19.52267,0
          -96.91632,19.52297,0
          -96.91623,19.5234,0
          -96.91616,19.52374,0
          -96.91615,19.52404,0
          -96.91622,19.52421,0
          -96.91629,19.52438,0
          -96.91638,19.5245,0
          -96.91648,19.52461,0
          -96.9166,19.5247,0
          -96.91674,19.52479,0
          -96.9168,19.52488,0
          -96.91687,19.52553,0
          -96.91686,19.52592,0
          -96.91686,19.52632,0
          -96.91677,19.52658,0
          -96.91668,19.52692,0
          -96.91662,19.52714,0
          -96.91649,19.52756,0
          -96.91644,19.52764,0
          -96.91609,19.5281,0
          -96.91591,19.52834,0
          -96.9159,19.52835,0
          -96.91569,19.52862,0
          -96.91541,19.52893,0
          -96.91519,19.52925,0
          -96.91569,19.52927,0
          -96.91651,19.52927,0
          -96.91673,19.52926,0
          -96.9169,19.52925,0
          -96.91734,19.52924,0
          -96.9177,19.52922,0
          -96.91771,19.52922,0
          -96.91825,19.52918,0
          -96.91848,19.52917,0
          -96.91856,19.52914,0
          -96.91875,19.52904,0
          -96.91895,19.5289,0
          -96.9194,19.52853,0
          -96.91946,19.52847,0
          -96.92002,19.52803,0
          -96.92004,19.52802,0
          -96.92022,19.52787,0
          -96.92038,19.52775,0
          -96.92046,19.5277,0
          -96.92064,19.52762,0
          -96.92073,19.52762,0
          -96.92113,19.52756,0
          -96.92124,19.52754,0
          -96.92152,19.5275,0
          -96.92169,19.52748,0
          -96.92189,19.52745,0
          -96.92219,19.52742,0
          -96.92227,19.52741,0
          -96.92234,19.5274,0
          -96.92307,19.52732,0
          -96.92318,19.52727,0
          -96.92344,19.52723,0
          -96.9237,19.52718,0
          -96.92416,19.52715,0
          -96.9245,19.52711,0
          -96.92458,19.52712,0
          -96.92472,19.52714,0
          -96.92494,19.52721,0
          -96.92532,19.52735,0
          -96.92612,19.52767,0
          -96.92634,19.52775,0
          -96.92639,19.52778,0
          -96.9266,19.52784,0
          -96.92689,19.52791,0
          -96.92732,19.52796,0
          -96.92787,19.52802,0
          -96.92817,19.52807,0
          -96.92827,19.5281,0
          -96.92836,19.52814,0
          -96.92842,19.52816,0
          -96.92849,19.5282,0
          -96.92857,19.52825,0
          -96.9286,19.52827,0
          -96.92879,19.52844,0
          -96.92896,19.52865,0
          -96.92898,19.52867,0
          -96.9291,19.52882,0
          -96.92936,19.52916,0
          -96.92942,19.52923,0
          -96.92954,19.52933,0
          -96.93104,19.53012,0
          -96.93114,19.53016,0
          -96.9313,19.53022,0
          -96.93156,19.53036,0
          -96.93173,19.5305,0
          -96.93186,19.53062,0
          -96.932,19.5308,0
          -96.93204,19.53086,0
          -96.93215,19.53101,0
          -96.93222,19.53112,0
          -96.93244,19.53156,0
          -96.93271,19.53209,0
          -96.93292,19.53255,0
          -96.93329,19.53338,0
          -96.93331,19.53345,0
          -96.93337,19.53359,0
          -96.93349,19.53395,0
          -96.93346,19.53402,0
          -96.93344,19.53405,0
          -96.93336,19.53417,0
          -96.93331,19.53422,0
          -96.93323,19.53431,0
          -96.93308,19.53441,0
          -96.93269,19.53478,0
          -96.93192,19.53552,0
          -96.93145,19.53592,0
          -96.93094,19.53635,0
          -96.93051,19.5367,0
          -96.93045,19.53674,0
          -96.93021,19.53693,0
          -96.92997,19.53714,0
          -96.92984,19.53727,0
          -96.9297,19.53739,0
          -96.92962,19.53746,0
          -96.92896,19.53804,0
          -96.92845,19.53847,0
          -96.92809,19.53878,0
          -96.92751,19.53925,0
          -96.92689,19.53982,0
          -96.92657,19.54013,0
          -96.92637,19.5402,0
          -96.92611,19.54034,0
          -96.92608,19.54034,0
          -96.92605,19.54034,0
          -96.92601,19.54034,0
          -96.92597,19.54034,0
          -96.92592,19.54035,0
          -96.92588,19.54038,0
          -96.92586,19.54039,0
          -96.92583,19.54041,0
          -96.92582,19.54043,0
          -96.9258,19.54047,0
          -96.92579,19.5405,0
          -96.92578,19.54053,0
          -96.92579,19.54057,0
          -96.9258,19.54064,0
          -96.9259,19.5408,0
          -96.92601,19.54101,0
          -96.92622,19.5413,0
          -96.92659,19.54189,0
          -96.9269,19.54241,0
          -96.92699,19.54256,0
          -96.92702,19.54264,0
          -96.92703,19.54278,0
          -96.92704,19.54307,0
          -96.92706,19.54322,0
          -96.92709,19.54329,0
          -96.9271,19.54339,0
          -96.92713,19.54347,0
          -96.92715,19.54352,0
          -96.92719,19.54358,0
          -96.92724,19.54364,0
          -96.92729,19.54371,0
          -96.92736,19.54379,0
          -96.92748,19.54391,0
          -96.92757,19.54398,0
          -96.92763,19.54404,0
          -96.92766,19.54409,0
          -96.9277,19.54418,0
          -96.92774,19.5443,0
          -96.92781,19.54478,0
          -96.92783,19.54489,0
          -96.92786,19.54515,0
          -96.92792,19.54551,0
          -96.92799,19.5458,0
          -96.92799,19.54582,0
          -96.92809,19.54613,0
          -96.92822,19.54642,0
          -96.92824,19.54646,0
          -96.92833,19.54662,0
          -96.92852,19.54691,0
          -96.92857,19.54696,0
          -96.92863,19.54703,0
          -96.92866,19.54707,0
          -96.92882,19.54726,0
          -96.92891,19.54738,0
          -96.92911,19.54762,0
          -96.92917,19.54771,0
          -96.9292,19.54776,0
          -96.92921,19.54781,0
          -96.92926,19.54793,0
          -96.92931,19.54808,0
          -96.92931,19.5481,0
          -96.92936,19.54833,0
          -96.92945,19.54869,0
          -96.92956,19.54906,0
          -96.92957,19.54911,0
          -96.92966,19.54945,0
          -96.92974,19.54985,0
          -96.92977,19.55012,0
          -96.92975,19.55024,0
          -96.92974,19.55038,0
          -96.92955,19.55131,0
          -96.92953,19.55141,0
          -96.92928,19.55252,0
          -96.92926,19.55259,0
          -96.92907,19.5535,0
          -96.92907,19.55352,0
          -96.929,19.55401,0
          -96.92898,19.55412,0
          -96.92889,19.55476,0
          -96.92882,19.55527,0
          -96.9288,19.55542,0
          -96.92872,19.55609,0
          -96.9286,19.55701,0
          -96.9286,19.55748,0
          -96.9286,19.55782,0
          -96.92861,19.55824,0
          -96.92861,19.55851,0
          -96.9286,19.55868,0
          -96.92859,19.55882,0
          -96.92859,19.55883,0
          -96.92856,19.55915,0
          -96.92853,19.55941,0
          -96.92849,19.55973,0
          -96.92838,19.56026,0
          -96.92822,19.56102,0
          -96.92821,19.56106,0
          -96.92816,19.56125,0
          -96.92812,19.56143,0
          -96.92807,19.56162,0
          -96.92799,19.56234,0
          -96.92796,19.56259,0
          -96.92793,19.5628,0
          -96.92786,19.56287,0
          -96.92803,19.56318,0
          -96.92808,19.56329,0
          -96.92811,19.56338,0
          -96.92818,19.56355,0
          -96.92834,19.56362,0
          -96.9284,19.56365,0
          -96.92845,19.56367,0
          -96.92849,19.56369,0
          -96.92852,19.5637,0
          -96.92854,19.56371,0
          -96.92856,19.5637,0
          -96.92859,19.56369,0
          -96.92863,19.56367,0
          -96.92866,19.56365,0
          -96.92869,19.56362,0
          -96.92873,19.56355,0
          -96.92874,19.56335,0
        </coordinates>
      </LineString>
    </Placemark>
    <Placemark>
      <name>G47X+RR, 91194 Valle Real, Ver., México</name>
      <styleUrl>#icon-1899-DB4436-nodesc</styleUrl>
      <Point>
        <coordinates>
          -96.850467,19.5148937,0
        </coordinates>
      </Point>
    </Placemark>
    <Placemark>
      <name>Av. Xalapa 533, U.H. del Bosque, 91017 Xalapa-Enríquez, Ver., México</name>
      <styleUrl>#icon-1899-DB4436-nodesc</styleUrl>
      <Point>
        <coordinates>
          -96.9287438,19.563353,0
        </coordinates>
      </Point>
    </Placemark>
  </Document>
</kml>
