<?xml version="1.0" encoding="UTF-8"?>
<kml xmlns="http://www.opengis.net/kml/2.2">
  <Document>
    <name>Indicaciones de Av. Xalapa 533, U.H. del Bosque, 91017 Xalapa-Enríquez, Ver., México a G47X+RR, 91194 Valle Real, Ver., México</name>
    <Style id="icon-1899-DB4436-nodesc-normal">
      <IconStyle>
        <color>ff3644db</color>
        <scale>1</scale>
        <Icon>
          <href>https://www.gstatic.com/mapspro/images/stock/503-wht-blank_maps.png</href>
        </Icon>
        <hotSpot x="32" xunits="pixels" y="64" yunits="insetPixels"/>
      </IconStyle>
      <LabelStyle>
        <scale>0</scale>
      </LabelStyle>
      <BalloonStyle>
        <text><![CDATA[<h3>$[name]</h3>]]></text>
      </BalloonStyle>
    </Style>
    <Style id="icon-1899-DB4436-nodesc-highlight">
      <IconStyle>
        <color>ff3644db</color>
        <scale>1</scale>
        <Icon>
          <href>https://www.gstatic.com/mapspro/images/stock/503-wht-blank_maps.png</href>
        </Icon>
        <hotSpot x="32" xunits="pixels" y="64" yunits="insetPixels"/>
      </IconStyle>
      <LabelStyle>
        <scale>1</scale>
      </LabelStyle>
      <BalloonStyle>
        <text><![CDATA[<h3>$[name]</h3>]]></text>
      </BalloonStyle>
    </Style>
    <StyleMap id="icon-1899-DB4436-nodesc">
      <Pair>
        <key>normal</key>
        <styleUrl>#icon-1899-DB4436-nodesc-normal</styleUrl>
      </Pair>
      <Pair>
        <key>highlight</key>
        <styleUrl>#icon-1899-DB4436-nodesc-highlight</styleUrl>
      </Pair>
    </StyleMap>
    <Style id="line-1267FF-5000-nodesc-normal">
      <LineStyle>
        <color>ffff6712</color>
        <width>5</width>
      </LineStyle>
      <BalloonStyle>
        <text><![CDATA[<h3>$[name]</h3>]]></text>
      </BalloonStyle>
    </Style>
    <Style id="line-1267FF-5000-nodesc-highlight">
      <LineStyle>
        <color>ffff6712</color>
        <width>7.5</width>
      </LineStyle>
      <BalloonStyle>
        <text><![CDATA[<h3>$[name]</h3>]]></text>
      </BalloonStyle>
    </Style>
    <StyleMap id="line-1267FF-5000-nodesc">
      <Pair>
        <key>normal</key>
        <styleUrl>#line-1267FF-5000-nodesc-normal</styleUrl>
      </Pair>
      <Pair>
        <key>highlight</key>
        <styleUrl>#line-1267FF-5000-nodesc-highlight</styleUrl>
      </Pair>
    </StyleMap>
    <Placemark>
      <name>Indicaciones de Av. Xalapa 533, U.H. del Bosque, 91017 Xalapa-Enríquez, Ver., México a G47X+RR, 91194 Valle Real, Ver., México</name>
      <styleUrl>#line-1267FF-5000-nodesc</styleUrl>
      <LineString>
        <tessellate>1</tessellate>
        <coordinates>
          -96.92875,19.56333,0
          -96.92877,19.56286,0
          -96.92881,19.56269,0
          -96.92884,19.56251,0
          -96.92893,19.56218,0
          -96.92893,19.56205,0
          -96.92891,19.56181,0
          -96.92887,19.56146,0
          -96.92882,19.56101,0
          -96.92876,19.56025,0
          -96.92875,19.55989,0
          -96.92875,19.55975,0
          -96.92875,19.55964,0
          -96.92877,19.55945,0
          -96.92878,19.55914,0
          -96.9288,19.55876,0
          -96.9288,19.55861,0
          -96.92883,19.55772,0
          -96.92884,19.55704,0
          -96.92888,19.55643,0
          -96.92891,19.55611,0
          -96.92892,19.55598,0
          -96.92894,19.55589,0
          -96.92895,19.55582,0
          -96.92898,19.55569,0
          -96.929,19.55564,0
          -96.92901,19.5556,0
          -96.92901,19.55557,0
          -96.92903,19.55546,0
          -96.92905,19.55531,0
          -96.92901,19.55529,0
          -96.92899,19.55529,0
          -96.92898,19.55529,0
          -96.92894,19.55528,0
          -96.9289,19.55527,0
          -96.92888,19.55527,0
          -96.92886,19.55527,0
          -96.92882,19.55527,0
          -96.92794,19.55521,0
          -96.92707,19.55512,0
          -96.92679,19.55508,0
          -96.92611,19.55497,0
          -96.92527,19.55481,0
          -96.92473,19.55473,0
          -96.92412,19.55464,0
          -96.92374,19.5546,0
          -96.92357,19.55457,0
          -96.92295,19.55451,0
          -96.92233,19.55446,0
          -96.92198,19.55438,0
          -96.9218,19.55434,0
          -96.92158,19.5543,0
          -96.92071,19.55413,0
          -96.92066,19.55413,0
          -96.91973,19.55403,0
          -96.91878,19.55388,0
          -96.91841,19.55382,0
          -96.91822,19.55378,0
          -96.91785,19.55372,0
          -96.9177,19.55371,0
          -96.91745,19.55369,0
          -96.91695,19.55354,0
          -96.91676,19.55344,0
          -96.91665,19.55332,0
          -96.91656,19.55318,0
          -96.91646,19.55301,0
          -96.91629,19.55276,0
          -96.91619,19.55266,0
          -96.91613,19.55258,0
          -96.91603,19.55243,0
          -96.91594,19.55229,0
          -96.91585,19.55213,0
          -96.91572,19.55192,0
          -96.91555,19.55169,0
          -96.91553,19.55166,0
          -96.91546,19.55157,0
          -96.91531,19.55141,0
          -96.91529,19.55139,0
          -96.91529,19.55138,0
          -96.91485,19.55083,0
          -96.91484,19.55082,0
          -96.91458,19.55052,0
          -96.91433,19.55031,0
          -96.91435,19.55024,0
          -96.91436,19.55016,0
          -96.91437,19.55008,0
          -96.91436,19.54999,0
          -96.91435,19.54987,0
          -96.91434,19.5497,0
          -96.91432,19.54962,0
          -96.91433,19.54954,0
          -96.91434,19.54946,0
          -96.91437,19.54938,0
          -96.91441,19.54933,0
          -96.91446,19.54927,0
          -96.91456,19.54917,0
          -96.91574,19.54837,0
          -96.9159,19.54824,0
          -96.91604,19.54807,0
          -96.91608,19.54801,0
          -96.91611,19.54798,0
          -96.91613,19.54794,0
          -96.91614,19.5479,0
          -96.91615,19.54787,0
          -96.91617,19.54779,0
          -96.91619,19.54766,0
          -96.91636,19.54672,0
          -96.91639,19.54653,0
          -96.91643,19.54635,0
          -96.91648,19.54619,0
          -96.91656,19.54604,0
          -96.9167,19.5458,0
          -96.91672,19.54577,0
          -96.91691,19.5455,0
          -96.91759,19.54473,0
          -96.91831,19.54397,0
          -96.91899,19.54324,0
          -96.91971,19.54258,0
          -96.91983,19.54249,0
          -96.91991,19.54243,0
          -96.92,19.54237,0
          -96.92006,19.54234,0
          -96.92016,19.54229,0
          -96.9203,19.54222,0
          -96.92071,19.54203,0
          -96.92089,19.54192,0
          -96.92121,19.54174,0
          -96.92136,19.54164,0
          -96.92197,19.54096,0
          -96.92204,19.5409,0
          -96.92222,19.54072,0
          -96.92247,19.54045,0
          -96.9227,19.5405,0
          -96.9231,19.54021,0
          -96.92336,19.53988,0
          -96.9234,19.53974,0
          -96.92344,19.53965,0
          -96.92348,19.53956,0
          -96.92349,19.53951,0
          -96.9235,19.53943,0
          -96.92353,19.53934,0
          -96.92354,19.53925,0
          -96.92353,19.53815,0
          -96.92353,19.53811,0
          -96.92353,19.5381,0
          -96.92353,19.53792,0
          -96.92353,19.53721,0
          -96.92353,19.5372,0
          -96.92353,19.53702,0
          -96.92345,19.537,0
          -96.92337,19.53698,0
          -96.92269,19.53689,0
          -96.92245,19.53684,0
          -96.92245,19.5365,0
          -96.92244,19.53628,0
          -96.92242,19.53607,0
          -96.92239,19.53568,0
          -96.92243,19.535,0
          -96.92244,19.5343,0
          -96.92249,19.53288,0
          -96.9225,19.53235,0
          -96.92251,19.53219,0
          -96.92251,19.53202,0
          -96.92251,19.53148,0
          -96.92251,19.53143,0
          -96.9225,19.53115,0
          -96.92249,19.53079,0
          -96.92251,19.53045,0
          -96.92251,19.53025,0
          -96.92248,19.52968,0
          -96.92245,19.52914,0
          -96.92243,19.52867,0
          -96.92234,19.52787,0
          -96.9223,19.52768,0
          -96.92227,19.52741,0
          -96.92234,19.5274,0
          -96.92307,19.52732,0
          -96.92318,19.52727,0
          -96.92344,19.52723,0
          -96.9237,19.52718,0
          -96.92416,19.52715,0
          -96.9245,19.52711,0
          -96.92448,19.52686,0
          -96.92443,19.52684,0
          -96.92431,19.5268,0
          -96.9242,19.52676,0
          -96.92407,19.52673,0
          -96.92402,19.52671,0
          -96.92399,19.5267,0
          -96.92397,19.52669,0
          -96.9239,19.52666,0
          -96.92382,19.52664,0
          -96.92373,19.52664,0
          -96.92371,19.52664,0
          -96.92333,19.52667,0
          -96.9233,19.52668,0
          -96.92305,19.5267,0
          -96.92253,19.52669,0
          -96.92204,19.52663,0
          -96.92191,19.5266,0
          -96.92149,19.52655,0
          -96.92124,19.52653,0
          -96.92103,19.5265,0
          -96.92082,19.52647,0
          -96.92071,19.52646,0
          -96.92033,19.5264,0
          -96.92012,19.52612,0
          -96.92009,19.5261,0
          -96.91994,19.52572,0
          -96.91985,19.52559,0
          -96.91967,19.52541,0
          -96.91959,19.52533,0
          -96.9194,19.52518,0
          -96.91918,19.52498,0
          -96.91917,19.52497,0
          -96.91889,19.52474,0
          -96.91879,19.52467,0
          -96.91868,19.5246,0
          -96.91856,19.52446,0
          -96.9183,19.52412,0
          -96.91803,19.52378,0
          -96.91792,19.52358,0
          -96.91785,19.52346,0
          -96.91776,19.52333,0
          -96.91772,19.52329,0
          -96.91762,19.52319,0
          -96.91707,19.52275,0
          -96.91688,19.52252,0
          -96.91654,19.52205,0
          -96.91632,19.52167,0
          -96.91627,19.52161,0
          -96.91624,19.52157,0
          -96.91553,19.52017,0
          -96.91529,19.51968,0
          -96.91521,19.51952,0
          -96.91513,19.51936,0
          -96.91502,19.51918,0
          -96.91498,19.51913,0
          -96.91493,19.51907,0
          -96.91452,19.5187,0
          -96.91425,19.51847,0
          -96.91369,19.51796,0
          -96.91329,19.51757,0
          -96.91316,19.51744,0
          -96.91259,19.51688,0
          -96.9121,19.51644,0
          -96.91189,19.5162,0
          -96.91163,19.5159,0
          -96.91146,19.51576,0
          -96.91134,19.51565,0
          -96.91119,19.51552,0
          -96.91103,19.51539,0
          -96.91086,19.51527,0
          -96.91076,19.51519,0
          -96.91036,19.51489,0
          -96.91006,19.51473,0
          -96.90978,19.51452,0
          -96.9092,19.51407,0
          -96.90859,19.51371,0
          -96.90723,19.51295,0
          -96.90639,19.51243,0
          -96.90589,19.51214,0
          -96.90572,19.512,0
          -96.90554,19.51186,0
          -96.90544,19.51179,0
          -96.90527,19.51164,0
          -96.9051,19.51146,0
          -96.90496,19.51133,0
          -96.90416,19.51053,0
          -96.90315,19.50953,0
          -96.90288,19.50928,0
          -96.90274,19.50916,0
          -96.90251,19.50895,0
          -96.9021,19.50866,0
          -96.90203,19.50857,0
          -96.90171,19.50838,0
          -96.9016,19.5083,0
          -96.90093,19.50786,0
          -96.9006,19.50768,0
          -96.90007,19.50736,0
          -96.89991,19.50726,0
          -96.8999,19.50725,0
          -96.89979,19.50716,0
          -96.89976,19.50714,0
          -96.89959,19.50699,0
          -96.89919,19.50667,0
          -96.89908,19.50661,0
          -96.89889,19.50651,0
          -96.8987,19.50643,0
          -96.89852,19.50637,0
          -96.89836,19.50631,0
          -96.89806,19.50622,0
          -96.89771,19.50612,0
          -96.897,19.50588,0
          -96.89664,19.50575,0
          -96.89578,19.50545,0
          -96.8954,19.50534,0
          -96.89523,19.5053,0
          -96.89515,19.50529,0
          -96.89499,19.50525,0
          -96.89496,19.50525,0
          -96.89473,19.50522,0
          -96.89462,19.50521,0
          -96.89457,19.50521,0
          -96.89451,19.5052,0
          -96.89418,19.50519,0
          -96.89405,19.50519,0
          -96.89398,19.50519,0
          -96.89378,19.50519,0
          -96.89376,19.50519,0
          -96.89358,19.50521,0
          -96.89341,19.50524,0
          -96.89315,19.50528,0
          -96.89154,19.50557,0
          -96.89137,19.50563,0
          -96.89117,19.50568,0
          -96.89096,19.50571,0
          -96.89075,19.50574,0
          -96.88958,19.50595,0
          -96.88941,19.50598,0
          -96.88897,19.50606,0
          -96.88875,19.5061,0
          -96.88856,19.50613,0
          -96.88841,19.50616,0
          -96.88696,19.50642,0
          -96.88683,19.50645,0
          -96.8866,19.5065,0
          -96.88454,19.50684,0
          -96.88453,19.50684,0
          -96.88395,19.50695,0
          -96.88347,19.50703,0
          -96.88323,19.50707,0
          -96.88322,19.50707,0
          -96.88303,19.50711,0
          -96.88236,19.50723,0
          -96.88198,19.5073,0
          -96.8818,19.50734,0
          -96.88169,19.50736,0
          -96.88163,19.50737,0
          -96.88159,19.50738,0
          -96.88156,19.50738,0
          -96.88125,19.50743,0
          -96.88102,19.50747,0
          -96.88095,19.50748,0
          -96.88093,19.50749,0
          -96.88083,19.5075,0
          -96.8807,19.50752,0
          -96.88055,19.50754,0
          -96.88049,19.50754,0
          -96.88044,19.50754,0
          -96.88037,19.50753,0
          -96.88027,19.50752,0
          -96.88022,19.5075,0
          -96.88012,19.50746,0
          -96.88006,19.50743,0
          -96.87994,19.50736,0
          -96.87993,19.50735,0
          -96.87988,19.50731,0
          -96.87979,19.50724,0
          -96.87974,19.50718,0
          -96.87949,19.50694,0
          -96.87897,19.50648,0
          -96.87885,19.50639,0
          -96.87875,19.50632,0
          -96.87863,19.50624,0
          -96.87848,19.50618,0
          -96.87836,19.50614,0
          -96.87827,19.50613,0
          -96.87819,19.50613,0
          -96.87814,19.50613,0
          -96.8781,19.50613,0
          -96.87804,19.50614,0
          -96.87793,19.50616,0
          -96.87779,19.5062,0
          -96.87761,19.50626,0
          -96.8776,19.50626,0
          -96.87754,19.50628,0
          -96.87747,19.50631,0
          -96.87716,19.50647,0
          -96.87692,19.5066,0
          -96.87658,19.50691,0
          -96.87632,19.5072,0
          -96.87603,19.50754,0
          -96.87583,19.50776,0
          -96.87566,19.50793,0
          -96.87555,19.50801,0
          -96.87545,19.50807,0
          -96.87533,19.50812,0
          -96.87521,19.50817,0
          -96.87514,19.50818,0
          -96.87513,19.50819,0
          -96.87498,19.50823,0
          -96.87495,19.50824,0
          -96.8743,19.50839,0
          -96.87379,19.50854,0
          -96.87366,19.50859,0
          -96.87363,19.50857,0
          -96.8736,19.50857,0
          -96.87353,19.50857,0
          -96.87326,19.50859,0
          -96.87304,19.50859,0
          -96.87286,19.50858,0
          -96.87268,19.50857,0
          -96.8725,19.50854,0
          -96.87247,19.50853,0
          -96.87233,19.5085,0
          -96.87209,19.50843,0
          -96.87175,19.50833,0
          -96.87165,19.50829,0
          -96.87122,19.50814,0
          -96.87104,19.50807,0
          -96.87086,19.50801,0
          -96.8707,19.50795,0
          -96.87034,19.50783,0
          -96.86983,19.50766,0
          -96.86936,19.50747,0
          -96.86926,19.50755,0
          -96.8691,19.50767,0
          -96.86905,19.50771,0
          -96.869,19.50777,0
          -96.86894,19.50785,0
          -96.8689,19.50799,0
          -96.86884,19.50808,0
          -96.86878,19.50817,0
          -96.86863,19.50839,0
          -96.86847,19.50835,0
          -96.86786,19.5082,0
          -96.86698,19.50795,0
          -96.86679,19.50789,0
          -96.86661,19.50785,0
          -96.86649,19.50782,0
          -96.86592,19.50766,0
          -96.8657,19.5076,0
          -96.86565,19.50761,0
          -96.8656,19.50761,0
          -96.8651,19.50746,0
          -96.86445,19.50728,0
          -96.86399,19.50717,0
          -96.86388,19.50715,0
          -96.8638,19.50714,0
          -96.8637,19.50713,0
          -96.86343,19.50712,0
          -96.86336,19.50712,0
          -96.86289,19.50716,0
          -96.86238,19.50725,0
          -96.86223,19.50728,0
          -96.86199,19.50732,0
          -96.86195,19.50733,0
          -96.86162,19.5074,0
          -96.86161,19.5074,0
          -96.86007,19.5077,0
          -96.85989,19.50773,0
          -96.85963,19.50777,0
          -96.85957,19.50778,0
          -96.85894,19.50789,0
          -96.85873,19.50792,0
          -96.85846,19.50786,0
          -96.85825,19.50784,0
          -96.85789,19.50783,0
          -96.85746,19.5078,0
          -96.8574,19.5078,0
          -96.85722,19.50779,0
          -96.85685,19.50776,0
          -96.85657,19.50773,0
          -96.85636,19.5077,0
          -96.85618,19.5077,0
          -96.85612,19.5077,0
          -96.85607,19.50775,0
          -96.85603,19.50781,0
          -96.85601,19.50789,0
          -96.85599,19.50805,0
          -96.85595,19.50823,0
          -96.85651,19.50825,0
          -96.85765,19.50828,0
          -96.85782,19.50829,0
          -96.85789,19.50828,0
          -96.85797,19.50826,0
          -96.85802,19.50824,0
          -96.85804,19.50823,0
          -96.85806,19.50822,0
          -96.85818,19.50813,0
          -96.85831,19.50816,0
          -96.85846,19.50822,0
          -96.8585,19.50824,0
          -96.85854,19.50827,0
          -96.85857,19.50829,0
          -96.85859,19.50831,0
          -96.85861,19.50833,0
          -96.85865,19.50837,0
          -96.85865,19.50841,0
          -96.85865,19.50845,0
          -96.85865,19.50848,0
          -96.85864,19.50853,0
          -96.85863,19.50858,0
          -96.8584,19.50939,0
          -96.85819,19.51006,0
          -96.85817,19.51011,0
          -96.85815,19.51014,0
          -96.85812,19.51017,0
          -96.85809,19.5102,0
          -96.85802,19.51023,0
          -96.85795,19.51026,0
          -96.85793,19.51027,0
          -96.85783,19.51033,0
          -96.85775,19.51038,0
          -96.85768,19.51044,0
          -96.85762,19.5105,0
          -96.85757,19.5106,0
          -96.85753,19.51071,0
          -96.85751,19.51078,0
          -96.85752,19.51086,0
          -96.85753,19.51092,0
          -96.85759,19.51104,0
          -96.85779,19.51138,0
          -96.85822,19.51209,0
          -96.85831,19.51225,0
          -96.85835,19.51242,0
          -96.85837,19.51253,0
          -96.85836,19.5127,0
          -96.85834,19.51278,0
          -96.8583,19.51291,0
          -96.85823,19.51303,0
          -96.85804,19.51319,0
          -96.8577,19.51342,0
          -96.85736,19.5135,0
          -96.85719,19.51358,0
          -96.85711,19.5137,0
          -96.85702,19.51376,0
          -96.85693,19.51382,0
          -96.85674,19.51396,0
          -96.85666,19.514,0
          -96.85658,19.51401,0
          -96.85608,19.5139,0
          -96.85531,19.51367,0
          -96.85458,19.51346,0
          -96.85448,19.51343,0
          -96.85433,19.51339,0
          -96.85331,19.5131,0
          -96.85262,19.5129,0
          -96.8524,19.51285,0
          -96.85228,19.51282,0
          -96.85225,19.51282,0
          -96.8521,19.51281,0
          -96.85149,19.51279,0
          -96.85079,19.51276,0
          -96.8507,19.51271,0
          -96.85059,19.51268,0
          -96.85049,19.51265,0
          -96.85047,19.51264,0
          -96.85044,19.51263,0
          -96.8504,19.51262,0
          -96.85031,19.51258,0
          -96.8502,19.51252,0
          -96.85013,19.51249,0
          -96.85008,19.51247,0
          -96.85002,19.51246,0
          -96.84998,19.51245,0
          -96.84992,19.51244,0
          -96.84991,19.51244,0
          -96.84985,19.51245,0
          -96.84977,19.51245,0
          -96.84967,19.51248,0
          -96.84961,19.5125,0
          -96.84954,19.51253,0
          -96.84952,19.51255,0
          -96.84948,19.51258,0
          -96.84943,19.51261,0
          -96.84932,19.5127,0
          -96.84928,19.51276,0
          -96.84922,19.51283,0
          -96.84921,19.51286,0
          -96.84918,19.51292,0
          -96.84915,19.51304,0
          -96.84915,19.51305,0
          -96.84915,19.51317,0
          -96.84915,19.51329,0
          -96.84916,19.5134,0
          -96.84917,19.51348,0
          -96.8492,19.51358,0
          -96.84922,19.51364,0
          -96.84924,19.51372,0
          -96.84925,19.51375,0
          -96.8493,19.51385,0
          -96.84933,19.51391,0
          -96.8494,19.5141,0
          -96.84943,19.51416,0
          -96.84946,19.51419,0
          -96.84949,19.51422,0
          -96.84951,19.51424,0
          -96.84954,19.51425,0
          -96.84954,19.51426,0
          -96.84954,19.51427,0
          -96.84954,19.51428,0
          -96.84954,19.51429,0
          -96.84954,19.5143,0
          -96.84955,19.5143,0
          -96.84955,19.51431,0
          -96.84955,19.51432,0
          -96.84956,19.51432,0
          -96.84956,19.51433,0
          -96.84957,19.51433,0
          -96.84957,19.51434,0
          -96.84958,19.51434,0
          -96.84959,19.51434,0
          -96.84959,19.51435,0
          -96.8496,19.51435,0
          -96.84961,19.51435,0
          -96.84962,19.51436,0
          -96.84963,19.51436,0
          -96.84964,19.51436,0
          -96.84965,19.51436,0
          -96.84965,19.51435,0
          -96.84973,19.51441,0
          -96.84975,19.51443,0
          -96.84977,19.51444,0
          -96.84982,19.51445,0
          -96.84985,19.51446,0
          -96.84992,19.51449,0
          -96.84998,19.51452,0
          -96.85004,19.51455,0
          -96.85008,19.51458,0
          -96.85013,19.51462,0
          -96.85014,19.51463,0
          -96.85018,19.51466,0
          -96.85022,19.51471,0
          -96.85026,19.51476,0
          -96.85029,19.5148,0
          -96.85038,19.51492,0
          -96.85047,19.51489,0
        </coordinates>
      </LineString>
    </Placemark>
    <Placemark>
      <name>Av. Xalapa 533, U.H. del Bosque, 91017 Xalapa-Enríquez, Ver., México</name>
      <styleUrl>#icon-1899-DB4436-nodesc</styleUrl>
      <Point>
        <coordinates>
          -96.9287451,19.5633307,0
        </coordinates>
      </Point>
    </Placemark>
    <Placemark>
      <name>G47X+RR, 91194 Valle Real, Ver., México</name>
      <styleUrl>#icon-1899-DB4436-nodesc</styleUrl>
      <Point>
        <coordinates>
          -96.850467,19.5148937,0
        </coordinates>
      </Point>
    </Placemark>
  </Document>
</kml>
