<?xml version="1.0" encoding="UTF-8"?>
<kml xmlns="http://www.opengis.net/kml/2.2">
  <Document>
    <name>Indicaciones de G47X+RR, 91194 Valle Real, Ver., México a Calle Prol. Diamante 24, Luz del Barrio, 91014 Xalapa-Enríquez, Ver., México</name>
    <Style id="icon-1899-DB4436-nodesc-normal">
      <IconStyle>
        <color>ff3644db</color>
        <scale>1</scale>
        <Icon>
          <href>https://www.gstatic.com/mapspro/images/stock/503-wht-blank_maps.png</href>
        </Icon>
        <hotSpot x="32" xunits="pixels" y="64" yunits="insetPixels"/>
      </IconStyle>
      <LabelStyle>
        <scale>0</scale>
      </LabelStyle>
      <BalloonStyle>
        <text><![CDATA[<h3>$[name]</h3>]]></text>
      </BalloonStyle>
    </Style>
    <Style id="icon-1899-DB4436-nodesc-highlight">
      <IconStyle>
        <color>ff3644db</color>
        <scale>1</scale>
        <Icon>
          <href>https://www.gstatic.com/mapspro/images/stock/503-wht-blank_maps.png</href>
        </Icon>
        <hotSpot x="32" xunits="pixels" y="64" yunits="insetPixels"/>
      </IconStyle>
      <LabelStyle>
        <scale>1</scale>
      </LabelStyle>
      <BalloonStyle>
        <text><![CDATA[<h3>$[name]</h3>]]></text>
      </BalloonStyle>
    </Style>
    <StyleMap id="icon-1899-DB4436-nodesc">
      <Pair>
        <key>normal</key>
        <styleUrl>#icon-1899-DB4436-nodesc-normal</styleUrl>
      </Pair>
      <Pair>
        <key>highlight</key>
        <styleUrl>#icon-1899-DB4436-nodesc-highlight</styleUrl>
      </Pair>
    </StyleMap>
    <Style id="line-1267FF-5000-nodesc-normal">
      <LineStyle>
        <color>ffff6712</color>
        <width>5</width>
      </LineStyle>
      <BalloonStyle>
        <text><![CDATA[<h3>$[name]</h3>]]></text>
      </BalloonStyle>
    </Style>
    <Style id="line-1267FF-5000-nodesc-highlight">
      <LineStyle>
        <color>ffff6712</color>
        <width>7.5</width>
      </LineStyle>
      <BalloonStyle>
        <text><![CDATA[<h3>$[name]</h3>]]></text>
      </BalloonStyle>
    </Style>
    <StyleMap id="line-1267FF-5000-nodesc">
      <Pair>
        <key>normal</key>
        <styleUrl>#line-1267FF-5000-nodesc-normal</styleUrl>
      </Pair>
      <Pair>
        <key>highlight</key>
        <styleUrl>#line-1267FF-5000-nodesc-highlight</styleUrl>
      </Pair>
    </StyleMap>
    <Placemark>
      <name>Indicaciones de G47X+RR, 91194 Valle Real, Ver., México a Calle Prol. Diamante 24, Luz del Barrio, 91014 Xalapa-Enríquez, Ver., México</name>
      <styleUrl>#line-1267FF-5000-nodesc</styleUrl>
      <LineString>
        <tessellate>1</tessellate>
        <coordinates>
          -96.85047,19.51489,0
          -96.85028,19.51464,0
          -96.8502,19.51456,0
          -96.85003,19.51443,0
          -96.84973,19.51424,0
          -96.84973,19.51423,0
          -96.84972,19.51423,0
          -96.84972,19.51421,0
          -96.84971,19.51421,0
          -96.84971,19.5142,0
          -96.8497,19.5142,0
          -96.8497,19.51419,0
          -96.84969,19.51419,0
          -96.84968,19.51418,0
          -96.84967,19.51418,0
          -96.84966,19.51417,0
          -96.84963,19.51417,0
          -96.84937,19.51376,0
          -96.8493,19.51359,0
          -96.84924,19.51333,0
          -96.84924,19.51327,0
          -96.84923,19.51322,0
          -96.84924,19.51319,0
          -96.84924,19.51316,0
          -96.84927,19.51307,0
          -96.84935,19.51293,0
          -96.84935,19.51292,0
          -96.84939,19.51282,0
          -96.84949,19.51266,0
          -96.84953,19.51262,0
          -96.84967,19.51254,0
          -96.84978,19.51252,0
          -96.84984,19.51252,0
          -96.84989,19.51251,0
          -96.85003,19.51254,0
          -96.85005,19.51254,0
          -96.85014,19.51258,0
          -96.8503,19.51268,0
          -96.8504,19.51272,0
          -96.8506,19.51277,0
          -96.85069,19.51278,0
          -96.85079,19.51276,0
          -96.85228,19.51282,0
          -96.85262,19.5129,0
          -96.85608,19.5139,0
          -96.85658,19.51401,0
          -96.85666,19.514,0
          -96.85674,19.51396,0
          -96.85702,19.51376,0
          -96.85714,19.51386,0
          -96.85723,19.51396,0
          -96.85769,19.51361,0
          -96.85827,19.51325,0
          -96.85835,19.51331,0
          -96.85845,19.51335,0
          -96.85851,19.51335,0
          -96.85865,19.51332,0
          -96.8601,19.51519,0
          -96.8601,19.5152,0
          -96.86032,19.5155,0
          -96.86035,19.51558,0
          -96.86048,19.51582,0
          -96.86047,19.51582,0
          -96.86047,19.51584,0
          -96.86046,19.51585,0
          -96.86046,19.51586,0
          -96.86045,19.51587,0
          -96.86045,19.51594,0
          -96.86046,19.51595,0
          -96.86046,19.51598,0
          -96.86049,19.51601,0
          -96.86049,19.51602,0
          -96.8605,19.51603,0
          -96.86052,19.51604,0
          -96.86054,19.51606,0
          -96.86055,19.51606,0
          -96.86056,19.51607,0
          -96.86058,19.51607,0
          -96.86059,19.51608,0
          -96.86068,19.51608,0
          -96.86069,19.51607,0
          -96.8607,19.51607,0
          -96.86072,19.51606,0
          -96.86073,19.51606,0
          -96.86074,19.51605,0
          -96.86105,19.51652,0
          -96.86133,19.51687,0
          -96.86134,19.51687,0
          -96.8615,19.5171,0
          -96.86161,19.51723,0
          -96.86161,19.51724,0
          -96.86202,19.51775,0
          -96.86224,19.51796,0
          -96.86261,19.51826,0
          -96.86292,19.51859,0
          -96.86338,19.51919,0
          -96.86337,19.5192,0
          -96.86337,19.51922,0
          -96.86336,19.51923,0
          -96.86336,19.51925,0
          -96.86335,19.51926,0
          -96.86335,19.51931,0
          -96.86336,19.51932,0
          -96.86336,19.51934,0
          -96.86337,19.51935,0
          -96.86337,19.51936,0
          -96.8634,19.51939,0
          -96.86341,19.51941,0
          -96.86342,19.51942,0
          -96.86343,19.51942,0
          -96.86344,19.51943,0
          -96.86345,19.51943,0
          -96.86346,19.51944,0
          -96.86349,19.51944,0
          -96.8635,19.51945,0
          -96.86355,19.51945,0
          -96.86356,19.51944,0
          -96.86361,19.51951,0
          -96.86367,19.51954,0
          -96.86376,19.51971,0
          -96.86397,19.52004,0
          -96.86417,19.52054,0
          -96.86428,19.52101,0
          -96.86438,19.52129,0
          -96.86436,19.52129,0
          -96.86432,19.52133,0
          -96.86431,19.52135,0
          -96.86431,19.52136,0
          -96.86429,19.52138,0
          -96.86429,19.52141,0
          -96.86428,19.52142,0
          -96.86428,19.52146,0
          -96.86429,19.52149,0
          -96.8643,19.5215,0
          -96.8643,19.52151,0
          -96.86433,19.52154,0
          -96.86435,19.52155,0
          -96.86436,19.52156,0
          -96.86437,19.52156,0
          -96.86438,19.52157,0
          -96.86446,19.52157,0
          -96.86448,19.52156,0
          -96.86449,19.52156,0
          -96.86451,19.52155,0
          -96.8646,19.5217,0
          -96.86461,19.52171,0
          -96.86476,19.52197,0
          -96.86507,19.52236,0
          -96.86523,19.52253,0
          -96.86591,19.52306,0
          -96.86626,19.52328,0
          -96.86634,19.52332,0
          -96.86671,19.52344,0
          -96.86672,19.52345,0
          -96.86674,19.52345,0
          -96.86684,19.52349,0
          -96.86689,19.5235,0
          -96.8669,19.52351,0
          -96.86692,19.52351,0
          -96.86714,19.5236,0
          -96.86739,19.52368,0
          -96.86764,19.52374,0
          -96.86781,19.52376,0
          -96.86799,19.52373,0
          -96.86817,19.52374,0
          -96.86819,19.52375,0
          -96.8682,19.52376,0
          -96.86822,19.52377,0
          -96.86823,19.52378,0
          -96.86825,19.52379,0
          -96.86829,19.52379,0
          -96.8683,19.5238,0
          -96.86833,19.5238,0
          -96.86834,19.52379,0
          -96.86838,19.52379,0
          -96.8684,19.52378,0
          -96.86841,19.52377,0
          -96.86843,19.52377,0
          -96.86844,19.52376,0
          -96.86846,19.52375,0
          -96.86847,19.52373,0
          -96.86849,19.52371,0
          -96.8685,19.52369,0
          -96.86851,19.52368,0
          -96.86851,19.52366,0
          -96.86852,19.52364,0
          -96.86852,19.52359,0
          -96.86853,19.52358,0
          -96.86877,19.52353,0
          -96.86946,19.52343,0
          -96.86957,19.5234,0
          -96.87013,19.52314,0
          -96.87014,19.52314,0
          -96.87163,19.52246,0
          -96.87178,19.52241,0
          -96.87187,19.5224,0
          -96.87237,19.52253,0
          -96.87388,19.52302,0
          -96.87447,19.52324,0
          -96.87464,19.52327,0
          -96.87471,19.52326,0
          -96.87487,19.52321,0
          -96.8752,19.52306,0
          -96.87546,19.52297,0
          -96.87604,19.52292,0
          -96.87667,19.52265,0
          -96.87865,19.52329,0
          -96.87885,19.52333,0
          -96.87932,19.52326,0
          -96.87942,19.52326,0
          -96.88013,19.52333,0
          -96.88053,19.52333,0
          -96.88061,19.52335,0
          -96.88081,19.52336,0
          -96.88089,19.52335,0
          -96.88101,19.52331,0
          -96.88107,19.52327,0
          -96.88112,19.52325,0
          -96.88125,19.52323,0
          -96.88166,19.52321,0
          -96.88274,19.52337,0
          -96.88306,19.5234,0
          -96.88366,19.5234,0
          -96.88364,19.52354,0
          -96.88364,19.52421,0
          -96.88362,19.52424,0
          -96.88358,19.52472,0
          -96.8836,19.52487,0
          -96.88362,19.52492,0
          -96.88365,19.52505,0
          -96.88373,19.52518,0
          -96.88377,19.52523,0
          -96.88546,19.52685,0
          -96.88593,19.52736,0
          -96.8862,19.5276,0
          -96.8864,19.52782,0
          -96.88656,19.52809,0
          -96.88664,19.52831,0
          -96.88667,19.52845,0
          -96.88685,19.52901,0
          -96.88693,19.52938,0
          -96.88698,19.52954,0
          -96.88698,19.52955,0
          -96.88697,19.52955,0
          -96.88697,19.52957,0
          -96.88696,19.52957,0
          -96.88696,19.52963,0
          -96.88697,19.52963,0
          -96.88697,19.52965,0
          -96.88698,19.52966,0
          -96.88698,19.52967,0
          -96.88699,19.52967,0
          -96.88699,19.52968,0
          -96.887,19.52969,0
          -96.88701,19.52969,0
          -96.88701,19.5297,0
          -96.88734,19.53073,0
          -96.88737,19.53079,0
          -96.88742,19.53094,0
          -96.88742,19.53097,0
          -96.88751,19.53124,0
          -96.88752,19.53129,0
          -96.88754,19.53133,0
          -96.88784,19.53221,0
          -96.88799,19.53278,0
          -96.8883,19.53342,0
          -96.88841,19.53371,0
          -96.88868,19.53426,0
          -96.88889,19.53462,0
          -96.88898,19.53472,0
          -96.88915,19.53484,0
          -96.8894,19.53496,0
          -96.89033,19.53532,0
          -96.89092,19.53552,0
          -96.89119,19.53559,0
          -96.89228,19.53576,0
          -96.89215,19.53636,0
          -96.89215,19.53649,0
          -96.89213,19.5365,0
          -96.89211,19.53652,0
          -96.89209,19.53653,0
          -96.89206,19.53656,0
          -96.89207,19.53657,0
          -96.89207,19.53658,0
          -96.89208,19.53658,0
          -96.89208,19.5366,0
          -96.89209,19.53661,0
          -96.89209,19.53667,0
          -96.89207,19.53683,0
          -96.89225,19.53687,0
          -96.89237,19.53692,0
          -96.89252,19.53696,0
          -96.89276,19.53709,0
          -96.89279,19.5371,0
          -96.89321,19.53732,0
          -96.89359,19.53748,0
          -96.89405,19.5376,0
          -96.89408,19.5376,0
          -96.8941,19.53761,0
          -96.89414,19.53761,0
          -96.8942,19.53762,0
          -96.89442,19.53763,0
          -96.89519,19.5378,0
          -96.89541,19.53787,0
          -96.89636,19.53843,0
          -96.89638,19.53845,0
          -96.89638,19.53846,0
          -96.89641,19.53848,0
          -96.89722,19.53928,0
          -96.89784,19.53998,0
          -96.89813,19.54045,0
          -96.8983,19.54043,0
          -96.89874,19.5405,0
          -96.89884,19.54056,0
          -96.89893,19.54057,0
          -96.90026,19.54033,0
          -96.90067,19.54028,0
          -96.90098,19.54151,0
          -96.90099,19.54169,0
          -96.90098,19.54177,0
          -96.90095,19.54185,0
          -96.90092,19.54197,0
          -96.90091,19.54207,0
          -96.90092,19.54215,0
          -96.90095,19.54225,0
          -96.90096,19.54255,0
          -96.9009,19.54293,0
          -96.9009,19.54307,0
          -96.90109,19.54345,0
          -96.9011,19.5436,0
          -96.90109,19.54365,0
          -96.90107,19.5437,0
          -96.90094,19.5438,0
          -96.90015,19.54416,0
          -96.90003,19.54428,0
          -96.90003,19.5443,0
          -96.90001,19.54433,0
          -96.90001,19.54435,0
          -96.89989,19.54483,0
          -96.89987,19.54501,0
          -96.8999,19.54572,0
          -96.89986,19.54603,0
          -96.89982,19.54617,0
          -96.89978,19.54624,0
          -96.89966,19.54639,0
          -96.89956,19.54654,0
          -96.89936,19.54701,0
          -96.89894,19.54787,0
          -96.89892,19.54789,0
          -96.89873,19.54831,0
          -96.89864,19.54861,0
          -96.89861,19.54879,0
          -96.89819,19.5495,0
          -96.89797,19.54976,0
          -96.89788,19.54985,0
          -96.89689,19.5506,0
          -96.89656,19.55082,0
          -96.89755,19.55195,0
          -96.89766,19.55204,0
          -96.89788,19.55214,0
          -96.89918,19.55251,0
          -96.89972,19.55262,0
          -96.89997,19.55115,0
          -96.89988,19.55008,0
          -96.89981,19.54967,0
          -96.89981,19.54945,0
          -96.90004,19.54859,0
          -96.90009,19.54851,0
          -96.90014,19.54845,0
          -96.90039,19.54838,0
          -96.90111,19.54831,0
          -96.90145,19.54831,0
          -96.90364,19.54844,0
          -96.90397,19.54844,0
          -96.90472,19.5485,0
          -96.90482,19.54852,0
          -96.90485,19.54903,0
          -96.9049,19.54934,0
          -96.90493,19.54943,0
          -96.905,19.54955,0
          -96.90545,19.5506,0
          -96.90599,19.55174,0
          -96.90521,19.55198,0
          -96.90517,19.55201,0
          -96.90502,19.55219,0
          -96.9049,19.55238,0
          -96.90489,19.55239,0
          -96.9048,19.55262,0
          -96.90472,19.55298,0
          -96.90462,19.55388,0
          -96.90463,19.55437,0
          -96.90468,19.55473,0
          -96.90518,19.55658,0
          -96.9052,19.55663,0
          -96.9052,19.55664,0
          -96.90525,19.55675,0
          -96.90569,19.55752,0
          -96.90569,19.5576,0
          -96.90574,19.55772,0
          -96.90573,19.55788,0
          -96.90572,19.55792,0
          -96.90536,19.55849,0
          -96.90485,19.55913,0
          -96.90476,19.55929,0
          -96.90463,19.55961,0
          -96.90463,19.55963,0
          -96.9043,19.56076,0
          -96.90398,19.56127,0
          -96.90371,19.56165,0
          -96.90233,19.56413,0
          -96.90186,19.56483,0
          -96.90157,19.56542,0
          -96.90157,19.56543,0
          -96.90127,19.566,0
          -96.90086,19.56668,0
          -96.9007,19.5669,0
          -96.90033,19.56753,0
          -96.90027,19.56768,0
          -96.90027,19.56783,0
          -96.9004,19.56919,0
          -96.90052,19.56991,0
          -96.90064,19.57034,0
          -96.90114,19.57159,0
          -96.90139,19.57215,0
          -96.90144,19.57222,0
          -96.90149,19.57226,0
          -96.90163,19.57246,0
          -96.90166,19.57243,0
          -96.90167,19.57241,0
          -96.90169,19.5724,0
          -96.9017,19.57239,0
          -96.90175,19.57239,0
          -96.90198,19.5725,0
          -96.90208,19.57252,0
          -96.90219,19.57252,0
          -96.90225,19.57249,0
          -96.90227,19.57245,0
          -96.90229,19.57243,0
          -96.90261,19.57175,0
          -96.9027,19.57162,0
          -96.90284,19.57148,0
          -96.90295,19.5714,0
          -96.90311,19.57136,0
          -96.90318,19.57136,0
          -96.90334,19.57139,0
          -96.90352,19.57145,0
          -96.90355,19.57145,0
          -96.9037,19.57151,0
          -96.90419,19.57074,0
          -96.90421,19.57072,0
          -96.90424,19.57067,0
          -96.90425,19.57066,0
          -96.9044,19.57059,0
          -96.90459,19.57055,0
          -96.90479,19.57059,0
          -96.90541,19.5709,0
          -96.90561,19.57097,0
          -96.90568,19.57097,0
          -96.90649,19.57072,0
          -96.90692,19.57055,0
          -96.90789,19.57,0
          -96.90932,19.56911,0
          -96.90933,19.56911,0
          -96.90962,19.56894,0
          -96.91016,19.56867,0
          -96.91051,19.56855,0
          -96.91053,19.56855,0
          -96.91126,19.56836,0
          -96.91168,19.56829,0
          -96.91172,19.56827,0
          -96.91273,19.56795,0
          -96.91277,19.56795,0
          -96.91283,19.56793,0
          -96.91294,19.56785,0
          -96.91357,19.56724,0
          -96.91368,19.56709,0
          -96.91404,19.56636,0
          -96.91554,19.567,0
          -96.91575,19.56712,0
          -96.91604,19.56724,0
          -96.91658,19.56753,0
          -96.91668,19.56756,0
          -96.91706,19.56808,0
          -96.9171,19.56819,0
          -96.91743,19.5687,0
          -96.91745,19.56872,0
          -96.91791,19.56939,0
          -96.91813,19.56967,0
          -96.91871,19.57049,0
          -96.91876,19.57053,0
          -96.91879,19.57054,0
          -96.91885,19.57061,0
          -96.9191,19.57082,0
          -96.91938,19.57099,0
          -96.91971,19.57114,0
          -96.92093,19.57155,0
          -96.92125,19.57168,0
          -96.92322,19.57231,0
          -96.92335,19.57234,0
          -96.92336,19.5723,0
          -96.92334,19.57228,0
          -96.92333,19.57226,0
          -96.92333,19.57216,0
          -96.92346,19.57197,0
          -96.9242,19.57107,0
          -96.9242,19.57106,0
          -96.92433,19.57091,0
          -96.92436,19.57091,0
          -96.92443,19.57089,0
          -96.92493,19.5704,0
          -96.92595,19.56931,0
          -96.92616,19.56914,0
          -96.92749,19.56851,0
          -96.9291,19.56781,0
          -96.92911,19.56781,0
          -96.92925,19.56777,0
          -96.92934,19.56692,0
          -96.92934,19.56662,0
          -96.92931,19.56636,0
          -96.92909,19.56569,0
          -96.92909,19.56567,0
          -96.92896,19.56536,0
          -96.92894,19.56534,0
          -96.92893,19.56532,0
          -96.92892,19.56531,0
          -96.92891,19.56531,0
          -96.9289,19.5653,0
          -96.92884,19.56513,0
          -96.92883,19.56507,0
          -96.92859,19.56433,0
          -96.92871,19.56383,0
          -96.92877,19.56286,0
          -96.9314,19.56203,0
          -96.93155,19.56193,0
          -96.93181,19.56164,0
          -96.93192,19.56143,0
          -96.93195,19.56133,0
          -96.93198,19.56114,0
          -96.93189,19.56025,0
          -96.93179,19.55964,0
          -96.93173,19.55901,0
          -96.93173,19.5588,0
          -96.93178,19.55854,0
          -96.93181,19.55844,0
          -96.93264,19.55672,0
          -96.9327,19.55665,0
          -96.93306,19.55592,0
          -96.93306,19.55591,0
          -96.93387,19.55428,0
          -96.93511,19.55194,0
          -96.9356,19.55084,0
          -96.93565,19.5507,0
          -96.93572,19.55039,0
          -96.93574,19.55024,0
          -96.93574,19.54986,0
          -96.9357,19.54923,0
          -96.9361,19.54932,0
          -96.93697,19.54946,0
          -96.94095,19.55027,0
          -96.94105,19.55028,0
          -96.94682,19.55147,0
          -96.9471,19.55151,0
          -96.94769,19.55166,0
          -96.94834,19.55173,0
          -96.94909,19.55188,0
          -96.95013,19.55216,0
          -96.95182,19.55247,0
          -96.95217,19.55251,0
          -96.95343,19.55277,0
          -96.95355,19.55278,0
          -96.95357,19.55279,0
          -96.95358,19.55278,0
          -96.95362,19.55278,0
          -96.95367,19.55275,0
          -96.95382,19.55277,0
        </coordinates>
      </LineString>
    </Placemark>
    <Placemark>
      <name>G47X+RR, 91194 Valle Real, Ver., México</name>
      <styleUrl>#icon-1899-DB4436-nodesc</styleUrl>
      <Point>
        <coordinates>
          -96.850467,19.5148937,0
        </coordinates>
      </Point>
    </Placemark>
    <Placemark>
      <name>Calle Prol. Diamante 24, Luz del Barrio, 91014 Xalapa-Enríquez, Ver., México</name>
      <styleUrl>#icon-1899-DB4436-nodesc</styleUrl>
      <Point>
        <coordinates>
          -96.9538201,19.5527669,0
        </coordinates>
      </Point>
    </Placemark>
  </Document>
</kml>
