<?xml version="1.0" encoding="UTF-8"?>
<kml xmlns="http://www.opengis.net/kml/2.2">
  <Document>
    <name>Indicaciones de Calle Prol. Diamante 24, Luz del Barrio, 91014 Xalapa-Enríquez, Ver., México a G47X+RR, 91194 Valle Real, Ver., México</name>
    <Style id="icon-1899-DB4436-nodesc-normal">
      <IconStyle>
        <color>ff3644db</color>
        <scale>1</scale>
        <Icon>
          <href>https://www.gstatic.com/mapspro/images/stock/503-wht-blank_maps.png</href>
        </Icon>
        <hotSpot x="32" xunits="pixels" y="64" yunits="insetPixels"/>
      </IconStyle>
      <LabelStyle>
        <scale>0</scale>
      </LabelStyle>
      <BalloonStyle>
        <text><![CDATA[<h3>$[name]</h3>]]></text>
      </BalloonStyle>
    </Style>
    <Style id="icon-1899-DB4436-nodesc-highlight">
      <IconStyle>
        <color>ff3644db</color>
        <scale>1</scale>
        <Icon>
          <href>https://www.gstatic.com/mapspro/images/stock/503-wht-blank_maps.png</href>
        </Icon>
        <hotSpot x="32" xunits="pixels" y="64" yunits="insetPixels"/>
      </IconStyle>
      <LabelStyle>
        <scale>1</scale>
      </LabelStyle>
      <BalloonStyle>
        <text><![CDATA[<h3>$[name]</h3>]]></text>
      </BalloonStyle>
    </Style>
    <StyleMap id="icon-1899-DB4436-nodesc">
      <Pair>
        <key>normal</key>
        <styleUrl>#icon-1899-DB4436-nodesc-normal</styleUrl>
      </Pair>
      <Pair>
        <key>highlight</key>
        <styleUrl>#icon-1899-DB4436-nodesc-highlight</styleUrl>
      </Pair>
    </StyleMap>
    <Style id="line-1267FF-5000-nodesc-normal">
      <LineStyle>
        <color>ffff6712</color>
        <width>5</width>
      </LineStyle>
      <BalloonStyle>
        <text><![CDATA[<h3>$[name]</h3>]]></text>
      </BalloonStyle>
    </Style>
    <Style id="line-1267FF-5000-nodesc-highlight">
      <LineStyle>
        <color>ffff6712</color>
        <width>7.5</width>
      </LineStyle>
      <BalloonStyle>
        <text><![CDATA[<h3>$[name]</h3>]]></text>
      </BalloonStyle>
    </Style>
    <StyleMap id="line-1267FF-5000-nodesc">
      <Pair>
        <key>normal</key>
        <styleUrl>#line-1267FF-5000-nodesc-normal</styleUrl>
      </Pair>
      <Pair>
        <key>highlight</key>
        <styleUrl>#line-1267FF-5000-nodesc-highlight</styleUrl>
      </Pair>
    </StyleMap>
    <Placemark>
      <name>Indicaciones de Calle Prol. Diamante 24, Luz del Barrio, 91014 Xalapa-Enríquez, Ver., México a G47X+RR, 91194 Valle Real, Ver., México</name>
      <styleUrl>#line-1267FF-5000-nodesc</styleUrl>
      <LineString>
        <tessellate>1</tessellate>
        <coordinates>
          -96.9537,19.55276,0
          -96.95388,19.55277,0
          -96.9539,19.55247,0
          -96.95398,19.55216,0
          -96.95403,19.55163,0
          -96.95402,19.55161,0
          -96.95402,19.55158,0
          -96.954,19.55156,0
          -96.95399,19.55153,0
          -96.95377,19.55132,0
          -96.95369,19.55134,0
          -96.95332,19.55134,0
          -96.9523,19.55127,0
          -96.9503,19.55106,0
          -96.94962,19.55094,0
          -96.94836,19.55046,0
          -96.94793,19.55033,0
          -96.94777,19.55025,0
          -96.94769,19.55019,0
          -96.94764,19.55013,0
          -96.94762,19.55009,0
          -96.94761,19.55004,0
          -96.94761,19.54997,0
          -96.94762,19.54991,0
          -96.94779,19.54943,0
          -96.94782,19.54928,0
          -96.94781,19.54916,0
          -96.94777,19.54904,0
          -96.94679,19.54831,0
          -96.94576,19.54742,0
          -96.94528,19.54713,0
          -96.94408,19.54661,0
          -96.94355,19.54634,0
          -96.9434,19.54636,0
          -96.9432,19.54641,0
          -96.94312,19.54642,0
          -96.94305,19.54644,0
          -96.94286,19.54646,0
          -96.94202,19.54617,0
          -96.94185,19.54613,0
          -96.9414,19.54614,0
          -96.94134,19.54613,0
          -96.94025,19.54578,0
          -96.94019,19.54575,0
          -96.9398,19.54562,0
          -96.93961,19.54554,0
          -96.93934,19.54537,0
          -96.93891,19.54503,0
          -96.93792,19.54402,0
          -96.93512,19.54151,0
          -96.93249,19.53878,0
          -96.93177,19.53798,0
          -96.93164,19.53787,0
          -96.93182,19.53958,0
          -96.93191,19.54008,0
          -96.93205,19.54061,0
          -96.93219,19.54079,0
          -96.93268,19.54115,0
          -96.93344,19.54163,0
          -96.93381,19.54194,0
          -96.93393,19.54207,0
          -96.93395,19.54211,0
          -96.93398,19.54214,0
          -96.93404,19.54226,0
          -96.93409,19.5424,0
          -96.93409,19.54243,0
          -96.93413,19.54264,0
          -96.93413,19.5428,0
          -96.9341,19.54302,0
          -96.93377,19.54412,0
          -96.93374,19.5443,0
          -96.93374,19.54446,0
          -96.93382,19.54481,0
          -96.93401,19.54528,0
          -96.9341,19.54546,0
          -96.93508,19.547,0
          -96.93523,19.54735,0
          -96.93535,19.54772,0
          -96.93554,19.54906,0
          -96.93429,19.54876,0
          -96.93373,19.54868,0
          -96.93063,19.54803,0
          -96.93,19.54786,0
          -96.92993,19.54783,0
          -96.92987,19.54779,0
          -96.9297,19.54764,0
          -96.92959,19.54758,0
          -96.92947,19.54758,0
          -96.92938,19.54761,0
          -96.9293,19.54765,0
          -96.92868,19.54689,0
          -96.92835,19.54642,0
          -96.9281,19.54575,0
          -96.92798,19.5452,0
          -96.92781,19.54415,0
          -96.92768,19.54362,0
          -96.92724,19.54273,0
          -96.92676,19.54195,0
          -96.9267,19.54183,0
          -96.92627,19.54114,0
          -96.92621,19.54096,0
          -96.92617,19.54077,0
          -96.92617,19.54072,0
          -96.9262,19.54062,0
          -96.92622,19.54059,0
          -96.92623,19.54054,0
          -96.92623,19.5405,0
          -96.92618,19.5404,0
          -96.92611,19.54034,0
          -96.92597,19.54034,0
          -96.92592,19.54035,0
          -96.92577,19.54031,0
          -96.92576,19.5403,0
          -96.9257,19.54027,0
          -96.92562,19.54021,0
          -96.92558,19.54014,0
          -96.92549,19.54007,0
          -96.9253,19.53973,0
          -96.925,19.53932,0
          -96.92425,19.53807,0
          -96.92424,19.53804,0
          -96.92416,19.53791,0
          -96.92415,19.53788,0
          -96.92376,19.53724,0
          -96.92376,19.53723,0
          -96.92367,19.53709,0
          -96.92366,19.53709,0
          -96.92364,19.53706,0
          -96.92359,19.53701,0
          -96.92353,19.53702,0
          -96.92337,19.53698,0
          -96.92269,19.53689,0
          -96.92245,19.53684,0
          -96.91959,19.53643,0
          -96.9192,19.53627,0
          -96.91923,19.53617,0
          -96.91937,19.53292,0
          -96.91874,19.53293,0
          -96.91831,19.53296,0
          -96.91831,19.53295,0
          -96.91829,19.53296,0
          -96.91767,19.53301,0
          -96.91731,19.53307,0
          -96.9156,19.53295,0
          -96.91556,19.53296,0
          -96.91543,19.53294,0
          -96.91625,19.53371,0
          -96.91632,19.53379,0
          -96.91646,19.53403,0
          -96.9168,19.53502,0
          -96.91693,19.53521,0
          -96.91707,19.53534,0
          -96.91728,19.53547,0
          -96.91643,19.53732,0
          -96.91643,19.53733,0
          -96.9162,19.53782,0
          -96.91618,19.53791,0
          -96.91537,19.53953,0
          -96.91415,19.54009,0
          -96.91395,19.54025,0
          -96.9136,19.54057,0
          -96.91358,19.54058,0
          -96.91331,19.54083,0
          -96.91282,19.54135,0
          -96.91118,19.5433,0
          -96.9108,19.5438,0
          -96.91032,19.54434,0
          -96.91003,19.54472,0
          -96.90979,19.5451,0
          -96.90973,19.54515,0
          -96.90937,19.54529,0
          -96.90936,19.5453,0
          -96.9077,19.54595,0
          -96.9076,19.54595,0
          -96.90718,19.54568,0
          -96.90697,19.54559,0
          -96.906,19.5453,0
          -96.90558,19.54521,0
          -96.9053,19.54522,0
          -96.90507,19.54504,0
          -96.90506,19.54504,0
          -96.90434,19.54481,0
          -96.90357,19.54462,0
          -96.90356,19.54461,0
          -96.90307,19.54447,0
          -96.903,19.54444,0
          -96.90164,19.54404,0
          -96.90137,19.54394,0
          -96.90128,19.54389,0
          -96.90107,19.5437,0
          -96.90109,19.54365,0
          -96.9011,19.5436,0
          -96.90109,19.54345,0
          -96.9009,19.54307,0
          -96.9009,19.54293,0
          -96.90096,19.54255,0
          -96.90095,19.54225,0
          -96.90092,19.54215,0
          -96.90091,19.54207,0
          -96.90092,19.54197,0
          -96.90098,19.54177,0
          -96.90099,19.54169,0
          -96.90098,19.54151,0
          -96.90067,19.54028,0
          -96.90066,19.5402,0
          -96.89898,19.54048,0
          -96.89883,19.54047,0
          -96.89874,19.5405,0
          -96.8983,19.54043,0
          -96.89813,19.54045,0
          -96.89784,19.53998,0
          -96.89722,19.53928,0
          -96.89758,19.53831,0
          -96.89762,19.53823,0
          -96.89764,19.53815,0
          -96.89765,19.53813,0
          -96.89765,19.5381,0
          -96.89764,19.53809,0
          -96.89764,19.53808,0
          -96.89763,19.53808,0
          -96.89756,19.53804,0
          -96.89718,19.5379,0
          -96.89707,19.53783,0
          -96.89677,19.53769,0
          -96.89642,19.53757,0
          -96.8952,19.53689,0
          -96.89477,19.53678,0
          -96.89388,19.53661,0
          -96.89347,19.53644,0
          -96.89335,19.53636,0
          -96.89322,19.53623,0
          -96.89279,19.5359,0
          -96.89278,19.53586,0
          -96.89263,19.53573,0
          -96.89256,19.5357,0
          -96.89255,19.53569,0
          -96.89252,19.53569,0
          -96.8925,19.53568,0
          -96.89113,19.53549,0
          -96.89073,19.53537,0
          -96.89072,19.53536,0
          -96.89067,19.53534,0
          -96.89065,19.53532,0
          -96.89064,19.53532,0
          -96.89061,19.53529,0
          -96.8906,19.53526,0
          -96.8906,19.5352,0
          -96.89059,19.53518,0
          -96.8906,19.53516,0
          -96.89061,19.5351,0
          -96.89069,19.53502,0
          -96.89071,19.53501,0
          -96.89108,19.53468,0
          -96.891,19.53462,0
          -96.89059,19.53494,0
          -96.89055,19.53496,0
          -96.89045,19.53499,0
          -96.89019,19.535,0
          -96.88977,19.53495,0
          -96.88958,19.53491,0
          -96.88951,19.53488,0
          -96.88943,19.53486,0
          -96.88922,19.53475,0
          -96.889,19.53454,0
          -96.8889,19.5344,0
          -96.8886,19.53389,0
          -96.88815,19.53297,0
          -96.88807,19.53277,0
          -96.88783,19.53183,0
          -96.88725,19.5301,0
          -96.88714,19.52967,0
          -96.88715,19.52966,0
          -96.88715,19.52959,0
          -96.88714,19.52958,0
          -96.88714,19.52957,0
          -96.88713,19.52956,0
          -96.88713,19.52955,0
          -96.88711,19.52953,0
          -96.88709,19.52953,0
          -96.88709,19.52952,0
          -96.88706,19.52952,0
          -96.88696,19.52899,0
          -96.88677,19.52831,0
          -96.8866,19.52785,0
          -96.88656,19.5278,0
          -96.88394,19.52523,0
          -96.8838,19.52505,0
          -96.88375,19.52494,0
          -96.88371,19.5248,0
          -96.88369,19.52459,0
          -96.8837,19.52449,0
          -96.88367,19.52425,0
          -96.88364,19.52421,0
          -96.88364,19.52354,0
          -96.88366,19.5234,0
          -96.88366,19.5233,0
          -96.88342,19.5233,0
          -96.88306,19.52327,0
          -96.8828,19.52327,0
          -96.88162,19.52311,0
          -96.8811,19.52316,0
          -96.88098,19.52315,0
          -96.88089,19.52313,0
          -96.88071,19.52313,0
          -96.88059,19.52317,0
          -96.88058,19.52318,0
          -96.88049,19.52322,0
          -96.88041,19.52324,0
          -96.87932,19.52317,0
          -96.87898,19.52323,0
          -96.8789,19.52323,0
          -96.87879,19.52321,0
          -96.87821,19.52302,0
          -96.87807,19.52299,0
          -96.87627,19.52243,0
          -96.87694,19.52074,0
          -96.87731,19.52116,0
          -96.87694,19.52212,0
          -96.87646,19.52197,0
          -96.87624,19.52251,0
          -96.87724,19.52284,0
          -96.87705,19.52297,0
          -96.87581,19.52356,0
          -96.87604,19.52292,0
          -96.87546,19.52297,0
          -96.8752,19.52306,0
          -96.87487,19.52321,0
          -96.87471,19.52326,0
          -96.87464,19.52327,0
          -96.87447,19.52324,0
          -96.87388,19.52302,0
          -96.87237,19.52253,0
          -96.87187,19.5224,0
          -96.87178,19.52241,0
          -96.87163,19.52246,0
          -96.87014,19.52314,0
          -96.87013,19.52314,0
          -96.86957,19.5234,0
          -96.86946,19.52343,0
          -96.86895,19.5235,0
          -96.86849,19.52349,0
          -96.86845,19.52345,0
          -96.86843,19.52344,0
          -96.86842,19.52343,0
          -96.8684,19.52342,0
          -96.86838,19.52342,0
          -96.86837,19.52341,0
          -96.86827,19.52341,0
          -96.86826,19.52342,0
          -96.86824,19.52342,0
          -96.86822,19.52343,0
          -96.86821,19.52344,0
          -96.86819,19.52345,0
          -96.86817,19.52347,0
          -96.86815,19.52348,0
          -96.86814,19.5235,0
          -96.86813,19.52351,0
          -96.86813,19.52352,0
          -96.86812,19.52354,0
          -96.86812,19.52356,0
          -96.86811,19.52357,0
          -96.86811,19.52364,0
          -96.86812,19.52365,0
          -96.86799,19.52373,0
          -96.86781,19.52376,0
          -96.86764,19.52374,0
          -96.86714,19.5236,0
          -96.86692,19.52351,0
          -96.8669,19.52351,0
          -96.86689,19.5235,0
          -96.86684,19.52349,0
          -96.86674,19.52345,0
          -96.86672,19.52345,0
          -96.86671,19.52344,0
          -96.86634,19.52332,0
          -96.86591,19.52306,0
          -96.86523,19.52253,0
          -96.86507,19.52236,0
          -96.86476,19.52197,0
          -96.86461,19.52171,0
          -96.8646,19.5217,0
          -96.86451,19.52155,0
          -96.86453,19.52155,0
          -96.86454,19.52154,0
          -96.86456,19.52154,0
          -96.86457,19.52153,0
          -96.86458,19.52153,0
          -96.86459,19.52152,0
          -96.86461,19.52151,0
          -96.86462,19.5215,0
          -96.86462,19.52149,0
          -96.86465,19.52146,0
          -96.86465,19.52145,0
          -96.86466,19.52144,0
          -96.86466,19.52138,0
          -96.86465,19.52137,0
          -96.86465,19.52134,0
          -96.86463,19.52132,0
          -96.86462,19.52132,0
          -96.86462,19.52131,0
          -96.8646,19.52129,0
          -96.86458,19.52128,0
          -96.86456,19.52128,0
          -96.86455,19.52127,0
          -96.86453,19.52127,0
          -96.86452,19.52126,0
          -96.86443,19.52126,0
          -96.86442,19.52127,0
          -96.8644,19.52127,0
          -96.86438,19.52129,0
          -96.86428,19.52101,0
          -96.86417,19.52054,0
          -96.86397,19.52004,0
          -96.86376,19.51971,0
          -96.86367,19.51954,0
          -96.86367,19.51948,0
          -96.86365,19.51939,0
          -96.86367,19.51937,0
          -96.86367,19.51936,0
          -96.86368,19.51935,0
          -96.86368,19.51934,0
          -96.86369,19.51933,0
          -96.86369,19.51931,0
          -96.8637,19.5193,0
          -96.8637,19.51927,0
          -96.86369,19.51926,0
          -96.86369,19.51924,0
          -96.86368,19.51923,0
          -96.86368,19.51922,0
          -96.86367,19.51921,0
          -96.86367,19.5192,0
          -96.86365,19.51918,0
          -96.86365,19.51917,0
          -96.86364,19.51917,0
          -96.86361,19.51914,0
          -96.86359,19.51914,0
          -96.86358,19.51913,0
          -96.86356,19.51913,0
          -96.86355,19.51912,0
          -96.8635,19.51912,0
          -96.86349,19.51913,0
          -96.86347,19.51913,0
          -96.86328,19.51893,0
          -96.86298,19.51854,0
          -96.86208,19.5177,0
          -96.86079,19.51603,0
          -96.86078,19.51601,0
          -96.86079,19.516,0
          -96.86079,19.51599,0
          -96.86081,19.51597,0
          -96.86081,19.51594,0
          -96.86082,19.51593,0
          -96.86082,19.51589,0
          -96.86081,19.51587,0
          -96.86081,19.51585,0
          -96.8608,19.51584,0
          -96.8608,19.51582,0
          -96.86078,19.51581,0
          -96.86078,19.5158,0
          -96.86075,19.51577,0
          -96.86073,19.51576,0
          -96.86072,19.51576,0
          -96.8607,19.51574,0
          -96.86067,19.51574,0
          -96.86065,19.51573,0
          -96.86061,19.51573,0
          -96.8606,19.51574,0
          -96.86058,19.51574,0
          -96.86045,19.5156,0
          -96.86032,19.5155,0
          -96.8601,19.5152,0
          -96.8601,19.51519,0
          -96.85865,19.51332,0
          -96.8587,19.51329,0
          -96.85873,19.51326,0
          -96.85875,19.51325,0
          -96.85882,19.51317,0
          -96.85886,19.51303,0
          -96.85886,19.51294,0
          -96.85883,19.51285,0
          -96.85842,19.51221,0
          -96.85831,19.51225,0
          -96.85837,19.51253,0
          -96.85836,19.5127,0
          -96.8583,19.51291,0
          -96.85823,19.51303,0
          -96.85804,19.51319,0
          -96.8577,19.51342,0
          -96.85736,19.5135,0
          -96.85719,19.51358,0
          -96.85711,19.5137,0
          -96.85674,19.51396,0
          -96.85666,19.514,0
          -96.85658,19.51401,0
          -96.85608,19.5139,0
          -96.85262,19.5129,0
          -96.85228,19.51282,0
          -96.85079,19.51276,0
          -96.8507,19.51271,0
          -96.8504,19.51262,0
          -96.85008,19.51247,0
          -96.84992,19.51244,0
          -96.84985,19.51245,0
          -96.84977,19.51245,0
          -96.84954,19.51253,0
          -96.84932,19.5127,0
          -96.84922,19.51283,0
          -96.84918,19.51292,0
          -96.84915,19.51304,0
          -96.84915,19.51329,0
          -96.84917,19.51348,0
          -96.84925,19.51375,0
          -96.84933,19.51391,0
          -96.84943,19.51416,0
          -96.84951,19.51424,0
          -96.84954,19.51425,0
          -96.84954,19.5143,0
          -96.84955,19.5143,0
          -96.84955,19.51432,0
          -96.84956,19.51432,0
          -96.84956,19.51433,0
          -96.84957,19.51433,0
          -96.84957,19.51434,0
          -96.84959,19.51434,0
          -96.84959,19.51435,0
          -96.84961,19.51435,0
          -96.84962,19.51436,0
          -96.84965,19.51436,0
          -96.84965,19.51435,0
          -96.84975,19.51443,0
          -96.84977,19.51444,0
          -96.84982,19.51445,0
          -96.85004,19.51455,0
          -96.85018,19.51466,0
          -96.85038,19.51492,0
          -96.85044,19.5149,0
        </coordinates>
      </LineString>
    </Placemark>
    <Placemark>
      <name>Calle Prol. Diamante 24, Luz del Barrio, 91014 Xalapa-Enríquez, Ver., México</name>
      <styleUrl>#icon-1899-DB4436-nodesc</styleUrl>
      <Point>
        <coordinates>
          -96.9537037,19.5527577,0
        </coordinates>
      </Point>
    </Placemark>
    <Placemark>
      <name>G47X+RR, 91194 Valle Real, Ver., México</name>
      <styleUrl>#icon-1899-DB4436-nodesc</styleUrl>
      <Point>
        <coordinates>
          -96.8504388,19.5149031,0
        </coordinates>
      </Point>
    </Placemark>
  </Document>
</kml>
